[
  {
    "id": 4,
    "name": "Universitat Politècnica de Catalunya",
    "street": "C Jordi Girona",
    "streetNum": "31",
    "neighbourhood": "Pedralbes",
    "district": "Les Corts",
    "zipcode": "8034",
    "longLongitude": 41.3889,
    "longLatitude": 2.11654,
    "density": 1
  },
  {
    "id": 10,
    "name": "Museu Barça Immersive Tour",
    "street": "Carrer d'Arístides Maillol",
    "streetNum": "12",
    "neighbourhood": "la Maternitat i Sant Ramon",
    "district": "Les Corts",
    "zipcode": "8028",
    "longLongitude": 41.3791,
    "longLatitude": 2.12029,
    "density": 1
  },
  {
    "id": 21,
    "name": "Facultat de Dret - UB",
    "street": "Av Diagonal",
    "streetNum": "684",
    "neighbourhood": "Pedralbes",
    "district": "Les Corts",
    "zipcode": "8034",
    "longLongitude": 41.3872,
    "longLatitude": 2.1211,
    "density": 1
  },
  {
    "id": 29,
    "name": "Jardins del Palau de Pedralbes",
    "street": "Av Diagonal",
    "streetNum": "686",
    "neighbourhood": "Pedralbes",
    "district": "Les Corts",
    "zipcode": "8034",
    "longLongitude": 41.3866,
    "longLatitude": 2.11844,
    "density": 1
  },
  {
    "id": 35,
    "name": "Pavellons d'Entrada de l'Antiga Finca Güell",
    "street": "Avinguda de Pedralbes",
    "streetNum": "7",
    "neighbourhood": "Pedralbes",
    "district": "Les Corts",
    "zipcode": "8034",
    "longLongitude": 41.3885,
    "longLatitude": 2.12086,
    "density": 1
  },
  {
    "id": 50,
    "name": "La Zona Universitària",
    "street": "C John M Keynes",
    "streetNum": "4",
    "neighbourhood": "Pedralbes",
    "district": "Les Corts",
    "zipcode": "8034",
    "longLongitude": 41.3861,
    "longLatitude": 2.11676,
    "density": 1
  },
  {
    "id": 110,
    "name": "El barri de la Mercè",
    "street": "C Torrent de les Roses",
    "streetNum": "1",
    "neighbourhood": "Pedralbes",
    "district": "Les Corts",
    "zipcode": "8034",
    "longLongitude": 41.3889,
    "longLatitude": 2.10553,
    "density": 1
  },
  {
    "id": 117,
    "name": "La Diagonal",
    "street": "Av Diagonal",
    "streetNum": "629",
    "neighbourhood": "la Maternitat i Sant Ramon",
    "district": "Les Corts",
    "zipcode": "8028",
    "longLongitude": 41.3879,
    "longLatitude": 2.12571,
    "density": 1
  },
  {
    "id": 138,
    "name": "Masia Torre Rodona - Can Vinyals de la Torre",
    "street": "C Doctor Salvador Cardenal",
    "streetNum": "7",
    "neighbourhood": "la Maternitat i Sant Ramon",
    "district": "Les Corts",
    "zipcode": "8028",
    "longLongitude": 41.3859,
    "longLatitude": 2.12394,
    "density": 1
  },
  {
    "id": 190,
    "name": "Bibiblioteca Rector Gabriel Ferraté",
    "street": "Jordi Girona",
    "streetNum": "1",
    "neighbourhood": "Pedralbes",
    "district": "Les Corts",
    "zipcode": "8034",
    "longLongitude": 41.3879,
    "longLatitude": 2.11467,
    "density": 1
  },
  {
    "id": 196,
    "name": "Palau de Congressos de Catalunya",
    "street": "Av Diagonal",
    "streetNum": "661",
    "neighbourhood": "la Maternitat i Sant Ramon",
    "district": "Les Corts",
    "zipcode": "8028",
    "longLongitude": 41.3835,
    "longLatitude": 2.10968,
    "density": 1
  },
  {
    "id": 205,
    "name": "La plaça del Monestir",
    "street": "Pl Monestir",
    "streetNum": "-2147483648",
    "neighbourhood": "Pedralbes",
    "district": "Les Corts",
    "zipcode": "8034",
    "longLongitude": 41.3964,
    "longLatitude": 2.11291,
    "density": 1
  },
  {
    "id": 206,
    "name": "La Porta Est de la Finca Güell",
    "street": "Av Joan XXIII",
    "streetNum": "27",
    "neighbourhood": "la Maternitat i Sant Ramon",
    "district": "Les Corts",
    "zipcode": "8028",
    "longLongitude": 41.3856,
    "longLatitude": 2.12233,
    "density": 1
  },
  {
    "id": 208,
    "name": "La Vil·la Hèlius (Casa Grané)",
    "street": "C Panamà",
    "streetNum": "13",
    "neighbourhood": "Pedralbes",
    "district": "Les Corts",
    "zipcode": "8034",
    "longLongitude": 41.3955,
    "longLatitude": 2.10754,
    "density": 1
  },
  {
    "id": 209,
    "name": "L'Antic Institut Frenopàtic",
    "street": "C Mejía Lequerica",
    "streetNum": "55",
    "neighbourhood": "la Maternitat i Sant Ramon",
    "district": "Les Corts",
    "zipcode": "8028",
    "longLongitude": 41.3843,
    "longLatitude": 2.12633,
    "density": 1
  },
  {
    "id": 210,
    "name": "L'Àrea Olímpica de la Diagonal",
    "street": "Av Xile",
    "streetNum": "29",
    "neighbourhood": "la Maternitat i Sant Ramon",
    "district": "Les Corts",
    "zipcode": "8028",
    "longLongitude": 41.3803,
    "longLatitude": 2.11442,
    "density": 1
  },
  {
    "id": 217,
    "name": "Casa Carreras",
    "street": "Av Pearson",
    "streetNum": "14",
    "neighbourhood": "Pedralbes",
    "district": "Les Corts",
    "zipcode": "8034",
    "longLongitude": 41.394,
    "longLatitude": 2.10899,
    "density": 1
  },
  {
    "id": 253,
    "name": "Les Corts",
    "street": "Pl Concòrdia",
    "streetNum": "2",
    "neighbourhood": "les Corts",
    "district": "Les Corts",
    "zipcode": "8014",
    "longLongitude": 41.3867,
    "longLatitude": 2.13195,
    "density": 1
  },
  {
    "id": 267,
    "name": "Antic Monòlit Dedicat a la Legión Condor",
    "street": "Pl Reina Maria Cristina",
    "streetNum": "1",
    "neighbourhood": "Pedralbes",
    "district": "Les Corts",
    "zipcode": "8034",
    "longLongitude": 41.3886,
    "longLatitude": 2.12709,
    "density": 1
  },
  {
    "id": 272,
    "name": "Biblioteca Montserrat Abelló",
    "street": "Carrer dels Comtes de Bell-lloc",
    "streetNum": "192",
    "neighbourhood": "les Corts",
    "district": "Les Corts",
    "zipcode": "8014",
    "longLongitude": 41.3837,
    "longLatitude": 2.13531,
    "density": 1
  },
  {
    "id": 298,
    "name": "Centre Educatiu Thau",
    "street": "Av Esplugues",
    "streetNum": "49",
    "neighbourhood": "Pedralbes",
    "district": "Les Corts",
    "zipcode": "8034",
    "longLongitude": 41.3876,
    "longLatitude": 2.10529,
    "density": 1
  },
  {
    "id": 303,
    "name": "Museu Reial Monestir de Santa Maria de Pedralbes",
    "street": "Baixada del Monestir",
    "streetNum": "9",
    "neighbourhood": "Pedralbes",
    "district": "Les Corts",
    "zipcode": "8034",
    "longLongitude": 41.3956,
    "longLatitude": 2.11208,
    "density": 1
  },
  {
    "id": 304,
    "name": "Reial Club de Tennis Barcelona - 1899",
    "street": "C Bosch i Gimpera",
    "streetNum": "5",
    "neighbourhood": "Pedralbes",
    "district": "Les Corts",
    "zipcode": "8034",
    "longLongitude": 41.3937,
    "longLatitude": 2.11833,
    "density": 1
  },
  {
    "id": 305,
    "name": "Parròquia de Santa Maria del Remei",
    "street": "Pl Concòrdia",
    "streetNum": "1",
    "neighbourhood": "les Corts",
    "district": "Les Corts",
    "zipcode": "8014",
    "longLongitude": 41.3869,
    "longLatitude": 2.1321,
    "density": 1
  },
  {
    "id": 309,
    "name": "El Campus Nord, Ciutat Universitària",
    "street": "C Jordi Girona",
    "streetNum": "4",
    "neighbourhood": "Pedralbes",
    "district": "Les Corts",
    "zipcode": "8034",
    "longLongitude": 41.3872,
    "longLatitude": 2.11282,
    "density": 1
  },
  {
    "id": 314,
    "name": "La Gran Via de Carles III",
    "street": "G.V. Carles III",
    "streetNum": "60",
    "neighbourhood": "les Corts",
    "district": "Les Corts",
    "zipcode": "8028",
    "longLongitude": 41.3836,
    "longLatitude": 2.12806,
    "density": 1
  },
  {
    "id": 315,
    "name": "La plaça de la Concòrdia",
    "street": "Pl Concòrdia",
    "streetNum": "-2147483648",
    "neighbourhood": "les Corts",
    "district": "Les Corts",
    "zipcode": "8014",
    "longLongitude": 41.3865,
    "longLatitude": 2.13209,
    "density": 1
  },
  {
    "id": 316,
    "name": "La Porta Sud de la Finca Güell",
    "street": "C Lluís Solé i Sabarís",
    "streetNum": "1",
    "neighbourhood": "la Maternitat i Sant Ramon",
    "district": "Les Corts",
    "zipcode": "8028",
    "longLongitude": 41.3849,
    "longLatitude": 2.1189,
    "density": 1
  },
  {
    "id": 328,
    "name": "El Jardí Vertical",
    "street": "C Berlín",
    "streetNum": "107",
    "neighbourhood": "les Corts",
    "district": "Les Corts",
    "zipcode": "8029",
    "longLongitude": 41.3851,
    "longLatitude": 2.14174,
    "density": 1
  },
  {
    "id": 329,
    "name": "Casa Hurtado",
    "street": "Av Pedralbes",
    "streetNum": "46",
    "neighbourhood": "Pedralbes",
    "district": "Les Corts",
    "zipcode": "8034",
    "longLongitude": 41.3924,
    "longLatitude": 2.11633,
    "density": 1
  },
  {
    "id": 333,
    "name": "Carrer Martí  i Franqués",
    "street": "Carrer de Martí i Franquès",
    "streetNum": "1",
    "neighbourhood": "la Maternitat i Sant Ramon",
    "district": "Les Corts",
    "zipcode": "8028",
    "longLongitude": 41.3851,
    "longLatitude": 2.1179,
    "density": 1
  },
  {
    "id": 344,
    "name": "El camp de la Creu",
    "street": "Pl Carme",
    "streetNum": "1",
    "neighbourhood": "les Corts",
    "district": "Les Corts",
    "zipcode": "8029",
    "longLongitude": 41.3888,
    "longLatitude": 2.14018,
    "density": 1
  },
  {
    "id": 389,
    "name": "Cementiri Les Corts",
    "street": "Avinguda de Joan XXIII",
    "streetNum": "3",
    "neighbourhood": "la Maternitat i Sant Ramon",
    "district": "Les Corts",
    "zipcode": "8028",
    "longLongitude": 41.3832,
    "longLatitude": 2.12168,
    "density": 1
  },
  {
    "id": 402,
    "name": "Jardins Creu de Pedralbes",
    "street": "Av Pearson",
    "streetNum": "2",
    "neighbourhood": "Pedralbes",
    "district": "Les Corts",
    "zipcode": "8034",
    "longLongitude": 41.3943,
    "longLatitude": 2.11158,
    "density": 1
  },
  {
    "id": 409,
    "name": "Els Edificis Trade",
    "street": "G.V. Carles III",
    "streetNum": "84",
    "neighbourhood": "les Corts",
    "district": "Les Corts",
    "zipcode": "8028",
    "longLongitude": 41.3862,
    "longLatitude": 2.12795,
    "density": 1
  },
  {
    "id": 413,
    "name": "Col·legi de Censors Jurats de Comptes de Catalunya",
    "street": "C Sor Eulàlia d'Anzizu",
    "streetNum": "41",
    "neighbourhood": "Pedralbes",
    "district": "Les Corts",
    "zipcode": "8034",
    "longLongitude": 41.3904,
    "longLatitude": 2.11279,
    "density": 1
  },
  {
    "id": 415,
    "name": "Servei d'Esports de la Universitat de Barcelona",
    "street": "Av Diagonal",
    "streetNum": "695",
    "neighbourhood": "la Maternitat i Sant Ramon",
    "district": "Les Corts",
    "zipcode": "8028",
    "longLongitude": 41.3809,
    "longLatitude": 2.10483,
    "density": 1
  },
  {
    "id": 421,
    "name": "Centre Cívic Can Deu",
    "street": "Plaça de la Concòrdia",
    "streetNum": "13",
    "neighbourhood": "les Corts",
    "district": "Les Corts",
    "zipcode": "8014",
    "longLongitude": 41.3868,
    "longLatitude": 2.13252,
    "density": 1
  },
  {
    "id": 424,
    "name": "El camí de Finestrelles, i el mirador",
    "street": "Camí Finestrelles",
    "streetNum": "2",
    "neighbourhood": "Pedralbes",
    "district": "Les Corts",
    "zipcode": "8034",
    "longLongitude": 41.3872,
    "longLatitude": 2.10131,
    "density": 1
  },
  {
    "id": 428,
    "name": "Quarter Bruc",
    "street": "Av Exèrcit",
    "streetNum": "1",
    "neighbourhood": "Pedralbes",
    "district": "Les Corts",
    "zipcode": "8034",
    "longLongitude": 41.3873,
    "longLatitude": 2.11067,
    "density": 1
  },
  {
    "id": 435,
    "name": "Roca Barcelona Gallery",
    "street": "C Joan Güell",
    "streetNum": "211",
    "neighbourhood": "les Corts",
    "district": "Les Corts",
    "zipcode": "8028",
    "longLongitude": 41.3866,
    "longLatitude": 2.12923,
    "density": 1
  },
  {
    "id": 441,
    "name": "El Conjunt Residencial de Les Escales Park",
    "street": "C Sor Eulàlia d'Anzizu",
    "streetNum": "38",
    "neighbourhood": "Pedralbes",
    "district": "Les Corts",
    "zipcode": "8034",
    "longLongitude": 41.392,
    "longLatitude": 2.11539,
    "density": 1
  },
  {
    "id": 442,
    "name": "El passatge de Tubella",
    "street": "Ptge Tubella",
    "streetNum": "1",
    "neighbourhood": "les Corts",
    "district": "Les Corts",
    "zipcode": "8014",
    "longLongitude": 41.3837,
    "longLatitude": 2.13593,
    "density": 1
  },
  {
    "id": 443,
    "name": "Colònia Carné",
    "street": "Av Sant Ramon Nonat",
    "streetNum": "22",
    "neighbourhood": "la Maternitat i Sant Ramon",
    "district": "Les Corts",
    "zipcode": "8028",
    "longLongitude": 41.3768,
    "longLatitude": 2.11706,
    "density": 1
  },
  {
    "id": 444,
    "name": "'La Masia' del Barça",
    "street": "Av Joan XXIII",
    "streetNum": "2",
    "neighbourhood": "la Maternitat i Sant Ramon",
    "district": "Les Corts",
    "zipcode": "8028",
    "longLongitude": 41.3816,
    "longLatitude": 2.12155,
    "density": 1
  },
  {
    "id": 449,
    "name": "Parròquia de Sant Ramon Nonat",
    "street": "Av Sant Ramon Nonat",
    "streetNum": "1",
    "neighbourhood": "la Maternitat i Sant Ramon",
    "district": "Les Corts",
    "zipcode": "8028",
    "longLongitude": 41.376,
    "longLatitude": 2.11709,
    "density": 1
  },
  {
    "id": 450,
    "name": "Parc de Cervantes",
    "street": "Av Diagonal",
    "streetNum": "706",
    "neighbourhood": "Pedralbes",
    "district": "Les Corts",
    "zipcode": "8034",
    "longLongitude": 41.3846,
    "longLatitude": 2.10944,
    "density": 1
  },
  {
    "id": 452,
    "name": "La plaça de Pedralbes",
    "street": "Pl Pedralbes",
    "streetNum": "-2147483648",
    "neighbourhood": "Pedralbes",
    "district": "Les Corts",
    "zipcode": "8034",
    "longLongitude": 41.3957,
    "longLatitude": 2.11422,
    "density": 1
  },
  {
    "id": 454,
    "name": "La Torre Blanca",
    "street": "Pg Til·lers",
    "streetNum": "1",
    "neighbourhood": "Pedralbes",
    "district": "Les Corts",
    "zipcode": "8034",
    "longLongitude": 41.3895,
    "longLatitude": 2.11876,
    "density": 1
  },
  {
    "id": 461,
    "name": "Escola Superior d'Administració i Direcció d'Empreses - URL",
    "street": "Av Pedralbes",
    "streetNum": "60",
    "neighbourhood": "Pedralbes",
    "district": "Les Corts",
    "zipcode": "8034",
    "longLongitude": 41.3937,
    "longLatitude": 2.1145,
    "density": 1
  },
  {
    "id": 473,
    "name": "Parròquia de Maria Reina",
    "street": "Av Esplugues",
    "streetNum": "103",
    "neighbourhood": "Pedralbes",
    "district": "Les Corts",
    "zipcode": "8034",
    "longLongitude": 41.3927,
    "longLatitude": 2.11149,
    "density": 1
  },
  {
    "id": 476,
    "name": "Masia Can Rosés",
    "street": "C Deu i Mata",
    "streetNum": "49",
    "neighbourhood": "les Corts",
    "district": "Les Corts",
    "zipcode": "8029",
    "longLongitude": 41.3883,
    "longLatitude": 2.13483,
    "density": 1
  },
  {
    "id": 505,
    "name": "Ateneu de Fabricació Digital de Les Corts",
    "street": "Carrer d'Evarist Arnús",
    "streetNum": "59",
    "neighbourhood": "les Corts",
    "district": "Les Corts",
    "zipcode": "8014",
    "longLongitude": 41.3836,
    "longLatitude": 2.13556,
    "density": 1
  },
  {
    "id": 508,
    "name": "Palau Reial de Pedralbes",
    "street": "Av Diagonal",
    "streetNum": "686",
    "neighbourhood": "Pedralbes",
    "district": "Les Corts",
    "zipcode": "8034",
    "longLongitude": 41.3866,
    "longLatitude": 2.11844,
    "density": 1
  },
  {
    "id": 547,
    "name": "El passatge de Xile",
    "street": "Ptge Xile",
    "streetNum": "1",
    "neighbourhood": "la Maternitat i Sant Ramon",
    "district": "Les Corts",
    "zipcode": "8028",
    "longLongitude": 41.3769,
    "longLatitude": 2.11631,
    "density": 1
  },
  {
    "id": 548,
    "name": "Els Jardins d'Eusebi Güell",
    "street": "Pl Eusebi Güell",
    "streetNum": "-2147483648",
    "neighbourhood": "Pedralbes",
    "district": "Les Corts",
    "zipcode": "8034",
    "longLongitude": 41.3904,
    "longLatitude": 2.11441,
    "density": 1
  },
  {
    "id": 552,
    "name": "Edifici Talaia Barcelona",
    "street": "Av Sarrià",
    "streetNum": "71",
    "neighbourhood": "les Corts",
    "district": "Les Corts",
    "zipcode": "8029",
    "longLongitude": 41.3908,
    "longLatitude": 2.13949,
    "density": 1
  },
  {
    "id": 575,
    "name": "Parc de Can Rigal",
    "street": "Av Albert Bastardas",
    "streetNum": "23",
    "neighbourhood": "la Maternitat i Sant Ramon",
    "district": "Les Corts",
    "zipcode": "8028",
    "longLongitude": 41.3793,
    "longLatitude": 2.10774,
    "density": 1
  },
  {
    "id": 576,
    "name": "Reial Club de Polo de Barcelona",
    "street": "Av Doctor Marañón",
    "streetNum": "17",
    "neighbourhood": "la Maternitat i Sant Ramon",
    "district": "Les Corts",
    "zipcode": "8028",
    "longLongitude": 41.3813,
    "longLatitude": 2.11445,
    "density": 1
  },
  {
    "id": 621,
    "name": "Casa Bartomeu",
    "street": "C Rábida",
    "streetNum": "5",
    "neighbourhood": "Pedralbes",
    "district": "Les Corts",
    "zipcode": "8034",
    "longLongitude": 41.3963,
    "longLatitude": 2.10726,
    "density": 1
  },
  {
    "id": 622,
    "name": "Fundació Suñol",
    "street": "Carrer de Mejía Lequerica",
    "streetNum": "14",
    "neighbourhood": "la Maternitat i Sant Ramon",
    "district": "Les Corts",
    "zipcode": "8028",
    "longLongitude": 41.3827,
    "longLatitude": 2.12641,
    "density": 1
  },
  {
    "id": 625,
    "name": "Edifici La Maternitat",
    "street": "C Sabino Arana",
    "streetNum": "1",
    "neighbourhood": "la Maternitat i Sant Ramon",
    "district": "Les Corts",
    "zipcode": "8028",
    "longLongitude": 41.3855,
    "longLatitude": 2.12669,
    "density": 1
  },
  {
    "id": 628,
    "name": "Cristalleries Planell",
    "street": "C Doctor Ibáñez",
    "streetNum": "38",
    "neighbourhood": "les Corts",
    "district": "Les Corts",
    "zipcode": "8014",
    "longLongitude": 41.3874,
    "longLatitude": 2.1319,
    "density": 1
  },
  {
    "id": 636,
    "name": "Colònia Castells",
    "street": "C Castells",
    "streetNum": "2",
    "neighbourhood": "les Corts",
    "district": "Les Corts",
    "zipcode": "8029",
    "longLongitude": 41.3876,
    "longLatitude": 2.13925,
    "density": 1
  },
  {
    "id": 637,
    "name": "La plaça de Comas",
    "street": "Pl Comas",
    "streetNum": "18",
    "neighbourhood": "les Corts",
    "district": "Les Corts",
    "zipcode": "8028",
    "longLongitude": 41.3856,
    "longLatitude": 2.12977,
    "density": 1
  },
  {
    "id": 638,
    "name": "La plaça de la Reina Maria Cristina",
    "street": "Pl Reina Maria Cristina",
    "streetNum": "-2147483648",
    "neighbourhood": "Pedralbes",
    "district": "Les Corts",
    "zipcode": "8034",
    "longLongitude": 41.3886,
    "longLatitude": 2.1267,
    "density": 1
  },
  {
    "id": 639,
    "name": "La plaça de Ramon M. Roca i Sastre",
    "street": "Pl Ramon M. Roca Sastre",
    "streetNum": "-2147483648",
    "neighbourhood": "la Maternitat i Sant Ramon",
    "district": "Les Corts",
    "zipcode": "8028",
    "longLongitude": 41.3857,
    "longLatitude": 2.11877,
    "density": 1
  },
  {
    "id": 643,
    "name": "L'Espai de la Torre Melina i el seu Jardí Romàntic",
    "street": "C Torre Melina",
    "streetNum": "8",
    "neighbourhood": "la Maternitat i Sant Ramon",
    "district": "Les Corts",
    "zipcode": "8028",
    "longLongitude": 41.3817,
    "longLatitude": 2.10859,
    "density": 1
  },
  {
    "id": 727,
    "name": "Centre Cívic Tomasa Cuevas - Les Corts",
    "street": "Carrer de Dolors Masferrer i Bosch",
    "streetNum": "33",
    "neighbourhood": "les Corts",
    "district": "Les Corts",
    "zipcode": "8028",
    "longLongitude": 41.3848,
    "longLatitude": 2.12834,
    "density": 1
  },
  {
    "id": 732,
    "name": "Parc Científic de Barcelona",
    "street": "Carrer de Baldiri Reixac",
    "streetNum": "4",
    "neighbourhood": "la Maternitat i Sant Ramon",
    "district": "Les Corts",
    "zipcode": "8028",
    "longLongitude": 41.3818,
    "longLatitude": 2.11644,
    "density": 1
  },
  {
    "id": 756,
    "name": "Jardins de Magalí",
    "street": "C Vallespir",
    "streetNum": "194",
    "neighbourhood": "les Corts",
    "district": "Les Corts",
    "zipcode": "8014",
    "longLongitude": 41.3849,
    "longLatitude": 2.13353,
    "density": 1
  },
  {
    "id": 780,
    "name": "Centre Comercial L'Illa Diagonal",
    "street": "Av Diagonal",
    "streetNum": "557",
    "neighbourhood": "les Corts",
    "district": "Les Corts",
    "zipcode": "8029",
    "longLongitude": 41.3897,
    "longLatitude": 2.1354,
    "density": 1
  },
  {
    "id": 810,
    "name": "Spotify Camp Nou * Tancat per remodelació",
    "street": "C Aristides Maillol",
    "streetNum": "12",
    "neighbourhood": "la Maternitat i Sant Ramon",
    "district": "Les Corts",
    "zipcode": "8028",
    "longLongitude": 41.3808,
    "longLatitude": 2.12288,
    "density": 1
  },
  {
    "id": 826,
    "name": "Torre de Santa Caterina",
    "street": "C Panamà",
    "streetNum": "21",
    "neighbourhood": "Pedralbes",
    "district": "Les Corts",
    "zipcode": "8034",
    "longLongitude": 41.395,
    "longLatitude": 2.10593,
    "density": 1
  },
  {
    "id": 850,
    "name": "Mercat Les Corts",
    "street": "Travessera de les Corts",
    "streetNum": "215",
    "neighbourhood": "les Corts",
    "district": "Les Corts",
    "zipcode": "8028",
    "longLongitude": 41.3841,
    "longLatitude": 2.1298,
    "density": 1
  }
]