[
  {
    "id": 1,
    "name": "Hotel d'Entitats de Can Guardiola",
    "street": "Cuba",
    "streetNum": "2",
    "neighbourhood": "Sant Andreu",
    "district": "Sant Andreu",
    "zipcode": "8030",
    "longLongitude": 41.43,
    "longLatitude": 2.18855,
    "density": 1
  },
  {
    "id": 6,
    "name": "Torre del Fang",
    "street": "Clot",
    "streetNum": "228",
    "neighbourhood": "la Sagrera",
    "district": "Sant Andreu",
    "zipcode": "8027",
    "longLongitude": 41.4165,
    "longLatitude": 2.19195,
    "density": 1
  },
  {
    "id": 14,
    "name": "Can Fontanet - Centre d'Interpretació dels Tres Tombs de Sant Andreu",
    "street": "C Sant Adrià",
    "streetNum": "20",
    "neighbourhood": "Sant Andreu",
    "district": "Sant Andreu",
    "zipcode": "8030",
    "longLongitude": 41.4338,
    "longLatitude": 2.19083,
    "density": 1
  },
  {
    "id": 27,
    "name": "Casal Catòlic de Sant Andreu - Àntic Casino \"El Progrés\"",
    "street": "C Pons i Gallarza",
    "streetNum": "58",
    "neighbourhood": "Sant Andreu",
    "district": "Sant Andreu",
    "zipcode": "8030",
    "longLongitude": 41.4356,
    "longLatitude": 2.18647,
    "density": 1
  },
  {
    "id": 31,
    "name": "Pont de Calatrava (Bac de Roda - Felip II)",
    "street": "Carrer de Felip II",
    "streetNum": "2",
    "neighbourhood": "la Sagrera",
    "district": "Sant Andreu",
    "zipcode": "8027",
    "longLongitude": 41.4162,
    "longLatitude": 2.19241,
    "density": 1
  },
  {
    "id": 40,
    "name": "Antiga Estació de Rodalies Sant Andreu Comtal de RENFE",
    "street": "Plaça de l'Estació",
    "streetNum": "1",
    "neighbourhood": "Sant Andreu",
    "district": "Sant Andreu",
    "zipcode": "8030",
    "longLongitude": 41.4359,
    "longLatitude": 2.19249,
    "density": 1
  },
  {
    "id": 60,
    "name": "Centre Municipal de Cultura Popular de Sant Andreu",
    "street": "C Arquímedes",
    "streetNum": "30",
    "neighbourhood": "Sant Andreu",
    "district": "Sant Andreu",
    "zipcode": "8030",
    "longLongitude": 41.4407,
    "longLatitude": 2.18764,
    "density": 1
  },
  {
    "id": 93,
    "name": "Impremta Baltasar",
    "street": "Gran de Sant Andreu",
    "streetNum": "152",
    "neighbourhood": "Sant Andreu",
    "district": "Sant Andreu",
    "zipcode": "8030",
    "longLongitude": 41.4321,
    "longLatitude": 2.18941,
    "density": 1
  },
  {
    "id": 118,
    "name": "Refugi Antiaeri de La Lira",
    "street": "C Coroleu",
    "streetNum": "15",
    "neighbourhood": "Sant Andreu",
    "district": "Sant Andreu",
    "zipcode": "8030",
    "longLongitude": 41.4328,
    "longLatitude": 2.18817,
    "density": 1
  },
  {
    "id": 119,
    "name": "Refugi Antiaeri 977 (Matanzas / Pinar del Río)",
    "street": "C Pinar del Río",
    "streetNum": "32",
    "neighbourhood": "el Congrés i els Indians",
    "district": "Sant Andreu",
    "zipcode": "8027",
    "longLongitude": 41.4224,
    "longLatitude": 2.18206,
    "density": 1
  },
  {
    "id": 120,
    "name": "Capella dels Segadors",
    "street": "Pl Orfila",
    "streetNum": "5",
    "neighbourhood": "Sant Andreu",
    "district": "Sant Andreu",
    "zipcode": "8030",
    "longLongitude": 41.4363,
    "longLatitude": 2.19149,
    "density": 1
  },
  {
    "id": 125,
    "name": "La llera del riu Besòs",
    "street": "Pl Turó de la Trinitat",
    "streetNum": "1",
    "neighbourhood": "la Trinitat Vella",
    "district": "Sant Andreu",
    "zipcode": "8033",
    "longLongitude": 41.4547,
    "longLatitude": 2.19092,
    "density": 1
  },
  {
    "id": 128,
    "name": "Bar musical La Torre Rosa",
    "street": "C Francesc Tàrrega",
    "streetNum": "22",
    "neighbourhood": "el Congrés i els Indians",
    "district": "Sant Andreu",
    "zipcode": "8027",
    "longLongitude": 41.4227,
    "longLatitude": 2.1805,
    "density": 1
  },
  {
    "id": 136,
    "name": "Sant Andreu Teatre",
    "street": "C Neopàtria",
    "streetNum": "54",
    "neighbourhood": "Sant Andreu",
    "district": "Sant Andreu",
    "zipcode": "8030",
    "longLongitude": 41.4306,
    "longLatitude": 2.18892,
    "density": 1
  },
  {
    "id": 141,
    "name": "La plaça d'Orfila",
    "street": "Pl Orfila",
    "streetNum": "2",
    "neighbourhood": "Sant Andreu",
    "district": "Sant Andreu",
    "zipcode": "8030",
    "longLongitude": 41.4362,
    "longLatitude": 2.19096,
    "density": 1
  },
  {
    "id": 144,
    "name": "Xemeneia de Can Galta Cremat",
    "street": "C Arquímedes",
    "streetNum": "30",
    "neighbourhood": "Sant Andreu",
    "district": "Sant Andreu",
    "zipcode": "8030",
    "longLongitude": 41.4406,
    "longLatitude": 2.18772,
    "density": 1
  },
  {
    "id": 145,
    "name": "Les Carasses",
    "street": "Pg Torras i Bages",
    "streetNum": "108",
    "neighbourhood": "Sant Andreu",
    "district": "Sant Andreu",
    "zipcode": "8030",
    "longLongitude": 41.4414,
    "longLatitude": 2.19108,
    "density": 1
  },
  {
    "id": 150,
    "name": "Can Fabra",
    "street": "C Segre",
    "streetNum": "24",
    "neighbourhood": "Sant Andreu",
    "district": "Sant Andreu",
    "zipcode": "8030",
    "longLongitude": 41.4349,
    "longLatitude": 2.19173,
    "density": 1
  },
  {
    "id": 155,
    "name": "Ateneu d'Innovació Digital i Democràtica - Canòdrom",
    "street": "C Concepción Arenal",
    "streetNum": "165",
    "neighbourhood": "el Congrés i els Indians",
    "district": "Sant Andreu",
    "zipcode": "8027",
    "longLongitude": 41.4273,
    "longLatitude": 2.18412,
    "density": 1
  },
  {
    "id": 157,
    "name": "El barri del Bon Pastor",
    "street": "C Estadella",
    "streetNum": "65",
    "neighbourhood": "el Bon Pastor",
    "district": "Sant Andreu",
    "zipcode": "8030",
    "longLongitude": 41.4355,
    "longLatitude": 2.20459,
    "density": 1
  },
  {
    "id": 185,
    "name": "La Sagrera",
    "street": "C Ciutat d'Elx",
    "streetNum": "8",
    "neighbourhood": "la Sagrera",
    "district": "Sant Andreu",
    "zipcode": "8027",
    "longLongitude": 41.4205,
    "longLatitude": 2.19004,
    "density": 1
  },
  {
    "id": 197,
    "name": "Camp Municipal Futbol Narcís Sala",
    "street": "C Santa Coloma",
    "streetNum": "39",
    "neighbourhood": "Sant Andreu",
    "district": "Sant Andreu",
    "zipcode": "8030",
    "longLongitude": 41.4289,
    "longLatitude": 2.19309,
    "density": 1
  },
  {
    "id": 207,
    "name": "La Plaça del Comerç",
    "street": "Pl Comerç",
    "streetNum": "6",
    "neighbourhood": "Sant Andreu",
    "district": "Sant Andreu",
    "zipcode": "8030",
    "longLongitude": 41.4352,
    "longLatitude": 2.18988,
    "density": 1
  },
  {
    "id": 214,
    "name": "Clínica Sant Jordi",
    "street": "Pl Estació",
    "streetNum": "12",
    "neighbourhood": "Sant Andreu",
    "district": "Sant Andreu",
    "zipcode": "8030",
    "longLongitude": 41.4368,
    "longLatitude": 2.19308,
    "density": 1
  },
  {
    "id": 225,
    "name": "Club Natació Sant Andreu",
    "street": "Rbla Fabra i Puig",
    "streetNum": "47",
    "neighbourhood": "Sant Andreu",
    "district": "Sant Andreu",
    "zipcode": "8030",
    "longLongitude": 41.43,
    "longLatitude": 2.18631,
    "density": 1
  },
  {
    "id": 260,
    "name": "Pis - Museu Habitatge 1/11",
    "street": "Passeig de Torras i Bages",
    "streetNum": "91",
    "neighbourhood": "Sant Andreu",
    "district": "Sant Andreu",
    "zipcode": "8030",
    "longLongitude": 41.441,
    "longLatitude": 2.19035,
    "density": 1
  },
  {
    "id": 265,
    "name": "Antiga Biblioteca Pública de Sant Andreu de Palomar",
    "street": "C Santa Marta",
    "streetNum": "12",
    "neighbourhood": "Sant Andreu",
    "district": "Sant Andreu",
    "zipcode": "8030",
    "longLongitude": 41.4368,
    "longLatitude": 2.19055,
    "density": 1
  },
  {
    "id": 266,
    "name": "L'Aqüeducte Palombarum",
    "street": "C Fernando Pessoa",
    "streetNum": "1",
    "neighbourhood": "Sant Andreu",
    "district": "Sant Andreu",
    "zipcode": "8030",
    "longLongitude": 41.4382,
    "longLatitude": 2.19319,
    "density": 1
  },
  {
    "id": 268,
    "name": "Cansaladeria Puig",
    "street": "C Gran de Sant Andreu",
    "streetNum": "147",
    "neighbourhood": "Sant Andreu",
    "district": "Sant Andreu",
    "zipcode": "8030",
    "longLongitude": 41.432,
    "longLatitude": 2.18923,
    "density": 1
  },
  {
    "id": 286,
    "name": "Associació Eix Comercial de Sant Andreu",
    "street": "C Rubén Darío",
    "streetNum": "37",
    "neighbourhood": "Sant Andreu",
    "district": "Sant Andreu",
    "zipcode": "8030",
    "longLongitude": 41.4342,
    "longLatitude": 2.18804,
    "density": 1
  },
  {
    "id": 294,
    "name": "Fàbrica Sanchís",
    "street": "Pg Enric Sanchis",
    "streetNum": "21",
    "neighbourhood": "el Bon Pastor",
    "district": "Sant Andreu",
    "zipcode": "8030",
    "longLongitude": 41.435,
    "longLatitude": 2.20539,
    "density": 1
  },
  {
    "id": 313,
    "name": "Parròquia de la Santíssima Trinitat",
    "street": "C Turó de la Trinitat",
    "streetNum": "30",
    "neighbourhood": "la Trinitat Vella",
    "district": "Sant Andreu",
    "zipcode": "8033",
    "longLongitude": 41.4503,
    "longLatitude": 2.19048,
    "density": 1
  },
  {
    "id": 317,
    "name": "La Plaça dels Indians",
    "street": "C Garcilaso",
    "streetNum": "140",
    "neighbourhood": "el Congrés i els Indians",
    "district": "Sant Andreu",
    "zipcode": "8027",
    "longLongitude": 41.4235,
    "longLatitude": 2.18254,
    "density": 1
  },
  {
    "id": 325,
    "name": "Cooperativa La Guardiola Familiar",
    "street": "C Borriana",
    "streetNum": "54",
    "neighbourhood": "Sant Andreu",
    "district": "Sant Andreu",
    "zipcode": "8030",
    "longLongitude": 41.4306,
    "longLatitude": 2.19183,
    "density": 1
  },
  {
    "id": 343,
    "name": "Bar Colòmbia",
    "street": "Rbla Fabra i Puig",
    "streetNum": "1",
    "neighbourhood": "Sant Andreu",
    "district": "Sant Andreu",
    "zipcode": "8030",
    "longLongitude": 41.43,
    "longLatitude": 2.18952,
    "density": 1
  },
  {
    "id": 345,
    "name": "Ca l'Estruc- Convent de les Germanes de l'Assumpció",
    "street": "C Pons i Gallarza",
    "streetNum": "30",
    "neighbourhood": "Sant Andreu",
    "district": "Sant Andreu",
    "zipcode": "8030",
    "longLongitude": 41.4355,
    "longLatitude": 2.18802,
    "density": 1
  },
  {
    "id": 346,
    "name": "Botiga Casa Rusca",
    "street": "C Gran de Sant Andreu",
    "streetNum": "135",
    "neighbourhood": "Sant Andreu",
    "district": "Sant Andreu",
    "zipcode": "8030",
    "longLongitude": 41.4316,
    "longLatitude": 2.18929,
    "density": 1
  },
  {
    "id": 366,
    "name": "Centre Penitenciari Obert 2  - Presó de Dones de la Trinitat",
    "street": "C Pare Manjón",
    "streetNum": "2",
    "neighbourhood": "la Trinitat Vella",
    "district": "Sant Andreu",
    "zipcode": "8033",
    "longLongitude": 41.4535,
    "longLatitude": 2.19146,
    "density": 1
  },
  {
    "id": 367,
    "name": "MUHBA Museu d'Història de Barcelona - Casa de l'Aigua",
    "street": "Carretera de Ribes",
    "streetNum": "103",
    "neighbourhood": "la Trinitat Vella",
    "district": "Sant Andreu",
    "zipcode": "8033",
    "longLongitude": 41.4546,
    "longLatitude": 2.18973,
    "density": 1
  },
  {
    "id": 368,
    "name": "Farmàcia Guinart Gómez de Arteche",
    "street": "Carrer Gran de Sant Andreu",
    "streetNum": "306",
    "neighbourhood": "Sant Andreu",
    "district": "Sant Andreu",
    "zipcode": "8030",
    "longLongitude": 41.4371,
    "longLatitude": 2.18973,
    "density": 1
  },
  {
    "id": 371,
    "name": "Mural de la Memòria de Baró de Viver",
    "street": "Pg Santa Coloma",
    "streetNum": "98",
    "neighbourhood": "Baró de Viver",
    "district": "Sant Andreu",
    "zipcode": "8030",
    "longLongitude": 41.4478,
    "longLatitude": 2.19842,
    "density": 1
  },
  {
    "id": 385,
    "name": "Farmàcia Franquesa Grau",
    "street": "Carrer Gran de Sant Andreu",
    "streetNum": "260",
    "neighbourhood": "Sant Andreu",
    "district": "Sant Andreu",
    "zipcode": "8030",
    "longLongitude": 41.4352,
    "longLatitude": 2.18977,
    "density": 1
  },
  {
    "id": 427,
    "name": "Cooperativa La Confiança Andreuenca",
    "street": "C Pons i Gallarza",
    "streetNum": "103",
    "neighbourhood": "Sant Andreu",
    "district": "Sant Andreu",
    "zipcode": "8030",
    "longLongitude": 41.4356,
    "longLatitude": 2.18531,
    "density": 1
  },
  {
    "id": 436,
    "name": "Cooperativa La Flor de Maig - sucursal núm. 7",
    "street": "C Martí Molins",
    "streetNum": "10",
    "neighbourhood": "la Sagrera",
    "district": "Sant Andreu",
    "zipcode": "8027",
    "longLongitude": 41.4241,
    "longLatitude": 2.19031,
    "density": 1
  },
  {
    "id": 445,
    "name": "\"Vivendes\" del Congrés Eucarístic",
    "street": "Pl Congrés Eucarístic",
    "streetNum": "7",
    "neighbourhood": "el Congrés i els Indians",
    "district": "Sant Andreu",
    "zipcode": "8027",
    "longLongitude": 41.4258,
    "longLatitude": 2.18154,
    "density": 1
  },
  {
    "id": 446,
    "name": "Antiga Biblioteca Infantil del GATCPAC",
    "street": "Pl Palmeres",
    "streetNum": "2",
    "neighbourhood": "Sant Andreu",
    "district": "Sant Andreu",
    "zipcode": "8030",
    "longLongitude": 41.4324,
    "longLatitude": 2.18629,
    "density": 1
  },
  {
    "id": 447,
    "name": "Cases Barates del Bon Pastor",
    "street": "C Bellmunt",
    "streetNum": "28",
    "neighbourhood": "el Bon Pastor",
    "district": "Sant Andreu",
    "zipcode": "8030",
    "longLongitude": 41.4378,
    "longLatitude": 2.20619,
    "density": 1
  },
  {
    "id": 448,
    "name": "Rambla de Fabra i Puig",
    "street": "C Concepción Arenal",
    "streetNum": "211",
    "neighbourhood": "Sant Andreu",
    "district": "Sant Andreu",
    "zipcode": "8030",
    "longLongitude": 41.4304,
    "longLatitude": 2.18453,
    "density": 1
  },
  {
    "id": 455,
    "name": "Pilar d'Aigua de Sant Andreu",
    "street": "C Llenguadoc",
    "streetNum": "95",
    "neighbourhood": "Sant Andreu",
    "district": "Sant Andreu",
    "zipcode": "8030",
    "longLongitude": 41.4304,
    "longLatitude": 2.18527,
    "density": 1
  },
  {
    "id": 456,
    "name": "La Plaça de les Havaneres",
    "street": "C Jordi de Sant Jordi",
    "streetNum": "5",
    "neighbourhood": "el Congrés i els Indians",
    "district": "Sant Andreu",
    "zipcode": "8027",
    "longLongitude": 41.4213,
    "longLatitude": 2.18268,
    "density": 1
  },
  {
    "id": 477,
    "name": "Consell Municipal del Districte de Sant Andreu",
    "street": "Plaça d'Orfila",
    "streetNum": "1",
    "neighbourhood": "Sant Andreu",
    "district": "Sant Andreu",
    "zipcode": "8030",
    "longLongitude": 41.436,
    "longLatitude": 2.19061,
    "density": 1
  },
  {
    "id": 480,
    "name": "El Congrés i els Indians",
    "street": "C Pinar del Río",
    "streetNum": "56",
    "neighbourhood": "el Congrés i els Indians",
    "district": "Sant Andreu",
    "zipcode": "8027",
    "longLongitude": 41.4227,
    "longLatitude": 2.18013,
    "density": 1
  },
  {
    "id": 483,
    "name": "L'Estació de La Sagrera",
    "street": "C Hondures",
    "streetNum": "76",
    "neighbourhood": "la Sagrera",
    "district": "Sant Andreu",
    "zipcode": "8027",
    "longLongitude": 41.4219,
    "longLatitude": 2.18738,
    "density": 1
  },
  {
    "id": 486,
    "name": "Carrer de les Monges",
    "street": "C Monges",
    "streetNum": "10",
    "neighbourhood": "Sant Andreu",
    "district": "Sant Andreu",
    "zipcode": "8030",
    "longLongitude": 41.4307,
    "longLatitude": 2.18794,
    "density": 1
  },
  {
    "id": 487,
    "name": "Carrer Gran de Sant Andreu",
    "street": "C Malats",
    "streetNum": "26",
    "neighbourhood": "Sant Andreu",
    "district": "Sant Andreu",
    "zipcode": "8030",
    "longLongitude": 41.4361,
    "longLatitude": 2.18988,
    "density": 1
  },
  {
    "id": 489,
    "name": "Molí de Sant Andreu - Rec Comtal",
    "street": "C Andana de l'Estació",
    "streetNum": "22",
    "neighbourhood": "Sant Andreu",
    "district": "Sant Andreu",
    "zipcode": "8030",
    "longLongitude": 41.4431,
    "longLatitude": 2.19402,
    "density": 1
  },
  {
    "id": 500,
    "name": "Parc de la Pegaso",
    "street": "C Sagrera",
    "streetNum": "179",
    "neighbourhood": "la Sagrera",
    "district": "Sant Andreu",
    "zipcode": "8027",
    "longLongitude": 41.4269,
    "longLatitude": 2.19074,
    "density": 1
  },
  {
    "id": 501,
    "name": "Parròquia de Sant Pacià",
    "street": "C Monges",
    "streetNum": "27",
    "neighbourhood": "Sant Andreu",
    "district": "Sant Andreu",
    "zipcode": "8030",
    "longLongitude": 41.4317,
    "longLatitude": 2.18759,
    "density": 1
  },
  {
    "id": 523,
    "name": "Refugi Antiaeri de la Sagrera",
    "street": "C Berenguer de Palou",
    "streetNum": "64",
    "neighbourhood": "la Sagrera",
    "district": "Sant Andreu",
    "zipcode": "8027",
    "longLongitude": 41.4237,
    "longLatitude": 2.19195,
    "density": 1
  },
  {
    "id": 524,
    "name": "Carrer Campo Florido",
    "street": "C Campo Florido",
    "streetNum": "9",
    "neighbourhood": "el Congrés i els Indians",
    "district": "Sant Andreu",
    "zipcode": "8027",
    "longLongitude": 41.4214,
    "longLatitude": 2.18248,
    "density": 1
  },
  {
    "id": 526,
    "name": "Carrer Coroleu",
    "street": "C Coroleu",
    "streetNum": "42",
    "neighbourhood": "Sant Andreu",
    "district": "Sant Andreu",
    "zipcode": "8030",
    "longLongitude": 41.433,
    "longLatitude": 2.18719,
    "density": 1
  },
  {
    "id": 527,
    "name": "Carrer Grau",
    "street": "C Grau",
    "streetNum": "47",
    "neighbourhood": "Sant Andreu",
    "district": "Sant Andreu",
    "zipcode": "8030",
    "longLongitude": 41.4388,
    "longLatitude": 2.18767,
    "density": 1
  },
  {
    "id": 528,
    "name": "Carrer Manigua",
    "street": "C Garcilaso",
    "streetNum": "200",
    "neighbourhood": "el Congrés i els Indians",
    "district": "Sant Andreu",
    "zipcode": "8027",
    "longLongitude": 41.4237,
    "longLatitude": 2.17974,
    "density": 1
  },
  {
    "id": 529,
    "name": "Carrer Matanzas",
    "street": "C Matanzas",
    "streetNum": "40",
    "neighbourhood": "el Congrés i els Indians",
    "district": "Sant Andreu",
    "zipcode": "8027",
    "longLongitude": 41.4228,
    "longLatitude": 2.18219,
    "density": 1
  },
  {
    "id": 530,
    "name": "Menjadors populars del carrer Gran Sant Andreu (Guerra Civil)",
    "street": "C Gran de Sant Andreu",
    "streetNum": "176",
    "neighbourhood": "Sant Andreu",
    "district": "Sant Andreu",
    "zipcode": "8030",
    "longLongitude": 41.4327,
    "longLatitude": 2.1894,
    "density": 1
  },
  {
    "id": 558,
    "name": "Jardins de Massana",
    "street": "Felip II",
    "streetNum": "216",
    "neighbourhood": "el Congrés i els Indians",
    "district": "Sant Andreu",
    "zipcode": "8027",
    "longLongitude": 41.427,
    "longLatitude": 2.17853,
    "density": 1
  },
  {
    "id": 560,
    "name": "Casernes d'Artilleria  de Sant Andreu",
    "street": "Pg Torras i Bages",
    "streetNum": "141",
    "neighbourhood": "Sant Andreu",
    "district": "Sant Andreu",
    "zipcode": "8030",
    "longLongitude": 41.444,
    "longLatitude": 2.19051,
    "density": 1
  },
  {
    "id": 563,
    "name": "Masia Ca l'Armera",
    "street": "C Cardenal Tedeschini",
    "streetNum": "32",
    "neighbourhood": "el Congrés i els Indians",
    "district": "Sant Andreu",
    "zipcode": "8027",
    "longLongitude": 41.4256,
    "longLatitude": 2.18322,
    "density": 1
  },
  {
    "id": 569,
    "name": "Sant Andreu",
    "street": "Pl Comerç",
    "streetNum": "3",
    "neighbourhood": "Sant Andreu",
    "district": "Sant Andreu",
    "zipcode": "8030",
    "longLongitude": 41.4353,
    "longLatitude": 2.19004,
    "density": 1
  },
  {
    "id": 573,
    "name": "Casa Vidal",
    "street": "C Pons i Gallarza",
    "streetNum": "1",
    "neighbourhood": "Sant Andreu",
    "district": "Sant Andreu",
    "zipcode": "8030",
    "longLongitude": 41.4354,
    "longLatitude": 2.18944,
    "density": 1
  },
  {
    "id": 574,
    "name": "Can Mazantini",
    "street": "C Coroleu",
    "streetNum": "73",
    "neighbourhood": "Sant Andreu",
    "district": "Sant Andreu",
    "zipcode": "8030",
    "longLongitude": 41.4331,
    "longLatitude": 2.18465,
    "density": 1
  },
  {
    "id": 590,
    "name": "Centre Estudis Ignasi Iglesias",
    "street": "Carrer d'Ignasi Iglésias",
    "streetNum": "33",
    "neighbourhood": "Sant Andreu",
    "district": "Sant Andreu",
    "zipcode": "8030",
    "longLongitude": 41.4336,
    "longLatitude": 2.18813,
    "density": 1
  },
  {
    "id": 591,
    "name": "Ateneu  Sant Andreu",
    "street": "Carrer de l'Abat Odó",
    "streetNum": "71",
    "neighbourhood": "Sant Andreu",
    "district": "Sant Andreu",
    "zipcode": "8030",
    "longLongitude": 41.4325,
    "longLatitude": 2.1853,
    "density": 1
  },
  {
    "id": 592,
    "name": "Casal de Barri Can Portabella",
    "street": "C Virgili",
    "streetNum": "18",
    "neighbourhood": "Sant Andreu",
    "district": "Sant Andreu",
    "zipcode": "8030",
    "longLongitude": 41.4291,
    "longLatitude": 2.19394,
    "density": 1
  },
  {
    "id": 598,
    "name": "Farmàcia Clapés Viñas",
    "street": "C Gran de Sant Andreu",
    "streetNum": "211",
    "neighbourhood": "Sant Andreu",
    "district": "Sant Andreu",
    "zipcode": "8030",
    "longLongitude": 41.4338,
    "longLatitude": 2.18929,
    "density": 1
  },
  {
    "id": 632,
    "name": "Fabra i Coats - Fàbrica de Creació",
    "street": "C Sant Adrià",
    "streetNum": "20",
    "neighbourhood": "Sant Andreu",
    "district": "Sant Andreu",
    "zipcode": "8030",
    "longLongitude": 41.4338,
    "longLatitude": 2.19083,
    "density": 1
  },
  {
    "id": 640,
    "name": "Pilar d'Aigua de la Sagrera",
    "street": "C Ciutat d'Elx",
    "streetNum": "31",
    "neighbourhood": "la Sagrera",
    "district": "Sant Andreu",
    "zipcode": "8027",
    "longLongitude": 41.4221,
    "longLatitude": 2.19089,
    "density": 1
  },
  {
    "id": 641,
    "name": "La Plaça del Rom Cremat",
    "street": "C Jordi de Sant Jordi",
    "streetNum": "16",
    "neighbourhood": "el Congrés i els Indians",
    "district": "Sant Andreu",
    "zipcode": "8027",
    "longLongitude": 41.4222,
    "longLatitude": 2.18298,
    "density": 1
  },
  {
    "id": 642,
    "name": "La Plaça del Mercadal",
    "street": "Pl Mercadal",
    "streetNum": "35",
    "neighbourhood": "Sant Andreu",
    "district": "Sant Andreu",
    "zipcode": "8030",
    "longLongitude": 41.435,
    "longLatitude": 2.18872,
    "density": 1
  },
  {
    "id": 653,
    "name": "Parc de la Trinitat",
    "street": "Pg Santa Coloma",
    "streetNum": "60",
    "neighbourhood": "Sant Andreu",
    "district": "Sant Andreu",
    "zipcode": "8030",
    "longLongitude": 41.4493,
    "longLatitude": 2.19565,
    "density": 1
  },
  {
    "id": 658,
    "name": "Forn de Pa de Can Tur",
    "street": "Virgili",
    "streetNum": "74",
    "neighbourhood": "Sant Andreu",
    "district": "Sant Andreu",
    "zipcode": "8030",
    "longLongitude": 41.432,
    "longLatitude": 2.19335,
    "density": 1
  },
  {
    "id": 664,
    "name": "Plaça Masadas",
    "street": "Pl Masadas",
    "streetNum": "1",
    "neighbourhood": "la Sagrera",
    "district": "Sant Andreu",
    "zipcode": "8027",
    "longLongitude": 41.4248,
    "longLatitude": 2.19018,
    "density": 1
  },
  {
    "id": 673,
    "name": "Parc de la Maquinista per les treballadores i els treballadors de la Maquinista",
    "street": "Passeig de l'Havana",
    "streetNum": "2",
    "neighbourhood": "el Bon Pastor",
    "district": "Sant Andreu",
    "zipcode": "8030",
    "longLongitude": 41.4363,
    "longLatitude": 2.1961,
    "density": 1
  },
  {
    "id": 683,
    "name": "Jardins Plaça de Can Fabra",
    "street": "Carrer del Segre",
    "streetNum": "24",
    "neighbourhood": "Sant Andreu",
    "district": "Sant Andreu",
    "zipcode": "8030",
    "longLongitude": 41.4349,
    "longLatitude": 2.19174,
    "density": 1
  },
  {
    "id": 742,
    "name": "Parròquia de Sant Josep Manyanet",
    "street": "C Sant Sebastià",
    "streetNum": "47",
    "neighbourhood": "Sant Andreu",
    "district": "Sant Andreu",
    "zipcode": "8030",
    "longLongitude": 41.429,
    "longLatitude": 2.19142,
    "density": 1
  },
  {
    "id": 744,
    "name": "Centre Cívic Sant Andreu",
    "street": "Carrer Gran de Sant Andreu",
    "streetNum": "111",
    "neighbourhood": "Sant Andreu",
    "district": "Sant Andreu",
    "zipcode": "8030",
    "longLongitude": 41.4309,
    "longLatitude": 2.18941,
    "density": 1
  },
  {
    "id": 754,
    "name": "Premsa de Vi de Can Xandri",
    "street": "Plaça d'en Xandri",
    "streetNum": "3",
    "neighbourhood": "Sant Andreu",
    "district": "Sant Andreu",
    "zipcode": "8030",
    "longLongitude": 41.4382,
    "longLatitude": 2.18535,
    "density": 1
  },
  {
    "id": 789,
    "name": "Carrer Cienfuegos",
    "street": "C Cienfuegos",
    "streetNum": "21",
    "neighbourhood": "el Congrés i els Indians",
    "district": "Sant Andreu",
    "zipcode": "8027",
    "longLongitude": 41.4241,
    "longLatitude": 2.18342,
    "density": 1
  },
  {
    "id": 790,
    "name": "Carrer Pinar del Rio",
    "street": "C Matanzas",
    "streetNum": "30",
    "neighbourhood": "el Congrés i els Indians",
    "district": "Sant Andreu",
    "zipcode": "8027",
    "longLongitude": 41.4223,
    "longLatitude": 2.1821,
    "density": 1
  },
  {
    "id": 799,
    "name": "Farmàcia Reixach-de Pablo",
    "street": "Carrer Gran de Sant Andreu",
    "streetNum": "263",
    "neighbourhood": "Sant Andreu",
    "district": "Sant Andreu",
    "zipcode": "8030",
    "longLongitude": 41.4356,
    "longLatitude": 2.18964,
    "density": 1
  },
  {
    "id": 802,
    "name": "Fàbrica de Creació Nau Ivanow",
    "street": "C Hondures",
    "streetNum": "28",
    "neighbourhood": "la Sagrera",
    "district": "Sant Andreu",
    "zipcode": "8027",
    "longLongitude": 41.42,
    "longLatitude": 2.18997,
    "density": 1
  },
  {
    "id": 820,
    "name": "Centre Educatiu Monlau",
    "street": "C Monlau",
    "streetNum": "2",
    "neighbourhood": "la Sagrera",
    "district": "Sant Andreu",
    "zipcode": "8027",
    "longLongitude": 41.423,
    "longLatitude": 2.1906,
    "density": 1
  },
  {
    "id": 827,
    "name": "La Previsió Obrera",
    "street": "C Doctor Balari i Jovany",
    "streetNum": "13",
    "neighbourhood": "Sant Andreu",
    "district": "Sant Andreu",
    "zipcode": "8030",
    "longLongitude": 41.4354,
    "longLatitude": 2.19085,
    "density": 1
  },
  {
    "id": 841,
    "name": "Seu de la Secció 10 de les Patrulles de Control (Guerra Civil)",
    "street": "C Gran de Sant Andreu",
    "streetNum": "52",
    "neighbourhood": "Sant Andreu",
    "district": "Sant Andreu",
    "zipcode": "8030",
    "longLongitude": 41.4291,
    "longLatitude": 2.19036,
    "density": 1
  },
  {
    "id": 842,
    "name": "Avenç Obrer Català de Sant Andreu",
    "street": "Pl Orfila",
    "streetNum": "3",
    "neighbourhood": "Sant Andreu",
    "district": "Sant Andreu",
    "zipcode": "8030",
    "longLongitude": 41.4362,
    "longLatitude": 2.19096,
    "density": 1
  },
  {
    "id": 843,
    "name": "Carrer Pons i Gallarza",
    "street": "C Bascònia",
    "streetNum": "45",
    "neighbourhood": "Sant Andreu",
    "district": "Sant Andreu",
    "zipcode": "8030",
    "longLongitude": 41.4355,
    "longLatitude": 2.18687,
    "density": 1
  },
  {
    "id": 844,
    "name": "Carrer Puerto Príncipe",
    "street": "C Puerto Príncipe",
    "streetNum": "44",
    "neighbourhood": "el Congrés i els Indians",
    "district": "Sant Andreu",
    "zipcode": "8027",
    "longLongitude": 41.4226,
    "longLatitude": 2.18126,
    "density": 1
  },
  {
    "id": 861,
    "name": "Mercat Sant Andreu",
    "street": "Plaça del Mercadal",
    "streetNum": "41",
    "neighbourhood": "Sant Andreu",
    "district": "Sant Andreu",
    "zipcode": "8030",
    "longLongitude": 41.4349,
    "longLatitude": 2.18839,
    "density": 1
  }
]