[
  {
    "id": 23,
    "name": "El Rec Comtal",
    "street": "C Oristà",
    "streetNum": "16",
    "neighbourhood": "Vallbona",
    "district": "Nou Barris",
    "zipcode": "8033",
    "longLongitude": 41.4648,
    "longLatitude": 2.18574,
    "density": 1
  },
  {
    "id": 70,
    "name": "Can Carreras",
    "street": "C Ogassa",
    "streetNum": "6",
    "neighbourhood": "Can Peguera",
    "district": "Nou Barris",
    "zipcode": "8042",
    "longLongitude": 41.4359,
    "longLatitude": 2.16714,
    "density": 1
  },
  {
    "id": 75,
    "name": "Parc del Turó de la Peira",
    "street": "Passeig de Fabra i Puig",
    "streetNum": "396",
    "neighbourhood": "el Turó de la Peira",
    "district": "Nou Barris",
    "zipcode": "8031",
    "longLongitude": 41.4335,
    "longLatitude": 2.16345,
    "density": 1
  },
  {
    "id": 107,
    "name": "Santuari de Santa Eulàlia de Vilapicina",
    "street": "C Pere d'Artés",
    "streetNum": "2",
    "neighbourhood": "el Turó de la Peira",
    "district": "Nou Barris",
    "zipcode": "8031",
    "longLongitude": 41.4307,
    "longLatitude": 2.17292,
    "density": 1
  },
  {
    "id": 146,
    "name": "Ca l'Artés",
    "street": "C Pere d'Artés",
    "streetNum": "8",
    "neighbourhood": "el Turó de la Peira",
    "district": "Nou Barris",
    "zipcode": "8031",
    "longLongitude": 41.4306,
    "longLatitude": 2.1727,
    "density": 1
  },
  {
    "id": 156,
    "name": "L'Aqüeducte de Ciutat Meridiana",
    "street": "Av Rasos de Peguera",
    "streetNum": "53",
    "neighbourhood": "Ciutat Meridiana",
    "district": "Nou Barris",
    "zipcode": "8033",
    "longLongitude": 41.4595,
    "longLatitude": 2.17507,
    "density": 1
  },
  {
    "id": 166,
    "name": "L'Aqüeducte del Parc Central de Nou Barris",
    "street": "Pl Major de Nou Barris",
    "streetNum": "1",
    "neighbourhood": "la Guineueta",
    "district": "Nou Barris",
    "zipcode": "8042",
    "longLongitude": 41.4368,
    "longLatitude": 2.17123,
    "density": 1
  },
  {
    "id": 191,
    "name": "Parc de Can Dragó",
    "street": "C Rosselló i Porcel",
    "streetNum": "7",
    "neighbourhood": "Porta",
    "district": "Nou Barris",
    "zipcode": "8016",
    "longLongitude": 41.4366,
    "longLatitude": 2.18316,
    "density": 1
  },
  {
    "id": 226,
    "name": "La Casa de l'Aigua",
    "street": "C Garbí",
    "streetNum": "2",
    "neighbourhood": "la Trinitat Nova",
    "district": "Nou Barris",
    "zipcode": "8033",
    "longLongitude": 41.453,
    "longLatitude": 2.18804,
    "density": 1
  },
  {
    "id": 228,
    "name": "Parc de la Guineueta",
    "street": "Plaça de la República",
    "streetNum": "9",
    "neighbourhood": "la Guineueta",
    "district": "Nou Barris",
    "zipcode": "8016",
    "longLongitude": 41.439,
    "longLatitude": 2.17449,
    "density": 1
  },
  {
    "id": 255,
    "name": "Consell Municipal del Districte de Nou Barris",
    "street": "Pl Major de Nou Barris",
    "streetNum": "1",
    "neighbourhood": "la Guineueta",
    "district": "Nou Barris",
    "zipcode": "8042",
    "longLongitude": 41.4368,
    "longLatitude": 2.17123,
    "density": 1
  },
  {
    "id": 300,
    "name": "Fàbrica de Creació Ateneu Popular 9 Barris",
    "street": "C Portlligat",
    "streetNum": "11",
    "neighbourhood": "la Trinitat Nova",
    "district": "Nou Barris",
    "zipcode": "8042",
    "longLongitude": 41.4488,
    "longLatitude": 2.18041,
    "density": 1
  },
  {
    "id": 323,
    "name": "Església Antic Institut Mental",
    "street": "C Marie Curie",
    "streetNum": "8",
    "neighbourhood": "la Guineueta",
    "district": "Nou Barris",
    "zipcode": "8042",
    "longLongitude": 41.437,
    "longLatitude": 2.16916,
    "density": 1
  },
  {
    "id": 341,
    "name": "Centre Cívic Torre Llobeta",
    "street": "Carrer de Santa Fe",
    "streetNum": "2",
    "neighbourhood": "Vilapicina i la Torre Llobeta",
    "district": "Nou Barris",
    "zipcode": "8031",
    "longLongitude": 41.4269,
    "longLatitude": 2.17397,
    "density": 1
  },
  {
    "id": 375,
    "name": "El passatge de l'Esperança",
    "street": "Ptge Esperança",
    "streetNum": "5",
    "neighbourhood": "Vilapicina i la Torre Llobeta",
    "district": "Nou Barris",
    "zipcode": "8016",
    "longLongitude": 41.4291,
    "longLatitude": 2.17694,
    "density": 1
  },
  {
    "id": 384,
    "name": "Centre Cívic Can Basté",
    "street": "Passeig de Fabra i Puig",
    "streetNum": "274",
    "neighbourhood": "el Turó de la Peira",
    "district": "Nou Barris",
    "zipcode": "8031",
    "longLongitude": 41.4305,
    "longLatitude": 2.17323,
    "density": 1
  },
  {
    "id": 411,
    "name": "Parc Central de Nou Barris",
    "street": "Pl Major de Nou Barris",
    "streetNum": "1",
    "neighbourhood": "la Guineueta",
    "district": "Nou Barris",
    "zipcode": "8042",
    "longLongitude": 41.4368,
    "longLatitude": 2.17123,
    "density": 1
  },
  {
    "id": 459,
    "name": "Universitat Nacional d'Educació a Distància *Barcelona",
    "street": "Av Rio de Janeiro",
    "streetNum": "56",
    "neighbourhood": "Porta",
    "district": "Nou Barris",
    "zipcode": "8016",
    "longLongitude": 41.4365,
    "longLatitude": 2.18046,
    "density": 1
  },
  {
    "id": 464,
    "name": "Refugi Antiaeri de Can Peguera",
    "street": "C Cornudella",
    "streetNum": "45",
    "neighbourhood": "el Turó de la Peira",
    "district": "Nou Barris",
    "zipcode": "8031",
    "longLongitude": 41.4341,
    "longLatitude": 2.16533,
    "density": 1
  },
  {
    "id": 514,
    "name": "Castell de Torre Baró",
    "street": "Carretera Alta de les Roquetes",
    "streetNum": "309",
    "neighbourhood": "Torre Baró",
    "district": "Nou Barris",
    "zipcode": "8033",
    "longLongitude": 41.4508,
    "longLatitude": 2.17613,
    "density": 1
  },
  {
    "id": 595,
    "name": "Centre Cívic Can Verdaguer",
    "street": "Carrer de Piferrer",
    "streetNum": "94",
    "neighbourhood": "Porta",
    "district": "Nou Barris",
    "zipcode": "8016",
    "longLongitude": 41.4341,
    "longLatitude": 2.1792,
    "density": 1
  },
  {
    "id": 647,
    "name": "Masia Can Valent",
    "street": "Av Rio de Janeiro",
    "streetNum": "51",
    "neighbourhood": "Porta",
    "district": "Nou Barris",
    "zipcode": "8016",
    "longLongitude": 41.4355,
    "longLatitude": 2.17975,
    "density": 1
  },
  {
    "id": 660,
    "name": "El nucli de Santa Eulàlia de Vilapicina",
    "street": "C Pere d'Artés",
    "streetNum": "1",
    "neighbourhood": "el Turó de la Peira",
    "district": "Nou Barris",
    "zipcode": "8031",
    "longLongitude": 41.4311,
    "longLatitude": 2.17313,
    "density": 1
  },
  {
    "id": 661,
    "name": "Can Peguera",
    "street": "Pl Sant Francesc Xavier",
    "streetNum": "12",
    "neighbourhood": "Can Peguera",
    "district": "Nou Barris",
    "zipcode": "8031",
    "longLongitude": 41.4343,
    "longLatitude": 2.16456,
    "density": 1
  },
  {
    "id": 715,
    "name": "Mercat Núria",
    "street": "Avinguda dels Rasos de Peguera",
    "streetNum": "186",
    "neighbourhood": "Ciutat Meridiana",
    "district": "Nou Barris",
    "zipcode": "8033",
    "longLongitude": 41.46,
    "longLatitude": 2.17264,
    "density": 1
  },
  {
    "id": 729,
    "name": "Escultura Pi i Margall-La República",
    "street": "Pl de la República",
    "streetNum": "1",
    "neighbourhood": "la Guineueta",
    "district": "Nou Barris",
    "zipcode": "8042",
    "longLongitude": 41.4382,
    "longLatitude": 2.17405,
    "density": 1
  },
  {
    "id": 785,
    "name": "Associació Nou Barris Centre Comerç",
    "street": "C Pare Rodés",
    "streetNum": "51",
    "neighbourhood": "Verdun",
    "district": "Nou Barris",
    "zipcode": "8042",
    "longLongitude": 41.4413,
    "longLatitude": 2.17621,
    "density": 1
  },
  {
    "id": 832,
    "name": "Cementiri Sant Andreu",
    "street": "Carrer dels Garrofers",
    "streetNum": "35",
    "neighbourhood": "Porta",
    "district": "Nou Barris",
    "zipcode": "8016",
    "longLongitude": 41.4374,
    "longLatitude": 2.17903,
    "density": 1
  },
  {
    "id": 859,
    "name": "Mercat Guineueta",
    "street": "Passeig de Valldaura",
    "streetNum": "186",
    "neighbourhood": "la Guineueta",
    "district": "Nou Barris",
    "zipcode": "8042",
    "longLongitude": 41.4387,
    "longLatitude": 2.17025,
    "density": 1
  }
]