[
  {
    "id": 11,
    "name": "Residència Assistida per a Gent Gran Llars Mundet",
    "street": "Pg Vall d'Hebron",
    "streetNum": "171",
    "neighbourhood": "Montbau",
    "district": "Horta-Guinardó",
    "zipcode": "8035",
    "longLongitude": 41.4358,
    "longLatitude": 2.14716,
    "density": 1
  },
  {
    "id": 19,
    "name": "Sant Pau Recinte Modernista",
    "street": "Carrer de Sant Antoni Maria Claret",
    "streetNum": "167",
    "neighbourhood": "el Guinardó",
    "district": "Horta-Guinardó",
    "zipcode": "8025",
    "longLongitude": 41.4124,
    "longLatitude": 2.17576,
    "density": 1
  },
  {
    "id": 32,
    "name": "Associació Eix Comercial de Maragall",
    "street": "Rambla de la Muntanya",
    "streetNum": "5",
    "neighbourhood": "el Guinardó",
    "district": "Horta-Guinardó",
    "zipcode": "8041",
    "longLongitude": 41.422,
    "longLatitude": 2.17847,
    "density": 1
  },
  {
    "id": 51,
    "name": "Plaça del Nen de la Rutlla",
    "street": "Pl Nen de la Rutlla",
    "streetNum": "9999",
    "neighbourhood": "el Guinardó",
    "district": "Horta-Guinardó",
    "zipcode": "8041",
    "longLongitude": 41.4188,
    "longLatitude": 2.17159,
    "density": 1
  },
  {
    "id": 53,
    "name": "Centre de Reunions i Convencions UAB Casa Convalescència",
    "street": "C Sant Antoni Maria Claret",
    "streetNum": "171",
    "neighbourhood": "el Guinardó",
    "district": "Horta-Guinardó",
    "zipcode": "8025",
    "longLongitude": 41.4138,
    "longLatitude": 2.17691,
    "density": 1
  },
  {
    "id": 69,
    "name": "El pont de Mühlberg",
    "street": "C Mühlberg",
    "streetNum": "100",
    "neighbourhood": "Can Baró",
    "district": "Horta-Guinardó",
    "zipcode": "8024",
    "longLongitude": 41.4186,
    "longLatitude": 2.1618,
    "density": 1
  },
  {
    "id": 73,
    "name": "Parc del Laberint d'Horta",
    "street": "Passeig dels Castanyers",
    "streetNum": "1",
    "neighbourhood": "Montbau",
    "district": "Horta-Guinardó",
    "zipcode": "8035",
    "longLongitude": 41.438,
    "longLatitude": 2.14756,
    "density": 1
  },
  {
    "id": 74,
    "name": "Parc del Guinardó",
    "street": "Garriga i Roca",
    "streetNum": "1",
    "neighbourhood": "el Guinardó",
    "district": "Horta-Guinardó",
    "zipcode": "8041",
    "longLongitude": 41.4195,
    "longLatitude": 2.16961,
    "density": 1
  },
  {
    "id": 97,
    "name": "Can Mora",
    "street": "C Portell",
    "streetNum": "11",
    "neighbourhood": "el Carmel",
    "district": "Horta-Guinardó",
    "zipcode": "8023",
    "longLongitude": 41.4179,
    "longLatitude": 2.15104,
    "density": 1
  },
  {
    "id": 124,
    "name": "El Campus Mundet - UB",
    "street": "Pg Vall d'Hebron",
    "streetNum": "173",
    "neighbourhood": "Montbau",
    "district": "Horta-Guinardó",
    "zipcode": "8035",
    "longLongitude": 41.4358,
    "longLatitude": 2.14716,
    "density": 1
  },
  {
    "id": 147,
    "name": "Plaça Eivissa",
    "street": "Pl Eivissa",
    "streetNum": "1",
    "neighbourhood": "Horta",
    "district": "Horta-Guinardó",
    "zipcode": "8032",
    "longLongitude": 41.4302,
    "longLatitude": 2.16098,
    "density": 1
  },
  {
    "id": 148,
    "name": "Casal d'Entitats Mas Guinardó",
    "street": "Plaça de Salvador Riera",
    "streetNum": "2",
    "neighbourhood": "el Guinardó",
    "district": "Horta-Guinardó",
    "zipcode": "8041",
    "longLongitude": 41.4182,
    "longLatitude": 2.17441,
    "density": 1
  },
  {
    "id": 163,
    "name": "El carrer de Campoamor",
    "street": "C Campoamor",
    "streetNum": "4",
    "neighbourhood": "Horta",
    "district": "Horta-Guinardó",
    "zipcode": "8031",
    "longLongitude": 41.4329,
    "longLatitude": 2.15821,
    "density": 1
  },
  {
    "id": 165,
    "name": "La carretera de les Aigües (sector Horta-Guinardó)",
    "street": "Ctra Aigües",
    "streetNum": "361",
    "neighbourhood": "Sant Genís dels Agudells",
    "district": "Horta-Guinardó",
    "zipcode": "8035",
    "longLongitude": 41.4215,
    "longLatitude": 2.13152,
    "density": 1
  },
  {
    "id": 174,
    "name": "Facultat de Ciències de la Salut Blanquerna - URL",
    "street": "C Padilla",
    "streetNum": "326",
    "neighbourhood": "el Baix Guinardó",
    "district": "Horta-Guinardó",
    "zipcode": "8025",
    "longLongitude": 41.4098,
    "longLatitude": 2.17212,
    "density": 1
  },
  {
    "id": 193,
    "name": "Velodrom Municipal d'Horta Miquel Poblet",
    "street": "Pg Vall d'Hebron",
    "streetNum": "185",
    "neighbourhood": "Horta",
    "district": "Horta-Guinardó",
    "zipcode": "8035",
    "longLongitude": 41.4372,
    "longLatitude": 2.14959,
    "density": 1
  },
  {
    "id": 194,
    "name": "Restaurant Can Travi Nou",
    "street": "C Jorge Manrique",
    "streetNum": "-2147483648",
    "neighbourhood": "la Vall d'Hebron",
    "district": "Horta-Guinardó",
    "zipcode": "8035",
    "longLongitude": 41.4314,
    "longLatitude": 2.15043,
    "density": 1
  },
  {
    "id": 200,
    "name": "Pavelló de la República",
    "street": "C Jorge Manrique",
    "streetNum": "9",
    "neighbourhood": "la Vall d'Hebron",
    "district": "Horta-Guinardó",
    "zipcode": "8035",
    "longLongitude": 41.4308,
    "longLatitude": 2.15148,
    "density": 1
  },
  {
    "id": 227,
    "name": "Parc de les Aigües",
    "street": "Pl Alfons el Savi",
    "streetNum": "3",
    "neighbourhood": "el Baix Guinardó",
    "district": "Horta-Guinardó",
    "zipcode": "8024",
    "longLongitude": 41.4136,
    "longLatitude": 2.16548,
    "density": 1
  },
  {
    "id": 239,
    "name": "Escultura David i Goliat Homenatge a les Brigades Internacionals",
    "street": "Rbla Carmel",
    "streetNum": "46",
    "neighbourhood": "el Carmel",
    "district": "Horta-Guinardó",
    "zipcode": "8032",
    "longLongitude": 41.4249,
    "longLatitude": 2.1577,
    "density": 1
  },
  {
    "id": 273,
    "name": "Residència Salesiana Martí Codolar",
    "street": "Av Cardenal Vidal i Barraquer",
    "streetNum": "15",
    "neighbourhood": "la Vall d'Hebron",
    "district": "Horta-Guinardó",
    "zipcode": "8035",
    "longLongitude": 41.4284,
    "longLatitude": 2.15087,
    "density": 1
  },
  {
    "id": 283,
    "name": "Vall d'Hebron Barcelona Hospital Campus",
    "street": "Pg Vall d'Hebron",
    "streetNum": "119",
    "neighbourhood": "Montbau",
    "district": "Horta-Guinardó",
    "zipcode": "8035",
    "longLongitude": 41.4281,
    "longLatitude": 2.14345,
    "density": 1
  },
  {
    "id": 299,
    "name": "Cementiri Sant Genís",
    "street": "Saldes",
    "streetNum": "3",
    "neighbourhood": "Sant Genís dels Agudells",
    "district": "Horta-Guinardó",
    "zipcode": "8035",
    "longLongitude": 41.428,
    "longLatitude": 2.1366,
    "density": 1
  },
  {
    "id": 301,
    "name": "Parròquia de Sant Genís dels Agudells",
    "street": "C Saldes",
    "streetNum": "3",
    "neighbourhood": "Sant Genís dels Agudells",
    "district": "Horta-Guinardó",
    "zipcode": "8035",
    "longLongitude": 41.428,
    "longLatitude": 2.1366,
    "density": 1
  },
  {
    "id": 393,
    "name": "Museu Palmero Arte",
    "street": "Judea",
    "streetNum": "2",
    "neighbourhood": "Sant Genís dels Agudells",
    "district": "Horta-Guinardó",
    "zipcode": "8035",
    "longLongitude": 41.4252,
    "longLatitude": 2.14018,
    "density": 1
  },
  {
    "id": 401,
    "name": "Restaurant Can Cortada",
    "street": "Av Estatut de Catalunya",
    "streetNum": "88",
    "neighbourhood": "Horta",
    "district": "Horta-Guinardó",
    "zipcode": "8035",
    "longLongitude": 41.4376,
    "longLatitude": 2.15281,
    "density": 1
  },
  {
    "id": 408,
    "name": "Escultura Mistos",
    "street": "Jorge Manrique",
    "streetNum": "9",
    "neighbourhood": "la Vall d'Hebron",
    "district": "Horta-Guinardó",
    "zipcode": "8035",
    "longLongitude": 41.4308,
    "longLatitude": 2.15148,
    "density": 1
  },
  {
    "id": 410,
    "name": "Carrer Aiguafreda",
    "street": "C Aiguafreda",
    "streetNum": "1",
    "neighbourhood": "Horta",
    "district": "Horta-Guinardó",
    "zipcode": "8032",
    "longLongitude": 41.4267,
    "longLatitude": 2.15946,
    "density": 1
  },
  {
    "id": 412,
    "name": "Edifici Patronat Ribas",
    "street": "Pg Vall d'Hebron",
    "streetNum": "93",
    "neighbourhood": "Sant Genís dels Agudells",
    "district": "Horta-Guinardó",
    "zipcode": "8035",
    "longLongitude": 41.4229,
    "longLatitude": 2.14109,
    "density": 1
  },
  {
    "id": 414,
    "name": "Torre Jussana - Centre de Serveis a les Associacions",
    "street": "Av Cardenal Vidal Barraquer",
    "streetNum": "30",
    "neighbourhood": "la Clota",
    "district": "Horta-Guinardó",
    "zipcode": "8035",
    "longLongitude": 41.4297,
    "longLatitude": 2.15131,
    "density": 1
  },
  {
    "id": 418,
    "name": "Casa de les Altures",
    "street": "Rda Guinardó",
    "streetNum": "49",
    "neighbourhood": "el Baix Guinardó",
    "district": "Horta-Guinardó",
    "zipcode": "8024",
    "longLongitude": 41.4128,
    "longLatitude": 2.16648,
    "density": 1
  },
  {
    "id": 462,
    "name": "Federació de Comerç Cor d'Horta",
    "street": "Carrer de Dante Alighieri",
    "streetNum": "13",
    "neighbourhood": "Horta",
    "district": "Horta-Guinardó",
    "zipcode": "8032",
    "longLongitude": 41.429,
    "longLatitude": 2.16182,
    "density": 1
  },
  {
    "id": 463,
    "name": "Cases Blanques",
    "street": "C Vayreda",
    "streetNum": "24",
    "neighbourhood": "Montbau",
    "district": "Horta-Guinardó",
    "zipcode": "8035",
    "longLongitude": 41.4315,
    "longLatitude": 2.14082,
    "density": 1
  },
  {
    "id": 493,
    "name": "Jardins del  Baix Guinardó",
    "street": "C Marina",
    "streetNum": "372",
    "neighbourhood": "el Baix Guinardó",
    "district": "Horta-Guinardó",
    "zipcode": "8025",
    "longLongitude": 41.4098,
    "longLatitude": 2.16866,
    "density": 1
  },
  {
    "id": 496,
    "name": "Cementiri d'Horta",
    "street": "Plaça del Cementiri d'Horta",
    "streetNum": "9",
    "neighbourhood": "Horta",
    "district": "Horta-Guinardó",
    "zipcode": "8035",
    "longLongitude": 41.4404,
    "longLatitude": 2.15607,
    "density": 1
  },
  {
    "id": 507,
    "name": "Parc de les Rieres d'Horta",
    "street": "Av Estatut de Catalunya",
    "streetNum": "21",
    "neighbourhood": "la Clota",
    "district": "Horta-Guinardó",
    "zipcode": "8035",
    "longLongitude": 41.4311,
    "longLatitude": 2.15426,
    "density": 1
  },
  {
    "id": 511,
    "name": "Masia Can Fargas",
    "street": "Pg Maragall",
    "streetNum": "383",
    "neighbourhood": "la Font d'en Fargues",
    "district": "Horta-Guinardó",
    "zipcode": "8032",
    "longLongitude": 41.4276,
    "longLatitude": 2.16447,
    "density": 1
  },
  {
    "id": 545,
    "name": "Casal de Barri Font d'en Fargues",
    "street": "C Pedrell",
    "streetNum": "67",
    "neighbourhood": "la Font d'en Fargues",
    "district": "Horta-Guinardó",
    "zipcode": "8032",
    "longLongitude": 41.4243,
    "longLatitude": 2.16525,
    "density": 1
  },
  {
    "id": 570,
    "name": "El nucli antic d'Horta",
    "street": "C Fulton",
    "streetNum": "15",
    "neighbourhood": "Horta",
    "district": "Horta-Guinardó",
    "zipcode": "8032",
    "longLongitude": 41.43,
    "longLatitude": 2.1615,
    "density": 1
  },
  {
    "id": 630,
    "name": "El Túnel de la Rovira",
    "street": "C Dante Alighieri",
    "streetNum": "81",
    "neighbourhood": "el Carmel",
    "district": "Horta-Guinardó",
    "zipcode": "8032",
    "longLongitude": 41.4276,
    "longLatitude": 2.15756,
    "density": 1
  },
  {
    "id": 650,
    "name": "Museu de Carruatges del Foment",
    "street": "Pl Josep Pallach",
    "streetNum": "8",
    "neighbourhood": "la Vall d'Hebron",
    "district": "Horta-Guinardó",
    "zipcode": "8035",
    "longLongitude": 41.4339,
    "longLatitude": 2.1498,
    "density": 1
  },
  {
    "id": 656,
    "name": "Centre Educatiu CETT",
    "street": "Av Can Marcet",
    "streetNum": "36",
    "neighbourhood": "la Vall d'Hebron",
    "district": "Horta-Guinardó",
    "zipcode": "8035",
    "longLongitude": 41.4348,
    "longLatitude": 2.14816,
    "density": 1
  },
  {
    "id": 665,
    "name": "Masia de Can Baró",
    "street": "Pl Can Baró",
    "streetNum": "1",
    "neighbourhood": "Can Baró",
    "district": "Horta-Guinardó",
    "zipcode": "8024",
    "longLongitude": 41.4166,
    "longLatitude": 2.16209,
    "density": 1
  },
  {
    "id": 666,
    "name": "Pla de Montbau",
    "street": "Pla Montbau",
    "streetNum": "6",
    "neighbourhood": "Montbau",
    "district": "Horta-Guinardó",
    "zipcode": "8035",
    "longLongitude": 41.4307,
    "longLatitude": 2.14271,
    "density": 1
  },
  {
    "id": 702,
    "name": "Hort Urbà Masia Can Soler",
    "street": "Ctra Sant Cugat",
    "streetNum": "114",
    "neighbourhood": "Sant Genís dels Agudells",
    "district": "Horta-Guinardó",
    "zipcode": "8035",
    "longLongitude": 41.425,
    "longLatitude": 2.1307,
    "density": 1
  },
  {
    "id": 705,
    "name": "El barri de la Clota",
    "street": "C Capcir",
    "streetNum": "2",
    "neighbourhood": "la Clota",
    "district": "Horta-Guinardó",
    "zipcode": "8035",
    "longLongitude": 41.4267,
    "longLatitude": 2.15099,
    "density": 1
  },
  {
    "id": 714,
    "name": "Mercat Horta",
    "street": "Carrer del Tajo",
    "streetNum": "75",
    "neighbourhood": "Horta",
    "district": "Horta-Guinardó",
    "zipcode": "8032",
    "longLongitude": 41.4296,
    "longLatitude": 2.15961,
    "density": 1
  },
  {
    "id": 728,
    "name": "Ca n'Andalet",
    "street": "Passatge d'Andalet",
    "streetNum": "11",
    "neighbourhood": "el Carmel",
    "district": "Horta-Guinardó",
    "zipcode": "8032",
    "longLongitude": 41.4272,
    "longLatitude": 2.15368,
    "density": 1
  },
  {
    "id": 738,
    "name": "Hospital de la Santa Creu i Sant Pau",
    "street": "C Sant Quintí",
    "streetNum": "89",
    "neighbourhood": "el Guinardó",
    "district": "Horta-Guinardó",
    "zipcode": "8041",
    "longLongitude": 41.4154,
    "longLatitude": 2.17396,
    "density": 1
  },
  {
    "id": 767,
    "name": "Parc Carmel",
    "street": "Ctra Carmel",
    "streetNum": "9999",
    "neighbourhood": "el Carmel",
    "district": "Horta-Guinardó",
    "zipcode": "8024",
    "longLongitude": 41.4152,
    "longLatitude": 2.15527,
    "density": 1
  },
  {
    "id": 794,
    "name": "Jardins",
    "street": "Pg Vall d'Hebron",
    "streetNum": "171",
    "neighbourhood": "Montbau",
    "district": "Horta-Guinardó",
    "zipcode": "8007",
    "longLongitude": 41.4359,
    "longLatitude": 2.14093,
    "density": 1
  },
  {
    "id": 854,
    "name": "Centre Cívic Guinardó",
    "street": "Ronda del Guinardó",
    "streetNum": "113",
    "neighbourhood": "el Guinardó",
    "district": "Horta-Guinardó",
    "zipcode": "8041",
    "longLongitude": 41.4161,
    "longLatitude": 2.17338,
    "density": 1
  }
]