[
  {
    "id": 2,
    "name": "Bar Marsella",
    "street": "C Sant Pau",
    "streetNum": "65",
    "neighbourhood": "el Raval",
    "district": "Ciutat Vella",
    "zipcode": "8001",
    "longLongitude": 41.3783,
    "longLatitude": 2.17122,
    "density": 2
  },
  {
    "id": 3,
    "name": "Telefèric de Barcelona",
    "street": "Pg Joan Borbó C Barcelona",
    "streetNum": "88",
    "neighbourhood": "la Barceloneta",
    "district": "Ciutat Vella",
    "zipcode": "8039",
    "longLongitude": 41.3732,
    "longLatitude": 2.18788,
    "density": 1
  },
  {
    "id": 7,
    "name": "Casa - Fàbrica Erasme de Gònima",
    "street": "Carme",
    "streetNum": "106",
    "neighbourhood": "el Raval",
    "district": "Ciutat Vella",
    "zipcode": "8001",
    "longLongitude": 41.3801,
    "longLatitude": 2.16673,
    "density": 2
  },
  {
    "id": 9,
    "name": "TAMAIA Viure Sense Violencia, S.C.C.L.",
    "street": "C Ripoll",
    "streetNum": "25",
    "neighbourhood": "el Barri Gòtic",
    "district": "Ciutat Vella",
    "zipcode": "8002",
    "longLongitude": 41.3855,
    "longLatitude": 2.17509,
    "density": 3
  },
  {
    "id": 26,
    "name": "Reial Acadèmia de Medicina de Catalunya",
    "street": "C Carme",
    "streetNum": "47",
    "neighbourhood": "el Raval",
    "district": "Ciutat Vella",
    "zipcode": "8001",
    "longLongitude": 41.3815,
    "longLatitude": 2.16897,
    "density": 2
  },
  {
    "id": 30,
    "name": "Cooperativa Impulsem, SCCL",
    "street": "C Tàpies",
    "streetNum": "6",
    "neighbourhood": "el Raval",
    "district": "Ciutat Vella",
    "zipcode": "8001",
    "longLongitude": 41.3767,
    "longLatitude": 2.17105,
    "density": 2
  },
  {
    "id": 33,
    "name": "Edifici de l'Antic Hospital de la Santa Creu",
    "street": "C Hospital",
    "streetNum": "56",
    "neighbourhood": "el Raval",
    "district": "Ciutat Vella",
    "zipcode": "8001",
    "longLongitude": 41.3811,
    "longLatitude": 2.16981,
    "density": 3
  },
  {
    "id": 39,
    "name": "Fundació Privada Foto Colectania",
    "street": "Pg Picasso",
    "streetNum": "14",
    "neighbourhood": "Sant Pere, Santa Caterina i la Ribera",
    "district": "Ciutat Vella",
    "zipcode": "8003",
    "longLongitude": 41.3877,
    "longLatitude": 2.18274,
    "density": 2
  },
  {
    "id": 56,
    "name": "Santa Església Catedral Basílica de Barcelona",
    "street": "Pla Seu",
    "streetNum": "3",
    "neighbourhood": "el Barri Gòtic",
    "district": "Ciutat Vella",
    "zipcode": "8002",
    "longLongitude": 41.3843,
    "longLatitude": 2.17618,
    "density": 3
  },
  {
    "id": 59,
    "name": "Hotel W Barcelona - HB-004411",
    "street": "Pl Rosa dels Vents",
    "streetNum": "1",
    "neighbourhood": "la Barceloneta",
    "district": "Ciutat Vella",
    "zipcode": "8039",
    "longLongitude": 41.3684,
    "longLatitude": 2.19,
    "density": 1
  },
  {
    "id": 78,
    "name": "Torre de la Catalana de Gas",
    "street": "Passeig Marítim de la Barceloneta - Oriol Bohigas",
    "streetNum": "15",
    "neighbourhood": "la Barceloneta",
    "district": "Ciutat Vella",
    "zipcode": "8003",
    "longLongitude": 41.3821,
    "longLatitude": 2.19384,
    "density": 1
  },
  {
    "id": 109,
    "name": "Sant Pere i Santa Caterina",
    "street": "C Sant Pere Més Baix",
    "streetNum": "68",
    "neighbourhood": "Sant Pere, Santa Caterina i la Ribera",
    "district": "Ciutat Vella",
    "zipcode": "8003",
    "longLongitude": 41.3881,
    "longLatitude": 2.17857,
    "density": 2
  },
  {
    "id": 137,
    "name": "Plaça dels Àngels",
    "street": "Plaça dels Àngels",
    "streetNum": "1",
    "neighbourhood": "el Raval",
    "district": "Ciutat Vella",
    "zipcode": "8001",
    "longLongitude": 41.383,
    "longLatitude": 2.16781,
    "density": 2
  },
  {
    "id": 143,
    "name": "La Rambla del Raval",
    "street": "Rbla Raval",
    "streetNum": "12",
    "neighbourhood": "el Raval",
    "district": "Ciutat Vella",
    "zipcode": "8001",
    "longLongitude": 41.3789,
    "longLatitude": 2.16918,
    "density": 3
  },
  {
    "id": 164,
    "name": "Casa de la Marina",
    "street": "Pg Joan Borbó Comte Barcelona",
    "streetNum": "42",
    "neighbourhood": "la Barceloneta",
    "district": "Ciutat Vella",
    "zipcode": "8003",
    "longLongitude": 41.378,
    "longLatitude": 2.18845,
    "density": 2
  },
  {
    "id": 171,
    "name": "La Rambla",
    "street": "C Rambla",
    "streetNum": "10",
    "neighbourhood": "el Barri Gòtic",
    "district": "Ciutat Vella",
    "zipcode": "8002",
    "longLongitude": 41.3777,
    "longLatitude": 2.17649,
    "density": 3
  },
  {
    "id": 182,
    "name": "El Born i la Ribera",
    "street": "Pg Born",
    "streetNum": "30",
    "neighbourhood": "Sant Pere, Santa Caterina i la Ribera",
    "district": "Ciutat Vella",
    "zipcode": "8003",
    "longLongitude": 41.3849,
    "longLatitude": 2.18302,
    "density": 3
  },
  {
    "id": 183,
    "name": "La Barceloneta",
    "street": "C Baluard",
    "streetNum": "50",
    "neighbourhood": "la Barceloneta",
    "district": "Ciutat Vella",
    "zipcode": "8003",
    "longLongitude": 41.3796,
    "longLatitude": 2.18912,
    "density": 2
  },
  {
    "id": 188,
    "name": "Zoo de Barcelona",
    "street": "Parc Ciutadella",
    "streetNum": "-2147483648",
    "neighbourhood": "Sant Pere, Santa Caterina i la Ribera",
    "district": "Ciutat Vella",
    "zipcode": "8003",
    "longLongitude": 41.3862,
    "longLatitude": 2.18719,
    "density": 1
  },
  {
    "id": 192,
    "name": "Centre d'Educació Ambiental La Fàbrica del Sol",
    "street": "Pg Salvat Papasseit",
    "streetNum": "1",
    "neighbourhood": "la Barceloneta",
    "district": "Ciutat Vella",
    "zipcode": "8003",
    "longLongitude": 41.383,
    "longLatitude": 2.19128,
    "density": 1
  },
  {
    "id": 234,
    "name": "Fossar de les Moreres",
    "street": "Pl Fossar de les Moreres",
    "streetNum": "1",
    "neighbourhood": "Sant Pere, Santa Caterina i la Ribera",
    "district": "Ciutat Vella",
    "zipcode": "8003",
    "longLongitude": 41.3837,
    "longLatitude": 2.18242,
    "density": 3
  },
  {
    "id": 248,
    "name": "El Raval",
    "street": "Rbla Raval",
    "streetNum": "37",
    "neighbourhood": "el Raval",
    "district": "Ciutat Vella",
    "zipcode": "8001",
    "longLongitude": 41.3784,
    "longLatitude": 2.17018,
    "density": 2
  },
  {
    "id": 256,
    "name": "Casal de Barri Pou de la Figuera",
    "street": "Carrer de Sant Pere Més Baix",
    "streetNum": "70",
    "neighbourhood": "Sant Pere, Santa Caterina i la Ribera",
    "district": "Ciutat Vella",
    "zipcode": "8003",
    "longLongitude": 41.3882,
    "longLatitude": 2.17866,
    "density": 2
  },
  {
    "id": 270,
    "name": "Museu Frederic Marès",
    "street": "Plaça de Sant Iu",
    "streetNum": "5",
    "neighbourhood": "el Barri Gòtic",
    "district": "Ciutat Vella",
    "zipcode": "8002",
    "longLongitude": 41.3842,
    "longLatitude": 2.17696,
    "density": 3
  },
  {
    "id": 278,
    "name": "Museu Marítim de Barcelona",
    "street": "Avinguda de les Drassanes",
    "streetNum": "1",
    "neighbourhood": "el Raval",
    "district": "Ciutat Vella",
    "zipcode": "8001",
    "longLongitude": 41.376,
    "longLatitude": 2.17606,
    "density": 1
  },
  {
    "id": 282,
    "name": "El Born Centre de Cultura i Memòria",
    "street": "Plaça Comercial",
    "streetNum": "12",
    "neighbourhood": "Sant Pere, Santa Caterina i la Ribera",
    "district": "Ciutat Vella",
    "zipcode": "8003",
    "longLongitude": 41.3857,
    "longLatitude": 2.18359,
    "density": 2
  },
  {
    "id": 302,
    "name": "La Sardineta. Grup d'Ecoconsum de la Barceloneta",
    "street": "C Cermeño",
    "streetNum": "7",
    "neighbourhood": "la Barceloneta",
    "district": "Ciutat Vella",
    "zipcode": "8003",
    "longLongitude": 41.3816,
    "longLatitude": 2.19051,
    "density": 1
  },
  {
    "id": 319,
    "name": "Antiga Foneria de Canons",
    "street": "C Rambla",
    "streetNum": "2",
    "neighbourhood": "el Barri Gòtic",
    "district": "Ciutat Vella",
    "zipcode": "8002",
    "longLongitude": 41.3769,
    "longLatitude": 2.17704,
    "density": 2
  },
  {
    "id": 320,
    "name": "Carrer de la Riereta",
    "street": "C Riereta",
    "streetNum": "1",
    "neighbourhood": "el Raval",
    "district": "Ciutat Vella",
    "zipcode": "8001",
    "longLongitude": 41.3793,
    "longLatitude": 2.16698,
    "density": 2
  },
  {
    "id": 321,
    "name": "Casa -Fàbrica Vermell-Martí",
    "street": "C Jonqueres",
    "streetNum": "10",
    "neighbourhood": "Sant Pere, Santa Caterina i la Ribera",
    "district": "Ciutat Vella",
    "zipcode": "8003",
    "longLongitude": 41.3883,
    "longLatitude": 2.17418,
    "density": 3
  },
  {
    "id": 331,
    "name": "Avinguda de la Catedral",
    "street": "Avinguda de la Catedral",
    "streetNum": "1",
    "neighbourhood": "el Barri Gòtic",
    "district": "Ciutat Vella",
    "zipcode": "8002",
    "longLongitude": 41.3845,
    "longLatitude": 2.17528,
    "density": 3
  },
  {
    "id": 334,
    "name": "Fundació Joan Brossa",
    "street": "Carrer de Flassaders",
    "streetNum": "40",
    "neighbourhood": "Sant Pere, Santa Caterina i la Ribera",
    "district": "Ciutat Vella",
    "zipcode": "8003",
    "longLongitude": 41.3852,
    "longLatitude": 2.18237,
    "density": 2
  },
  {
    "id": 335,
    "name": "Cereria Subirà",
    "street": "Bda Llibreteria",
    "streetNum": "7",
    "neighbourhood": "el Barri Gòtic",
    "district": "Ciutat Vella",
    "zipcode": "8002",
    "longLongitude": 41.3838,
    "longLatitude": 2.17804,
    "density": 3
  },
  {
    "id": 357,
    "name": "La Plaça de Sant Jaume",
    "street": "Pl Sant Jaume",
    "streetNum": "1",
    "neighbourhood": "el Barri Gòtic",
    "district": "Ciutat Vella",
    "zipcode": "8002",
    "longLongitude": 41.3825,
    "longLatitude": 2.17717,
    "density": 3
  },
  {
    "id": 369,
    "name": "Plaça de la Mercè",
    "street": "Plaça de la Mercè",
    "streetNum": "1",
    "neighbourhood": "el Barri Gòtic",
    "district": "Ciutat Vella",
    "zipcode": "8002",
    "longLongitude": 41.3794,
    "longLatitude": 2.17956,
    "density": 3
  },
  {
    "id": 378,
    "name": "Moll de la Fusta *Escenari Besòs",
    "street": "Moll de Bosch i Alsina",
    "streetNum": "1",
    "neighbourhood": "el Barri Gòtic",
    "district": "Ciutat Vella",
    "zipcode": "8039",
    "longLongitude": 41.379,
    "longLatitude": 2.18183,
    "density": 1
  },
  {
    "id": 379,
    "name": "Moll de la Fusta *Escenari Llobregat",
    "street": "Moll de Bosch i Alsina",
    "streetNum": "1",
    "neighbourhood": "el Barri Gòtic",
    "district": "Ciutat Vella",
    "zipcode": "8039",
    "longLongitude": 41.379,
    "longLatitude": 2.18183,
    "density": 1
  },
  {
    "id": 386,
    "name": "Palau de Mar",
    "street": "Pl Pau Vila",
    "streetNum": "1",
    "neighbourhood": "la Barceloneta",
    "district": "Ciutat Vella",
    "zipcode": "8039",
    "longLongitude": 41.3808,
    "longLatitude": 2.18587,
    "density": 1
  },
  {
    "id": 399,
    "name": "Federació de Comerciants Barna Centre",
    "street": "Av Portal de l'Àngel",
    "streetNum": "7",
    "neighbourhood": "el Barri Gòtic",
    "district": "Ciutat Vella",
    "zipcode": "8002",
    "longLongitude": 41.385,
    "longLatitude": 2.17376,
    "density": 3
  },
  {
    "id": 400,
    "name": "Platja de la Barceloneta",
    "street": "Passeig Marítim de la Barceloneta - Oriol Bohigas",
    "streetNum": "14",
    "neighbourhood": "la Barceloneta",
    "district": "Ciutat Vella",
    "zipcode": "8003",
    "longLongitude": 41.3786,
    "longLatitude": 2.19222,
    "density": 1
  },
  {
    "id": 406,
    "name": "Castell dels Tres Dragons",
    "street": "Pg Picasso",
    "streetNum": "5",
    "neighbourhood": "Sant Pere, Santa Caterina i la Ribera",
    "district": "Ciutat Vella",
    "zipcode": "8003",
    "longLongitude": 41.3881,
    "longLatitude": 2.18339,
    "density": 1
  },
  {
    "id": 422,
    "name": "Centre d'Arts Santa Mònica",
    "street": "Carrer la Rambla",
    "streetNum": "7",
    "neighbourhood": "el Raval",
    "district": "Ciutat Vella",
    "zipcode": "8002",
    "longLongitude": 41.3773,
    "longLatitude": 2.17562,
    "density": 2
  },
  {
    "id": 430,
    "name": "Cooperativa Obrera Popular Segle XX",
    "street": "C Atlàntida",
    "streetNum": "1",
    "neighbourhood": "la Barceloneta",
    "district": "Ciutat Vella",
    "zipcode": "8003",
    "longLongitude": 41.3816,
    "longLatitude": 2.18915,
    "density": 1
  },
  {
    "id": 431,
    "name": "La Maquinista Terrestre i Marítima",
    "street": "Pl Pompeu Gener",
    "streetNum": "1",
    "neighbourhood": "la Barceloneta",
    "district": "Ciutat Vella",
    "zipcode": "8003",
    "longLongitude": 41.3816,
    "longLatitude": 2.19072,
    "density": 1
  },
  {
    "id": 432,
    "name": "Unió de Cooperatives per a la Fabricació de Pastes per a Sopa",
    "street": "C Aurora",
    "streetNum": "11",
    "neighbourhood": "el Raval",
    "district": "Ciutat Vella",
    "zipcode": "8001",
    "longLongitude": 41.3787,
    "longLatitude": 2.16811,
    "density": 2
  },
  {
    "id": 433,
    "name": "Casa Sarriera",
    "street": "C Palma de Sant Just",
    "streetNum": "8",
    "neighbourhood": "el Barri Gòtic",
    "district": "Ciutat Vella",
    "zipcode": "8002",
    "longLongitude": 41.3824,
    "longLatitude": 2.17863,
    "density": 3
  },
  {
    "id": 458,
    "name": "Associació Xarxa de Consum Solidari",
    "street": "Pl Sant Agustí Vell",
    "streetNum": "15",
    "neighbourhood": "Sant Pere, Santa Caterina i la Ribera",
    "district": "Ciutat Vella",
    "zipcode": "8003",
    "longLongitude": 41.3879,
    "longLatitude": 2.18071,
    "density": 2
  },
  {
    "id": 470,
    "name": "Monestir de Sant Pau del Camp",
    "street": "C Sant Pau",
    "streetNum": "99",
    "neighbourhood": "el Raval",
    "district": "Ciutat Vella",
    "zipcode": "8001",
    "longLongitude": 41.3765,
    "longLatitude": 2.16931,
    "density": 2
  },
  {
    "id": 484,
    "name": "La Muralla Romana",
    "street": "Pl Ramon Berenguer el Gran",
    "streetNum": "3",
    "neighbourhood": "el Barri Gòtic",
    "district": "Ciutat Vella",
    "zipcode": "8002",
    "longLongitude": 41.3843,
    "longLatitude": 2.17758,
    "density": 3
  },
  {
    "id": 490,
    "name": "Monument a Cristòfol Colom",
    "street": "Plaça del Portal de la Pau",
    "streetNum": "1",
    "neighbourhood": "el Raval",
    "district": "Ciutat Vella",
    "zipcode": "8001",
    "longLongitude": 41.376,
    "longLatitude": 2.17606,
    "density": 1
  },
  {
    "id": 504,
    "name": "Parròquia de Santa Maria del Mar - Basílica",
    "street": "Pl Santa Maria",
    "streetNum": "1",
    "neighbourhood": "Sant Pere, Santa Caterina i la Ribera",
    "district": "Ciutat Vella",
    "zipcode": "8003",
    "longLongitude": 41.3838,
    "longLatitude": 2.18222,
    "density": 3
  },
  {
    "id": 522,
    "name": "Edifici Gas Natural",
    "street": "Pl Gas",
    "streetNum": "1",
    "neighbourhood": "la Barceloneta",
    "district": "Ciutat Vella",
    "zipcode": "8003",
    "longLongitude": 41.3832,
    "longLatitude": 2.19015,
    "density": 1
  },
  {
    "id": 525,
    "name": "Parc de la Ciutadella",
    "street": "Passeig de Picasso",
    "streetNum": "21",
    "neighbourhood": "Sant Pere, Santa Caterina i la Ribera",
    "district": "Ciutat Vella",
    "zipcode": "8003",
    "longLongitude": 41.3863,
    "longLatitude": 2.18538,
    "density": 1
  },
  {
    "id": 537,
    "name": "Hospital del Mar",
    "street": "Passeig Marítim de la Barceloneta - Oriol Bohigas",
    "streetNum": "25",
    "neighbourhood": "la Barceloneta",
    "district": "Ciutat Vella",
    "zipcode": "8003",
    "longLongitude": 41.3834,
    "longLatitude": 2.19468,
    "density": 1
  },
  {
    "id": 539,
    "name": "Club Natació Atlètic - Barceloneta",
    "street": "Pl Mar",
    "streetNum": "1",
    "neighbourhood": "la Barceloneta",
    "district": "Ciutat Vella",
    "zipcode": "8003",
    "longLongitude": 41.3734,
    "longLatitude": 2.18868,
    "density": 1
  },
  {
    "id": 542,
    "name": "Parròquia de la Mare de Déu de la Mercè i Sant Miquel Arcàngel - Basílica",
    "street": "Pl Mercè",
    "streetNum": "1",
    "neighbourhood": "el Barri Gòtic",
    "district": "Ciutat Vella",
    "zipcode": "8002",
    "longLongitude": 41.3794,
    "longLatitude": 2.17958,
    "density": 3
  },
  {
    "id": 551,
    "name": "Museu Picasso",
    "street": "Carrer de Montcada",
    "streetNum": "15",
    "neighbourhood": "Sant Pere, Santa Caterina i la Ribera",
    "district": "Ciutat Vella",
    "zipcode": "8003",
    "longLongitude": 41.3852,
    "longLatitude": 2.18085,
    "density": 2
  },
  {
    "id": 554,
    "name": "Tinta Invisible Edicions",
    "street": "C Lleó",
    "streetNum": "6",
    "neighbourhood": "el Raval",
    "district": "Ciutat Vella",
    "zipcode": "8001",
    "longLongitude": 41.3821,
    "longLatitude": 2.16508,
    "density": 2
  },
  {
    "id": 555,
    "name": "World Trade Center",
    "street": "Moll Barcelona",
    "streetNum": "1",
    "neighbourhood": "el Raval",
    "district": "Ciutat Vella",
    "zipcode": "8039",
    "longLongitude": 41.3711,
    "longLatitude": 2.18236,
    "density": 1
  },
  {
    "id": 567,
    "name": "El Gòtic",
    "street": "C Paradís",
    "streetNum": "1",
    "neighbourhood": "el Barri Gòtic",
    "district": "Ciutat Vella",
    "zipcode": "8002",
    "longLongitude": 41.3831,
    "longLatitude": 2.17702,
    "density": 3
  },
  {
    "id": 572,
    "name": "El Portal de l'Àngel",
    "street": "Av Portal de l'Àngel",
    "streetNum": "21",
    "neighbourhood": "el Barri Gòtic",
    "district": "Ciutat Vella",
    "zipcode": "8002",
    "longLongitude": 41.3859,
    "longLatitude": 2.17284,
    "density": 3
  },
  {
    "id": 579,
    "name": "Parc de Recerca Biomèdica de Barcelona",
    "street": "C Doctor Aiguader",
    "streetNum": "88",
    "neighbourhood": "la Barceloneta",
    "district": "Ciutat Vella",
    "zipcode": "8003",
    "longLongitude": 41.3856,
    "longLatitude": 2.19402,
    "density": 1
  },
  {
    "id": 580,
    "name": "Moll de la Fusta",
    "street": "Moll de Bosch i Alsina",
    "streetNum": "1",
    "neighbourhood": "el Barri Gòtic",
    "district": "Ciutat Vella",
    "zipcode": "8039",
    "longLongitude": 41.379,
    "longLatitude": 2.18183,
    "density": 1
  },
  {
    "id": 584,
    "name": "L'Aquàrium de Barcelona - Aspro Parks",
    "street": "Moll Espanya",
    "streetNum": "5",
    "neighbourhood": "el Barri Gòtic",
    "district": "Ciutat Vella",
    "zipcode": "8039",
    "longLongitude": 41.3768,
    "longLatitude": 2.18438,
    "density": 1
  },
  {
    "id": 585,
    "name": "Escola Massana Centre Municipal d'Art i Disseny",
    "street": "Plaça de la Gardunya",
    "streetNum": "9",
    "neighbourhood": "el Raval",
    "district": "Ciutat Vella",
    "zipcode": "8001",
    "longLongitude": 41.381,
    "longLatitude": 2.17081,
    "density": 3
  },
  {
    "id": 596,
    "name": "Reials Drassanes de Barcelona",
    "street": "Av Drassanes",
    "streetNum": "1",
    "neighbourhood": "el Raval",
    "district": "Ciutat Vella",
    "zipcode": "8001",
    "longLongitude": 41.376,
    "longLatitude": 2.17606,
    "density": 1
  },
  {
    "id": 600,
    "name": "El Campus Raval - UB",
    "street": "C Montalegre",
    "streetNum": "6",
    "neighbourhood": "el Raval",
    "district": "Ciutat Vella",
    "zipcode": "8001",
    "longLongitude": 41.3841,
    "longLatitude": 2.1669,
    "density": 2
  },
  {
    "id": 612,
    "name": "Àntic Edifici de Catalana de Gas i Electricitat, SA",
    "street": "Av Portal de l'Àngel",
    "streetNum": "20",
    "neighbourhood": "el Barri Gòtic",
    "district": "Ciutat Vella",
    "zipcode": "8002",
    "longLongitude": 41.3858,
    "longLatitude": 2.17304,
    "density": 3
  },
  {
    "id": 619,
    "name": "Plaça del Rei",
    "street": "Pl Rei",
    "streetNum": "1",
    "neighbourhood": "el Barri Gòtic",
    "district": "Ciutat Vella",
    "zipcode": "8002",
    "longLongitude": 41.384,
    "longLatitude": 2.17731,
    "density": 3
  },
  {
    "id": 620,
    "name": "Parròquia de Sant Pere de les Puel·les",
    "street": "Pl Sant Pere",
    "streetNum": "-2147483648",
    "neighbourhood": "Sant Pere, Santa Caterina i la Ribera",
    "district": "Ciutat Vella",
    "zipcode": "8003",
    "longLongitude": 41.3892,
    "longLatitude": 2.17924,
    "density": 2
  },
  {
    "id": 631,
    "name": "Espai Mescladís",
    "street": "C Carders",
    "streetNum": "35",
    "neighbourhood": "Sant Pere, Santa Caterina i la Ribera",
    "district": "Ciutat Vella",
    "zipcode": "8003",
    "longLongitude": 41.3871,
    "longLatitude": 2.18035,
    "density": 2
  },
  {
    "id": 644,
    "name": "Antiga Subcentral Elèctrica de la Barceloneta",
    "street": "C Atlàntida",
    "streetNum": "57",
    "neighbourhood": "la Barceloneta",
    "district": "Ciutat Vella",
    "zipcode": "8003",
    "longLongitude": 41.3795,
    "longLatitude": 2.19001,
    "density": 2
  },
  {
    "id": 645,
    "name": "L'Hortet del Forat",
    "street": "C Pou de la Figuera",
    "streetNum": "1",
    "neighbourhood": "Sant Pere, Santa Caterina i la Ribera",
    "district": "Ciutat Vella",
    "zipcode": "8003",
    "longLongitude": 41.3874,
    "longLatitude": 2.17976,
    "density": 2
  },
  {
    "id": 646,
    "name": "El Pla de Palau",
    "street": "Pla Palau",
    "streetNum": "1",
    "neighbourhood": "Sant Pere, Santa Caterina i la Ribera",
    "district": "Ciutat Vella",
    "zipcode": "8003",
    "longLongitude": 41.3829,
    "longLatitude": 2.18252,
    "density": 3
  },
  {
    "id": 648,
    "name": "Museu de la Xocolata",
    "street": "Carrer del Comerç",
    "streetNum": "36",
    "neighbourhood": "Sant Pere, Santa Caterina i la Ribera",
    "district": "Ciutat Vella",
    "zipcode": "8003",
    "longLongitude": 41.3874,
    "longLatitude": 2.18173,
    "density": 2
  },
  {
    "id": 652,
    "name": "Facultat de Comunicació i Relacions Internacionals Blanquerna - URL",
    "street": "Pl Joan Coromines",
    "streetNum": "1",
    "neighbourhood": "el Raval",
    "district": "Ciutat Vella",
    "zipcode": "8001",
    "longLongitude": 41.3836,
    "longLatitude": 2.1663,
    "density": 2
  },
  {
    "id": 682,
    "name": "Estació de França",
    "street": "Avinguda del Marquès de l'Argentera",
    "streetNum": "6",
    "neighbourhood": "Sant Pere, Santa Caterina i la Ribera",
    "district": "Ciutat Vella",
    "zipcode": "8003",
    "longLongitude": 41.3839,
    "longLatitude": 2.1872,
    "density": 1
  },
  {
    "id": 684,
    "name": "Museu d'Art Contemporani de Barcelona",
    "street": "Plaça dels Àngels",
    "streetNum": "1",
    "neighbourhood": "el Raval",
    "district": "Ciutat Vella",
    "zipcode": "8001",
    "longLongitude": 41.3832,
    "longLatitude": 2.16785,
    "density": 2
  },
  {
    "id": 691,
    "name": "Casa Almirall",
    "street": "C Joaquín Costa",
    "streetNum": "33",
    "neighbourhood": "el Raval",
    "district": "Ciutat Vella",
    "zipcode": "8001",
    "longLongitude": 41.3824,
    "longLatitude": 2.16593,
    "density": 2
  },
  {
    "id": 709,
    "name": "Parc de les Cascades",
    "street": "Avinguda del Litoral",
    "streetNum": "12",
    "neighbourhood": "la Barceloneta",
    "district": "Ciutat Vella",
    "zipcode": "8005",
    "longLongitude": 41.3863,
    "longLatitude": 2.19509,
    "density": 1
  },
  {
    "id": 725,
    "name": "Biblioteca Barceloneta -  La Fraternitat",
    "street": "Carrer de Felícia Fuster i Viladecans",
    "streetNum": "8",
    "neighbourhood": "la Barceloneta",
    "district": "Ciutat Vella",
    "zipcode": "8003",
    "longLongitude": 41.3792,
    "longLatitude": 2.18887,
    "density": 2
  },
  {
    "id": 741,
    "name": "Associació Cultural El Raval El Lokal",
    "street": "C Cera",
    "streetNum": "1",
    "neighbourhood": "el Raval",
    "district": "Ciutat Vella",
    "zipcode": "8001",
    "longLongitude": 41.3795,
    "longLatitude": 2.16709,
    "density": 2
  },
  {
    "id": 743,
    "name": "Centre de Cultura Contemporània de Barcelona",
    "street": "C Montalegre",
    "streetNum": "5",
    "neighbourhood": "el Raval",
    "district": "Ciutat Vella",
    "zipcode": "8001",
    "longLongitude": 41.3839,
    "longLatitude": 2.16681,
    "density": 2
  },
  {
    "id": 749,
    "name": "Palau de la Música Catalana",
    "street": "C Palau de la Música",
    "streetNum": "2",
    "neighbourhood": "Sant Pere, Santa Caterina i la Ribera",
    "district": "Ciutat Vella",
    "zipcode": "8003",
    "longLongitude": 41.3874,
    "longLatitude": 2.17518,
    "density": 2
  },
  {
    "id": 751,
    "name": "Monument Arc de Triomf de Barcelona",
    "street": "Pg Lluís Companys",
    "streetNum": "15",
    "neighbourhood": "Sant Pere, Santa Caterina i la Ribera",
    "district": "Ciutat Vella",
    "zipcode": "8003",
    "longLongitude": 41.3911,
    "longLatitude": 2.1807,
    "density": 2
  },
  {
    "id": 762,
    "name": "Club Natació Barcelona",
    "street": "Pg Joan Borbó C Barcelona",
    "streetNum": "93",
    "neighbourhood": "la Barceloneta",
    "district": "Ciutat Vella",
    "zipcode": "8039",
    "longLongitude": 41.3713,
    "longLatitude": 2.18785,
    "density": 1
  },
  {
    "id": 766,
    "name": "Col·legi d'Arquitectes de Catalunya",
    "street": "Pl Nova",
    "streetNum": "5",
    "neighbourhood": "el Barri Gòtic",
    "district": "Ciutat Vella",
    "zipcode": "8002",
    "longLongitude": 41.3845,
    "longLatitude": 2.17506,
    "density": 3
  },
  {
    "id": 775,
    "name": "Antic Dispensari Antituberculós",
    "street": "C Torres i Amat",
    "streetNum": "8",
    "neighbourhood": "el Raval",
    "district": "Ciutat Vella",
    "zipcode": "8001",
    "longLongitude": 41.3843,
    "longLatitude": 2.16517,
    "density": 3
  },
  {
    "id": 777,
    "name": "Parc de la Barceloneta",
    "street": "Passeig Marítim de la Barceloneta - Oriol Bohigas",
    "streetNum": "15",
    "neighbourhood": "la Barceloneta",
    "district": "Ciutat Vella",
    "zipcode": "8003",
    "longLongitude": 41.3821,
    "longLatitude": 2.19384,
    "density": 1
  },
  {
    "id": 779,
    "name": "Far del Port - Torre del Rellotge",
    "street": "Moll Pescadors",
    "streetNum": "1",
    "neighbourhood": "la Barceloneta",
    "district": "Ciutat Vella",
    "zipcode": "8039",
    "longLongitude": 41.3758,
    "longLatitude": 2.187,
    "density": 1
  },
  {
    "id": 781,
    "name": "Filmoteca de Catalunya",
    "street": "Plaça de Salvador Seguí",
    "streetNum": "1",
    "neighbourhood": "el Raval",
    "district": "Ciutat Vella",
    "zipcode": "8001",
    "longLongitude": 41.3786,
    "longLatitude": 2.17103,
    "density": 3
  },
  {
    "id": 787,
    "name": "Bar Musical London Bar",
    "street": "C Nou de la Rambla",
    "streetNum": "34",
    "neighbourhood": "el Raval",
    "district": "Ciutat Vella",
    "zipcode": "8001",
    "longLongitude": 41.3782,
    "longLatitude": 2.17318,
    "density": 3
  },
  {
    "id": 793,
    "name": "Casa Parés",
    "street": "C Mestres Casals i Martorell",
    "streetNum": "15",
    "neighbourhood": "Sant Pere, Santa Caterina i la Ribera",
    "district": "Ciutat Vella",
    "zipcode": "8003",
    "longLongitude": 41.3873,
    "longLatitude": 2.1784,
    "density": 2
  },
  {
    "id": 797,
    "name": "Gerència Urbanística Port Vell de l'Autoritat Portuària de Barcelona",
    "street": "C Josep Anselm Clavé",
    "streetNum": "27",
    "neighbourhood": "el Barri Gòtic",
    "district": "Ciutat Vella",
    "zipcode": "8002",
    "longLongitude": 41.3779,
    "longLatitude": 2.17823,
    "density": 3
  },
  {
    "id": 805,
    "name": "Platja de Sant Sebastià",
    "street": "Passeig Marítim de la Barceloneta - Oriol Bohigas",
    "streetNum": "2",
    "neighbourhood": "la Barceloneta",
    "district": "Ciutat Vella",
    "zipcode": "8003",
    "longLongitude": 41.3737,
    "longLatitude": 2.18968,
    "density": 1
  },
  {
    "id": 808,
    "name": "Centre Comercial Maremàgnum",
    "street": "Moll Espanya",
    "streetNum": "5",
    "neighbourhood": "el Barri Gòtic",
    "district": "Ciutat Vella",
    "zipcode": "8039",
    "longLongitude": 41.3758,
    "longLatitude": 2.18323,
    "density": 1
  },
  {
    "id": 818,
    "name": "Las Golondrinas - Sirenas SA",
    "street": "Moll Drassanes",
    "streetNum": "1",
    "neighbourhood": "Sant Pere, Santa Caterina i la Ribera",
    "district": "Ciutat Vella",
    "zipcode": "8039",
    "longLongitude": 41.3747,
    "longLatitude": 2.17812,
    "density": 1
  },
  {
    "id": 823,
    "name": "Reial Club Nàutic de Barcelona",
    "street": "Moll Espanya",
    "streetNum": "1",
    "neighbourhood": "el Barri Gòtic",
    "district": "Ciutat Vella",
    "zipcode": "8039",
    "longLongitude": 41.3772,
    "longLatitude": 2.18303,
    "density": 1
  },
  {
    "id": 833,
    "name": "Casa Martí - Els Quatre Gats",
    "street": "Montsió",
    "streetNum": "3",
    "neighbourhood": "el Barri Gòtic",
    "district": "Ciutat Vella",
    "zipcode": "8002",
    "longLongitude": 41.386,
    "longLatitude": 2.17352,
    "density": 3
  },
  {
    "id": 835,
    "name": "Museu de Cera de Barcelona",
    "street": "Passatge de la Banca",
    "streetNum": "5",
    "neighbourhood": "el Barri Gòtic",
    "district": "Ciutat Vella",
    "zipcode": "8002",
    "longLongitude": 41.3771,
    "longLatitude": 2.17746,
    "density": 2
  },
  {
    "id": 851,
    "name": "Pla de la Seu",
    "street": "Pla de la Seu",
    "streetNum": "1",
    "neighbourhood": "el Barri Gòtic",
    "district": "Ciutat Vella",
    "zipcode": "8002",
    "longLongitude": 41.3843,
    "longLatitude": 2.17587,
    "density": 3
  },
  {
    "id": 863,
    "name": "Mercat Barceloneta",
    "street": "Plaça del Poeta Boscà",
    "streetNum": "1",
    "neighbourhood": "la Barceloneta",
    "district": "Ciutat Vella",
    "zipcode": "8003",
    "longLongitude": 41.3802,
    "longLatitude": 2.18928,
    "density": 2
  },
  {
    "id": 868,
    "name": "Mercat Santa Caterina",
    "street": "Av Francesc Cambó",
    "streetNum": "16",
    "neighbourhood": "Sant Pere, Santa Caterina i la Ribera",
    "district": "Ciutat Vella",
    "zipcode": "8003",
    "longLongitude": 41.3864,
    "longLatitude": 2.17818,
    "density": 2
  }
]