[
  {
    "id": 5,
    "name": "Casa del Guarda -  Espai d'Interpretació del Pantà de Vallvidrera",
    "street": "Camí del Pantà",
    "streetNum": "40",
    "neighbourhood": "Vallvidrera, el Tibidabo i les Planes",
    "district": "Sarrià-Sant Gervasi",
    "zipcode": "8017",
    "longLongitude": 41.4156,
    "longLatitude": 2.09738,
    "density": 1
  },
  {
    "id": 12,
    "name": "Observatori Fabra",
    "street": "Ctra Observatori Fabra",
    "streetNum": "27",
    "neighbourhood": "Vallvidrera, el Tibidabo i les Planes",
    "district": "Sarrià-Sant Gervasi",
    "zipcode": "8035",
    "longLongitude": 41.4188,
    "longLatitude": 2.12365,
    "density": 1
  },
  {
    "id": 13,
    "name": "Residència Militar d'Estudiants Mateo Calabro",
    "street": "Capità Arenas",
    "streetNum": "52",
    "neighbourhood": "Sarrià",
    "district": "Sarrià-Sant Gervasi",
    "zipcode": "8034",
    "longLongitude": 41.393,
    "longLatitude": 2.1251,
    "density": 1
  },
  {
    "id": 34,
    "name": "Parc de la Font del Racó",
    "street": "Av Tibidabo",
    "streetNum": "72",
    "neighbourhood": "Sant Gervasi - la Bonanova",
    "district": "Sarrià-Sant Gervasi",
    "zipcode": "8035",
    "longLongitude": 41.4161,
    "longLatitude": 2.13084,
    "density": 1
  },
  {
    "id": 38,
    "name": "Casa Muley-Afid",
    "street": "Pg Bonanova",
    "streetNum": "55",
    "neighbourhood": "les Tres Torres",
    "district": "Sarrià-Sant Gervasi",
    "zipcode": "8017",
    "longLongitude": 41.4039,
    "longLatitude": 2.12867,
    "density": 1
  },
  {
    "id": 46,
    "name": "Biblioteca Clarà",
    "street": "Carrer del Doctor Carulla",
    "streetNum": "22",
    "neighbourhood": "les Tres Torres",
    "district": "Sarrià-Sant Gervasi",
    "zipcode": "8017",
    "longLongitude": 41.3999,
    "longLatitude": 2.12947,
    "density": 1
  },
  {
    "id": 54,
    "name": "Centre Cívic Can Castelló",
    "street": "Carrer de Castelló",
    "streetNum": "1",
    "neighbourhood": "Sant Gervasi - Galvany",
    "district": "Sarrià-Sant Gervasi",
    "zipcode": "8021",
    "longLongitude": 41.399,
    "longLatitude": 2.14018,
    "density": 1
  },
  {
    "id": 62,
    "name": "Fundació Universitaria Agustí Pedro Pons",
    "street": "Av Vallvidrera",
    "streetNum": "25",
    "neighbourhood": "Sarrià",
    "district": "Sarrià-Sant Gervasi",
    "zipcode": "8017",
    "longLongitude": 41.4066,
    "longLatitude": 2.11418,
    "density": 1
  },
  {
    "id": 71,
    "name": "Jardins de Vil·la Amèlia",
    "street": "Carrer d'Eduardo Conde",
    "streetNum": "22",
    "neighbourhood": "Sarrià",
    "district": "Sarrià-Sant Gervasi",
    "zipcode": "8034",
    "longLongitude": 41.3939,
    "longLatitude": 2.12119,
    "density": 1
  },
  {
    "id": 77,
    "name": "Bar Mestres",
    "street": "C Vergós",
    "streetNum": "9",
    "neighbourhood": "les Tres Torres",
    "district": "Sarrià-Sant Gervasi",
    "zipcode": "8017",
    "longLongitude": 41.3996,
    "longLatitude": 2.13106,
    "density": 1
  },
  {
    "id": 94,
    "name": "Drogueria Rovira (Antiga Drogueria Galvany)",
    "street": "Madrazo",
    "streetNum": "127",
    "neighbourhood": "Sant Gervasi - Galvany",
    "district": "Sarrià-Sant Gervasi",
    "zipcode": "8021",
    "longLongitude": 41.3969,
    "longLatitude": 2.14476,
    "density": 2
  },
  {
    "id": 96,
    "name": "Santa Creu d'Olorda",
    "street": "Ctra Santa Creu Olorda a Sarrià",
    "streetNum": "417",
    "neighbourhood": "Vallvidrera, el Tibidabo i les Planes",
    "district": "Sarrià-Sant Gervasi",
    "zipcode": "8017",
    "longLongitude": 41.416,
    "longLatitude": 2.05901,
    "density": 1
  },
  {
    "id": 105,
    "name": "Carrer Major de Sarrià",
    "street": "C Major de Sarrià",
    "streetNum": "1",
    "neighbourhood": "Sarrià",
    "district": "Sarrià-Sant Gervasi",
    "zipcode": "8017",
    "longLongitude": 41.396,
    "longLatitude": 2.12515,
    "density": 1
  },
  {
    "id": 106,
    "name": "Casa Fornells",
    "street": "Av Tibidabo",
    "streetNum": "35",
    "neighbourhood": "Sant Gervasi - la Bonanova",
    "district": "Sarrià-Sant Gervasi",
    "zipcode": "8022",
    "longLongitude": 41.4137,
    "longLatitude": 2.1343,
    "density": 1
  },
  {
    "id": 111,
    "name": "Edifici Alhambra",
    "street": "C Berlinès",
    "streetNum": "5",
    "neighbourhood": "Sant Gervasi - Galvany",
    "district": "Sarrià-Sant Gervasi",
    "zipcode": "8006",
    "longLongitude": 41.4036,
    "longLatitude": 2.13972,
    "density": 1
  },
  {
    "id": 112,
    "name": "El Farró a través del carrer Saragossa",
    "street": "C Saragossa",
    "streetNum": "1",
    "neighbourhood": "el Putxet i el Farró",
    "district": "Sarrià-Sant Gervasi",
    "zipcode": "8006",
    "longLongitude": 41.4009,
    "longLatitude": 2.15087,
    "density": 2
  },
  {
    "id": 113,
    "name": "La plaça de Sarrià",
    "street": "Pl Sarrià",
    "streetNum": "-2147483648",
    "neighbourhood": "Sarrià",
    "district": "Sarrià-Sant Gervasi",
    "zipcode": "8017",
    "longLongitude": 41.3998,
    "longLatitude": 2.12203,
    "density": 1
  },
  {
    "id": 114,
    "name": "La Torre d'Aigües de Josep Amargós",
    "street": "Carretera de Vallvidrera al Tibidabo",
    "streetNum": "107",
    "neighbourhood": "Vallvidrera, el Tibidabo i les Planes",
    "district": "Sarrià-Sant Gervasi",
    "zipcode": "8035",
    "longLongitude": 41.423,
    "longLatitude": 2.11894,
    "density": 1
  },
  {
    "id": 115,
    "name": "MUHBA Museu d'Història de Barcelona - Vil·la Joana",
    "street": "Carretera de l'Església",
    "streetNum": "104",
    "neighbourhood": "Vallvidrera, el Tibidabo i les Planes",
    "district": "Sarrià-Sant Gervasi",
    "zipcode": "8017",
    "longLongitude": 41.4195,
    "longLatitude": 2.09995,
    "density": 1
  },
  {
    "id": 142,
    "name": "El Tibidabo",
    "street": "Ctra Observatori Fabra",
    "streetNum": "25",
    "neighbourhood": "Vallvidrera, el Tibidabo i les Planes",
    "district": "Sarrià-Sant Gervasi",
    "zipcode": "8028",
    "longLongitude": 41.4189,
    "longLatitude": 2.1233,
    "density": 1
  },
  {
    "id": 149,
    "name": "Floristeria Flora Miserachs",
    "street": "C Avió Plus Ultra",
    "streetNum": "21",
    "neighbourhood": "Sarrià",
    "district": "Sarrià-Sant Gervasi",
    "zipcode": "8017",
    "longLongitude": 41.401,
    "longLatitude": 2.12109,
    "density": 1
  },
  {
    "id": 159,
    "name": "Centre Esportiu Municipal Putxet",
    "street": "C Marmellà",
    "streetNum": "23",
    "neighbourhood": "el Putxet i el Farró",
    "district": "Sarrià-Sant Gervasi",
    "zipcode": "8023",
    "longLongitude": 41.4097,
    "longLatitude": 2.1413,
    "density": 1
  },
  {
    "id": 161,
    "name": "La plaça de Sant Gaietà",
    "street": "Pl Sant Gaietà",
    "streetNum": "5",
    "neighbourhood": "Sarrià",
    "district": "Sarrià-Sant Gervasi",
    "zipcode": "8034",
    "longLongitude": 41.4003,
    "longLatitude": 2.12026,
    "density": 1
  },
  {
    "id": 179,
    "name": "Bodega Josefa",
    "street": "C Saragossa",
    "streetNum": "86",
    "neighbourhood": "el Putxet i el Farró",
    "district": "Sarrià-Sant Gervasi",
    "zipcode": "8006",
    "longLongitude": 41.4043,
    "longLatitude": 2.14594,
    "density": 1
  },
  {
    "id": 180,
    "name": "Viaducte de Bellesguard",
    "street": "C Bellesguard",
    "streetNum": "16",
    "neighbourhood": "Sant Gervasi - la Bonanova",
    "district": "Sarrià-Sant Gervasi",
    "zipcode": "8022",
    "longLongitude": 41.4092,
    "longLatitude": 2.12683,
    "density": 1
  },
  {
    "id": 187,
    "name": "Biblioteca Collserola-Josep Miracle",
    "street": "Carrer d'Elisa Moragas i Badia",
    "streetNum": "16",
    "neighbourhood": "Vallvidrera, el Tibidabo i les Planes",
    "district": "Sarrià-Sant Gervasi",
    "zipcode": "8017",
    "longLongitude": 41.4154,
    "longLatitude": 2.10255,
    "density": 1
  },
  {
    "id": 211,
    "name": "Jardins de la Tamarita",
    "street": "Pg Sant Gervasi",
    "streetNum": "47",
    "neighbourhood": "Sant Gervasi - la Bonanova",
    "district": "Sarrià-Sant Gervasi",
    "zipcode": "8022",
    "longLongitude": 41.4109,
    "longLatitude": 2.13533,
    "density": 1
  },
  {
    "id": 212,
    "name": "Parròquia de Santa Maria de Vallvidrera",
    "street": "Carrer de l'Actor Morano",
    "streetNum": "9",
    "neighbourhood": "Vallvidrera, el Tibidabo i les Planes",
    "district": "Sarrià-Sant Gervasi",
    "zipcode": "8017",
    "longLongitude": 41.4134,
    "longLatitude": 2.10535,
    "density": 1
  },
  {
    "id": 215,
    "name": "Passatge de Sant Felip",
    "street": "Ptge Sant Felip",
    "streetNum": "1",
    "neighbourhood": "el Putxet i el Farró",
    "district": "Sarrià-Sant Gervasi",
    "zipcode": "8006",
    "longLongitude": 41.4034,
    "longLatitude": 2.1471,
    "density": 1
  },
  {
    "id": 216,
    "name": "La plaça Molina",
    "street": "Pl Molina",
    "streetNum": "1",
    "neighbourhood": "Sant Gervasi - Galvany",
    "district": "Sarrià-Sant Gervasi",
    "zipcode": "8006",
    "longLongitude": 41.4013,
    "longLatitude": 2.14673,
    "density": 1
  },
  {
    "id": 218,
    "name": "Parc Torrent Maduixer",
    "street": "C Josep Garí",
    "streetNum": "7",
    "neighbourhood": "Sant Gervasi - la Bonanova",
    "district": "Sarrià-Sant Gervasi",
    "zipcode": "8035",
    "longLongitude": 41.4158,
    "longLatitude": 2.13539,
    "density": 1
  },
  {
    "id": 229,
    "name": "Associació de Comerciants i Professionals Barnavasi",
    "street": "C Septimània",
    "streetNum": "31",
    "neighbourhood": "el Putxet i el Farró",
    "district": "Sarrià-Sant Gervasi",
    "zipcode": "8006",
    "longLongitude": 41.4055,
    "longLatitude": 2.14764,
    "density": 1
  },
  {
    "id": 237,
    "name": "Círculo Ecuestre",
    "street": "C Balmes",
    "streetNum": "169",
    "neighbourhood": "Sant Gervasi - Galvany",
    "district": "Sarrià-Sant Gervasi",
    "zipcode": "8006",
    "longLongitude": 41.3958,
    "longLatitude": 2.15401,
    "density": 2
  },
  {
    "id": 246,
    "name": "La plaça de Gal·la Placídia",
    "street": "Pl Gal·la Placídia",
    "streetNum": "1",
    "neighbourhood": "Sant Gervasi - Galvany",
    "district": "Sarrià-Sant Gervasi",
    "zipcode": "8006",
    "longLongitude": 41.3986,
    "longLatitude": 2.15294,
    "density": 2
  },
  {
    "id": 254,
    "name": "Consell Municipal del Districte de Sarrià-Sant Gervasi",
    "street": "Plaça del Consell de la Vila",
    "streetNum": "7",
    "neighbourhood": "Sarrià",
    "district": "Sarrià-Sant Gervasi",
    "zipcode": "8034",
    "longLongitude": 41.3991,
    "longLatitude": 2.12141,
    "density": 1
  },
  {
    "id": 259,
    "name": "Casa Sant Felip Neri",
    "street": "C Nena Casas",
    "streetNum": "37",
    "neighbourhood": "les Tres Torres",
    "district": "Sarrià-Sant Gervasi",
    "zipcode": "8017",
    "longLongitude": 41.3957,
    "longLatitude": 2.1309,
    "density": 1
  },
  {
    "id": 269,
    "name": "L'antic Putxet. Els carrers Manacor, Cadis i Putxet",
    "street": "C Putxet",
    "streetNum": "1",
    "neighbourhood": "el Putxet i el Farró",
    "district": "Sarrià-Sant Gervasi",
    "zipcode": "8006",
    "longLongitude": 41.4041,
    "longLatitude": 2.14223,
    "density": 1
  },
  {
    "id": 287,
    "name": "Monestir de Santa Maria de Valldonzella",
    "street": "C Císter",
    "streetNum": "41",
    "neighbourhood": "Sant Gervasi - la Bonanova",
    "district": "Sarrià-Sant Gervasi",
    "zipcode": "8022",
    "longLongitude": 41.4119,
    "longLatitude": 2.13101,
    "density": 1
  },
  {
    "id": 288,
    "name": "El passatge de Mallofré",
    "street": "Ptge Mallofré",
    "streetNum": "2",
    "neighbourhood": "Sarrià",
    "district": "Sarrià-Sant Gervasi",
    "zipcode": "8034",
    "longLongitude": 41.3985,
    "longLatitude": 2.12193,
    "density": 1
  },
  {
    "id": 289,
    "name": "La plaça de Sant Vicenç",
    "street": "Pl Sant Vicenç de Sarrià",
    "streetNum": "1",
    "neighbourhood": "Sarrià",
    "district": "Sarrià-Sant Gervasi",
    "zipcode": "8017",
    "longLongitude": 41.3972,
    "longLatitude": 2.12408,
    "density": 1
  },
  {
    "id": 293,
    "name": "Colònia Busquets",
    "street": "Ctra Església",
    "streetNum": "2",
    "neighbourhood": "Vallvidrera, el Tibidabo i les Planes",
    "district": "Sarrià-Sant Gervasi",
    "zipcode": "8017",
    "longLongitude": 41.4137,
    "longLatitude": 2.1045,
    "density": 1
  },
  {
    "id": 295,
    "name": "Torre d'Aigües de Carrasco i Formiguera",
    "street": "Via Augusta",
    "streetNum": "356",
    "neighbourhood": "Sarrià",
    "district": "Sarrià-Sant Gervasi",
    "zipcode": "8017",
    "longLongitude": 41.4013,
    "longLatitude": 2.12285,
    "density": 1
  },
  {
    "id": 296,
    "name": "Torre del Doctor Andreu",
    "street": "Av Tibidabo",
    "streetNum": "17",
    "neighbourhood": "Sant Gervasi - la Bonanova",
    "district": "Sarrià-Sant Gervasi",
    "zipcode": "8022",
    "longLongitude": 41.4118,
    "longLatitude": 2.13569,
    "density": 1
  },
  {
    "id": 326,
    "name": "Pavelló de Ràdio Barcelona al Parc d'Atraccions del Tibidabo",
    "street": "Carretera de Vallvidrera al Tibidabo",
    "streetNum": "101",
    "neighbourhood": "Vallvidrera, el Tibidabo i les Planes",
    "district": "Sarrià-Sant Gervasi",
    "zipcode": "8035",
    "longLongitude": 41.4241,
    "longLatitude": 2.11931,
    "density": 1
  },
  {
    "id": 327,
    "name": "Torre d'Ignacio Portabella",
    "street": "Av Tibidabo",
    "streetNum": "27",
    "neighbourhood": "Sant Gervasi - la Bonanova",
    "district": "Sarrià-Sant Gervasi",
    "zipcode": "8022",
    "longLongitude": 41.4128,
    "longLatitude": 2.13498,
    "density": 1
  },
  {
    "id": 340,
    "name": "Carrer Avió Plus Ultra",
    "street": "C Avió Plus Ultra",
    "streetNum": "1",
    "neighbourhood": "Sarrià",
    "district": "Sarrià-Sant Gervasi",
    "zipcode": "8017",
    "longLongitude": 41.4003,
    "longLatitude": 2.12202,
    "density": 1
  },
  {
    "id": 342,
    "name": "Restaurant El Asador de Aranda *Av Tibidabo",
    "street": "Av Tibidabo",
    "streetNum": "31",
    "neighbourhood": "Sant Gervasi - la Bonanova",
    "district": "Sarrià-Sant Gervasi",
    "zipcode": "8022",
    "longLongitude": 41.4135,
    "longLatitude": 2.13448,
    "density": 1
  },
  {
    "id": 347,
    "name": "La Mina Grott",
    "street": "Camí del Cama-sec",
    "streetNum": "22",
    "neighbourhood": "Vallvidrera, el Tibidabo i les Planes",
    "district": "Sarrià-Sant Gervasi",
    "zipcode": "8017",
    "longLongitude": 41.4153,
    "longLatitude": 2.09755,
    "density": 1
  },
  {
    "id": 351,
    "name": "Casa Ramos",
    "street": "Pl Lesseps",
    "streetNum": "30",
    "neighbourhood": "el Putxet i el Farró",
    "district": "Sarrià-Sant Gervasi",
    "zipcode": "8023",
    "longLongitude": 41.4062,
    "longLatitude": 2.14958,
    "density": 1
  },
  {
    "id": 370,
    "name": "Jardins de Portolà",
    "street": "C Portolà",
    "streetNum": "5",
    "neighbourhood": "el Putxet i el Farró",
    "district": "Sarrià-Sant Gervasi",
    "zipcode": "8023",
    "longLongitude": 41.4108,
    "longLatitude": 2.14256,
    "density": 1
  },
  {
    "id": 372,
    "name": "Escola Business Engineering School - la Salle",
    "street": "C Lluçanès",
    "streetNum": "41",
    "neighbourhood": "Sant Gervasi - la Bonanova",
    "district": "Sarrià-Sant Gervasi",
    "zipcode": "8022",
    "longLongitude": 41.4089,
    "longLatitude": 2.13114,
    "density": 1
  },
  {
    "id": 373,
    "name": "Sarrià",
    "street": "C Major de Sarrià",
    "streetNum": "63",
    "neighbourhood": "Sarrià",
    "district": "Sarrià-Sant Gervasi",
    "zipcode": "8017",
    "longLongitude": 41.3983,
    "longLatitude": 2.12232,
    "density": 1
  },
  {
    "id": 374,
    "name": "Centre Cívic Vil·la Florida",
    "street": "Carrer de Muntaner",
    "streetNum": "544",
    "neighbourhood": "Sant Gervasi - la Bonanova",
    "district": "Sarrià-Sant Gervasi",
    "zipcode": "8022",
    "longLongitude": 41.4054,
    "longLatitude": 2.13531,
    "density": 1
  },
  {
    "id": 387,
    "name": "Centre Cívic Casa Orlandai",
    "street": "Carrer de Jaume Piquet",
    "streetNum": "23",
    "neighbourhood": "Sarrià",
    "district": "Sarrià-Sant Gervasi",
    "zipcode": "8017",
    "longLongitude": 41.3984,
    "longLatitude": 2.12467,
    "density": 1
  },
  {
    "id": 390,
    "name": "Cementiri Sarrià",
    "street": "Camí del Cementiri de Sarrià",
    "streetNum": "10",
    "neighbourhood": "les Tres Torres",
    "district": "Sarrià-Sant Gervasi",
    "zipcode": "8017",
    "longLongitude": 41.401,
    "longLatitude": 2.12761,
    "density": 1
  },
  {
    "id": 404,
    "name": "Portal Casa Miralles",
    "street": "Pg Manuel Girona",
    "streetNum": "55",
    "neighbourhood": "Sarrià",
    "district": "Sarrià-Sant Gervasi",
    "zipcode": "8034",
    "longLongitude": 41.3921,
    "longLatitude": 2.1275,
    "density": 1
  },
  {
    "id": 407,
    "name": "CosmoCaixa Barcelona",
    "street": "Carrer d'Isaac Newton",
    "streetNum": "26",
    "neighbourhood": "Sant Gervasi - la Bonanova",
    "district": "Sarrià-Sant Gervasi",
    "zipcode": "8022",
    "longLongitude": 41.4133,
    "longLatitude": 2.13068,
    "density": 1
  },
  {
    "id": 425,
    "name": "El passeig de Sant Gervasi",
    "street": "Pg Sant Gervasi",
    "streetNum": "1",
    "neighbourhood": "Sant Gervasi - la Bonanova",
    "district": "Sarrià-Sant Gervasi",
    "zipcode": "8022",
    "longLongitude": 41.4072,
    "longLatitude": 2.13386,
    "density": 1
  },
  {
    "id": 426,
    "name": "El Submarí de la Ronda",
    "street": "C Isaac Newton",
    "streetNum": "28",
    "neighbourhood": "Sant Gervasi - la Bonanova",
    "district": "Sarrià-Sant Gervasi",
    "zipcode": "8022",
    "longLongitude": 41.4131,
    "longLatitude": 2.13052,
    "density": 1
  },
  {
    "id": 437,
    "name": "Museu d'Autòmats del Tibidabo",
    "street": "Pl Tibidabo",
    "streetNum": "3",
    "neighbourhood": "Vallvidrera, el Tibidabo i les Planes",
    "district": "Sarrià-Sant Gervasi",
    "zipcode": "8035",
    "longLongitude": 41.4216,
    "longLatitude": 2.11873,
    "density": 1
  },
  {
    "id": 438,
    "name": "La plaça de la Bonanova",
    "street": "Pl Bonanova",
    "streetNum": "-2147483648",
    "neighbourhood": "Sant Gervasi - la Bonanova",
    "district": "Sarrià-Sant Gervasi",
    "zipcode": "8022",
    "longLongitude": 41.4064,
    "longLatitude": 2.13418,
    "density": 1
  },
  {
    "id": 439,
    "name": "La plaça del Doctor Andreu",
    "street": "Pl Doctor Andreu",
    "streetNum": "-2147483648",
    "neighbourhood": "Sant Gervasi - la Bonanova",
    "district": "Sarrià-Sant Gervasi",
    "zipcode": "8035",
    "longLongitude": 41.4163,
    "longLatitude": 2.13142,
    "density": 1
  },
  {
    "id": 440,
    "name": "Places de Joaquim Folguera i Frederic Soler",
    "street": "Pl Joaquim Folguera",
    "streetNum": "-2147483648",
    "neighbourhood": "Sant Gervasi - la Bonanova",
    "district": "Sarrià-Sant Gervasi",
    "zipcode": "8022",
    "longLongitude": 41.4054,
    "longLatitude": 2.13892,
    "density": 1
  },
  {
    "id": 468,
    "name": "Eina - Escola de Disseny i Art",
    "street": "Pg Santa Eulàlia",
    "streetNum": "25",
    "neighbourhood": "Sarrià",
    "district": "Sarrià-Sant Gervasi",
    "zipcode": "8017",
    "longLongitude": 41.4029,
    "longLatitude": 2.11433,
    "density": 1
  },
  {
    "id": 469,
    "name": "Parròquia de Sant Gregori Taumaturg",
    "street": "Pl Sant Gregori Taumaturg",
    "streetNum": "-2147483648",
    "neighbourhood": "Sant Gervasi - Galvany",
    "district": "Sarrià-Sant Gervasi",
    "zipcode": "8021",
    "longLongitude": 41.3942,
    "longLatitude": 2.13841,
    "density": 1
  },
  {
    "id": 472,
    "name": "Centre Educatiu Jesús i Maria *Passeig Sant Gervasi",
    "street": "Pg Sant Gervasi",
    "streetNum": "15",
    "neighbourhood": "Sant Gervasi - la Bonanova",
    "district": "Sarrià-Sant Gervasi",
    "zipcode": "8022",
    "longLongitude": 41.4096,
    "longLatitude": 2.13212,
    "density": 1
  },
  {
    "id": 495,
    "name": "Cementiri Sant Gervasi",
    "street": "Camí del Cementiri de Sant Gervasi",
    "streetNum": "4",
    "neighbourhood": "Sant Gervasi - la Bonanova",
    "district": "Sarrià-Sant Gervasi",
    "zipcode": "8035",
    "longLongitude": 41.4112,
    "longLatitude": 2.12663,
    "density": 1
  },
  {
    "id": 499,
    "name": "Jardins d'Elvira Farreras Valentí",
    "street": "C Manacor",
    "streetNum": "17",
    "neighbourhood": "el Putxet i el Farró",
    "district": "Sarrià-Sant Gervasi",
    "zipcode": "8023",
    "longLongitude": 41.4075,
    "longLatitude": 2.14303,
    "density": 1
  },
  {
    "id": 519,
    "name": "Associació Sarrià Eix Comercial",
    "street": "C Canet",
    "streetNum": "20",
    "neighbourhood": "Sarrià",
    "district": "Sarrià-Sant Gervasi",
    "zipcode": "8017",
    "longLongitude": 41.3984,
    "longLatitude": 2.12276,
    "density": 1
  },
  {
    "id": 521,
    "name": "Torre de Collserola",
    "street": "Ctra Vallvidrera Tibidabo",
    "streetNum": "8",
    "neighbourhood": "Vallvidrera, el Tibidabo i les Planes",
    "district": "Sarrià-Sant Gervasi",
    "zipcode": "8017",
    "longLongitude": 41.4159,
    "longLatitude": 2.11179,
    "density": 1
  },
  {
    "id": 532,
    "name": "Parc del Castell de l'Oreneta",
    "street": "C Montevideo",
    "streetNum": "45",
    "neighbourhood": "Sarrià",
    "district": "Sarrià-Sant Gervasi",
    "zipcode": "8034",
    "longLongitude": 41.3994,
    "longLatitude": 2.1122,
    "density": 1
  },
  {
    "id": 534,
    "name": "Col·legi Oficial de Metges de Barcelona",
    "street": "Pg Bonanova",
    "streetNum": "47",
    "neighbourhood": "les Tres Torres",
    "district": "Sarrià-Sant Gervasi",
    "zipcode": "8017",
    "longLongitude": 41.4042,
    "longLatitude": 2.12934,
    "density": 1
  },
  {
    "id": 543,
    "name": "Restaurant Dos Torres",
    "street": "Via Augusta",
    "streetNum": "300",
    "neighbourhood": "les Tres Torres",
    "district": "Sarrià-Sant Gervasi",
    "zipcode": "8017",
    "longLongitude": 41.398,
    "longLatitude": 2.12871,
    "density": 1
  },
  {
    "id": 546,
    "name": "Torre Castanyer",
    "street": "Pg Sant Gervasi",
    "streetNum": "5",
    "neighbourhood": "Sant Gervasi - la Bonanova",
    "district": "Sarrià-Sant Gervasi",
    "zipcode": "8022",
    "longLongitude": 41.4078,
    "longLatitude": 2.13422,
    "density": 1
  },
  {
    "id": 553,
    "name": "Centre Cívic  Vil·la Urània",
    "street": "Carrer de Saragossa",
    "streetNum": "29",
    "neighbourhood": "el Putxet i el Farró",
    "district": "Sarrià-Sant Gervasi",
    "zipcode": "8006",
    "longLongitude": 41.4014,
    "longLatitude": 2.14982,
    "density": 2
  },
  {
    "id": 557,
    "name": "Centre Excursionista Els Blaus",
    "street": "Cornet i Mas",
    "streetNum": "15",
    "neighbourhood": "Sarrià",
    "district": "Sarrià-Sant Gervasi",
    "zipcode": "8017",
    "longLongitude": 41.3982,
    "longLatitude": 2.12362,
    "density": 1
  },
  {
    "id": 561,
    "name": "L'Estació dels FGC de Sarrià",
    "street": "C Cardenal Sentmenat",
    "streetNum": "43",
    "neighbourhood": "Sarrià",
    "district": "Sarrià-Sant Gervasi",
    "zipcode": "8017",
    "longLongitude": 41.3983,
    "longLatitude": 2.12501,
    "density": 1
  },
  {
    "id": 581,
    "name": "Jardins de Can Sentmenat",
    "street": "C Can Caralleu",
    "streetNum": "6",
    "neighbourhood": "Sarrià",
    "district": "Sarrià-Sant Gervasi",
    "zipcode": "8017",
    "longLongitude": 41.4026,
    "longLatitude": 2.1151,
    "density": 1
  },
  {
    "id": 587,
    "name": "Universitat Oberta de Catalunya",
    "street": "Av Tibidabo",
    "streetNum": "39",
    "neighbourhood": "Sant Gervasi - la Bonanova",
    "district": "Sarrià-Sant Gervasi",
    "zipcode": "8035",
    "longLongitude": 41.415,
    "longLatitude": 2.13302,
    "density": 1
  },
  {
    "id": 599,
    "name": "Parc d'Atraccions del Tibidabo",
    "street": "Plaça del Tibidabo",
    "streetNum": "3",
    "neighbourhood": "Vallvidrera, el Tibidabo i les Planes",
    "district": "Sarrià-Sant Gervasi",
    "zipcode": "8035",
    "longLongitude": 41.4216,
    "longLatitude": 2.11874,
    "density": 1
  },
  {
    "id": 601,
    "name": "Mirador Joan Sales i Vallès",
    "street": "Carrer de Can Móra",
    "streetNum": "1",
    "neighbourhood": "Sarrià",
    "district": "Sarrià-Sant Gervasi",
    "zipcode": "8034",
    "longLongitude": 41.4164,
    "longLatitude": 2.15279,
    "density": 1
  },
  {
    "id": 610,
    "name": "Edifici La Rotonda",
    "street": "Av Tibidabo",
    "streetNum": "2",
    "neighbourhood": "Sant Gervasi - la Bonanova",
    "district": "Sarrià-Sant Gervasi",
    "zipcode": "8022",
    "longLongitude": 41.4105,
    "longLatitude": 2.13702,
    "density": 1
  },
  {
    "id": 623,
    "name": "Parròquia de Maria Auxiliadora",
    "street": "Pg Sant Joan Bosco",
    "streetNum": "70",
    "neighbourhood": "les Tres Torres",
    "district": "Sarrià-Sant Gervasi",
    "zipcode": "8017",
    "longLongitude": 41.3949,
    "longLatitude": 2.12783,
    "density": 1
  },
  {
    "id": 633,
    "name": "Alberg In-Out - AJ000427",
    "street": "C Major del Rectoret",
    "streetNum": "2",
    "neighbourhood": "Vallvidrera, el Tibidabo i les Planes",
    "district": "Sarrià-Sant Gervasi",
    "zipcode": "8017",
    "longLongitude": 41.4221,
    "longLatitude": 2.10181,
    "density": 1
  },
  {
    "id": 651,
    "name": "Restaurant Bonanova",
    "street": "C Sant Gervasi de Cassoles",
    "streetNum": "103",
    "neighbourhood": "Sant Gervasi - la Bonanova",
    "district": "Sarrià-Sant Gervasi",
    "zipcode": "8022",
    "longLongitude": 41.4062,
    "longLatitude": 2.13503,
    "density": 1
  },
  {
    "id": 654,
    "name": "Facultat de Psicologia i Ciències de l'Educació i de l'Esport Blanquerna - URL",
    "street": "Císter",
    "streetNum": "34",
    "neighbourhood": "Sant Gervasi - la Bonanova",
    "district": "Sarrià-Sant Gervasi",
    "zipcode": "8022",
    "longLongitude": 41.4119,
    "longLatitude": 2.13333,
    "density": 1
  },
  {
    "id": 681,
    "name": "Parc Metropolità Collserola",
    "street": "Ctra Església",
    "streetNum": "92",
    "neighbourhood": "Vallvidrera, el Tibidabo i les Planes",
    "district": "Sarrià-Sant Gervasi",
    "zipcode": "8017",
    "longLongitude": 41.421,
    "longLatitude": 2.09959,
    "density": 1
  },
  {
    "id": 688,
    "name": "Jardins de Vil·la Cecília",
    "street": "Santa Amèlia",
    "streetNum": "1",
    "neighbourhood": "Sarrià",
    "district": "Sarrià-Sant Gervasi",
    "zipcode": "8034",
    "longLongitude": 41.3937,
    "longLatitude": 2.12196,
    "density": 1
  },
  {
    "id": 703,
    "name": "El carrer de Canet",
    "street": "C Canet",
    "streetNum": "36",
    "neighbourhood": "Sarrià",
    "district": "Sarrià-Sant Gervasi",
    "zipcode": "8017",
    "longLongitude": 41.3987,
    "longLatitude": 2.12344,
    "density": 1
  },
  {
    "id": 704,
    "name": "Dipòsit del Rei Martí",
    "street": "C Bellesguard",
    "streetNum": "14",
    "neighbourhood": "Sant Gervasi - la Bonanova",
    "district": "Sarrià-Sant Gervasi",
    "zipcode": "8022",
    "longLongitude": 41.4089,
    "longLatitude": 2.12717,
    "density": 1
  },
  {
    "id": 720,
    "name": "Carrer Sant Gervasi de Cassoles",
    "street": "C Sant Gervasi de Cassoles",
    "streetNum": "1",
    "neighbourhood": "Sant Gervasi - la Bonanova",
    "district": "Sarrià-Sant Gervasi",
    "zipcode": "8022",
    "longLongitude": 41.4042,
    "longLatitude": 2.13951,
    "density": 1
  },
  {
    "id": 721,
    "name": "El Passeig de les Aigües",
    "street": "Ctra Aigües",
    "streetNum": "211",
    "neighbourhood": "Vallvidrera, el Tibidabo i les Planes",
    "district": "Sarrià-Sant Gervasi",
    "zipcode": "8017",
    "longLongitude": 41.4142,
    "longLatitude": 2.11902,
    "density": 1
  },
  {
    "id": 722,
    "name": "L'avinguda del Tibidabo",
    "street": "Av Tibidabo",
    "streetNum": "4",
    "neighbourhood": "Sant Gervasi - la Bonanova",
    "district": "Sarrià-Sant Gervasi",
    "zipcode": "8022",
    "longLongitude": 41.4105,
    "longLatitude": 2.13702,
    "density": 1
  },
  {
    "id": 726,
    "name": "Centre Educatiu Santa Teresa - Ganduxer",
    "street": "C Ganduxer",
    "streetNum": "85",
    "neighbourhood": "les Tres Torres",
    "district": "Sarrià-Sant Gervasi",
    "zipcode": "8022",
    "longLongitude": 41.4,
    "longLatitude": 2.13358,
    "density": 1
  },
  {
    "id": 733,
    "name": "Torre Bellesguard  Gaudí - Casa Figueres",
    "street": "C Bellesguard",
    "streetNum": "16",
    "neighbourhood": "Sant Gervasi - la Bonanova",
    "district": "Sarrià-Sant Gervasi",
    "zipcode": "8022",
    "longLongitude": 41.4092,
    "longLatitude": 2.12683,
    "density": 1
  },
  {
    "id": 734,
    "name": "Funicular Vallvidrera - FGC",
    "street": "Carrer de les Alberes",
    "streetNum": "16",
    "neighbourhood": "Vallvidrera, el Tibidabo i les Planes",
    "district": "Sarrià-Sant Gervasi",
    "zipcode": "8017",
    "longLongitude": 41.4142,
    "longLatitude": 2.10595,
    "density": 1
  },
  {
    "id": 735,
    "name": "Funicular Tibidabo - Cuca de Llum",
    "street": "Plaça del Doctor Andreu",
    "streetNum": "1",
    "neighbourhood": "Sant Gervasi - la Bonanova",
    "district": "Sarrià-Sant Gervasi",
    "zipcode": "8035",
    "longLongitude": 41.4163,
    "longLatitude": 2.13141,
    "density": 1
  },
  {
    "id": 736,
    "name": "Tramvia Blau Tibidabo-TMB",
    "street": "Avinguda del Tibidabo",
    "streetNum": "2",
    "neighbourhood": "Sant Gervasi - la Bonanova",
    "district": "Sarrià-Sant Gervasi",
    "zipcode": "8022",
    "longLongitude": 41.4105,
    "longLatitude": 2.13702,
    "density": 1
  },
  {
    "id": 759,
    "name": "Religioses de la Mare de Déu de la Mercè",
    "street": "Sant Gervasi de Cassoles",
    "streetNum": "66",
    "neighbourhood": "Sant Gervasi - la Bonanova",
    "district": "Sarrià-Sant Gervasi",
    "zipcode": "8022",
    "longLongitude": 41.4059,
    "longLatitude": 2.13752,
    "density": 1
  },
  {
    "id": 764,
    "name": "Turó Park - Parc del Poeta Eduard Marquina",
    "street": "Av Pau Casals",
    "streetNum": "19",
    "neighbourhood": "Sant Gervasi - Galvany",
    "district": "Sarrià-Sant Gervasi",
    "zipcode": "8021",
    "longLongitude": 41.3941,
    "longLatitude": 2.14192,
    "density": 1
  },
  {
    "id": 765,
    "name": "Institut Français de Barcelone",
    "street": "C Moià",
    "streetNum": "8",
    "neighbourhood": "Sant Gervasi - Galvany",
    "district": "Sarrià-Sant Gervasi",
    "zipcode": "8006",
    "longLongitude": 41.3953,
    "longLatitude": 2.1518,
    "density": 2
  },
  {
    "id": 768,
    "name": "Parc Turó del Putget",
    "street": "C Manacor",
    "streetNum": "9",
    "neighbourhood": "el Putxet i el Farró",
    "district": "Sarrià-Sant Gervasi",
    "zipcode": "8023",
    "longLongitude": 41.4077,
    "longLatitude": 2.14252,
    "density": 1
  },
  {
    "id": 769,
    "name": "Parc de Monterols",
    "street": "Carrer de Muntaner",
    "streetNum": "450",
    "neighbourhood": "Sant Gervasi - Galvany",
    "district": "Sarrià-Sant Gervasi",
    "zipcode": "8006",
    "longLongitude": 41.4016,
    "longLatitude": 2.13977,
    "density": 1
  },
  {
    "id": 791,
    "name": "Club Tennis Barcino",
    "street": "Pl Narcisa Freixas",
    "streetNum": "2",
    "neighbourhood": "el Putxet i el Farró",
    "district": "Sarrià-Sant Gervasi",
    "zipcode": "8022",
    "longLongitude": 41.4083,
    "longLatitude": 2.13843,
    "density": 1
  },
  {
    "id": 795,
    "name": "Restaurant Casa Tejada",
    "street": "C Tenor Viñas",
    "streetNum": "3",
    "neighbourhood": "Sant Gervasi - Galvany",
    "district": "Sarrià-Sant Gervasi",
    "zipcode": "8021",
    "longLongitude": 41.3951,
    "longLatitude": 2.14211,
    "density": 1
  },
  {
    "id": 796,
    "name": "Restaurant Casa Trampa",
    "street": "Pl Vallvidrera",
    "streetNum": "3",
    "neighbourhood": "Vallvidrera, el Tibidabo i les Planes",
    "district": "Sarrià-Sant Gervasi",
    "zipcode": "8017",
    "longLongitude": 41.4132,
    "longLatitude": 2.10452,
    "density": 1
  },
  {
    "id": 804,
    "name": "Forn de Pa Roura Vila",
    "street": "C Calaf",
    "streetNum": "15",
    "neighbourhood": "Sant Gervasi - Galvany",
    "district": "Sarrià-Sant Gervasi",
    "zipcode": "8021",
    "longLongitude": 41.3974,
    "longLatitude": 2.14427,
    "density": 1
  },
  {
    "id": 815,
    "name": "Casa Claudi Alsina",
    "street": "Pl Lesseps",
    "streetNum": "30",
    "neighbourhood": "el Putxet i el Farró",
    "district": "Sarrià-Sant Gervasi",
    "zipcode": "8023",
    "longLongitude": 41.4062,
    "longLatitude": 2.14958,
    "density": 1
  },
  {
    "id": 822,
    "name": "Escola Superior de Disseny i d'Art Llotja",
    "street": "C Ciutat de Balaguer",
    "streetNum": "17",
    "neighbourhood": "Sant Gervasi - la Bonanova",
    "district": "Sarrià-Sant Gervasi",
    "zipcode": "8022",
    "longLongitude": 41.4026,
    "longLatitude": 2.13613,
    "density": 1
  },
  {
    "id": 825,
    "name": "Casa Muntadas",
    "street": "Av Tibidabo",
    "streetNum": "48",
    "neighbourhood": "Sant Gervasi - la Bonanova",
    "district": "Sarrià-Sant Gervasi",
    "zipcode": "8035",
    "longLongitude": 41.4153,
    "longLatitude": 2.13321,
    "density": 1
  },
  {
    "id": 831,
    "name": "Universitat Internacional de Catalunya",
    "street": "Immaculada",
    "streetNum": "22",
    "neighbourhood": "Sant Gervasi - la Bonanova",
    "district": "Sarrià-Sant Gervasi",
    "zipcode": "8017",
    "longLongitude": 41.406,
    "longLatitude": 2.12323,
    "density": 1
  },
  {
    "id": 836,
    "name": "Centre Esportiu Municipal Can Caralleu",
    "street": "Carrer dels Esports",
    "streetNum": "2",
    "neighbourhood": "Sarrià",
    "district": "Sarrià-Sant Gervasi",
    "zipcode": "8017",
    "longLongitude": 41.401,
    "longLatitude": 2.1105,
    "density": 1
  },
  {
    "id": 837,
    "name": "Parròquia de Sant Vicenç de Sarrià",
    "street": "C Rector Voltà",
    "streetNum": "5",
    "neighbourhood": "Sarrià",
    "district": "Sarrià-Sant Gervasi",
    "zipcode": "8034",
    "longLongitude": 41.3995,
    "longLatitude": 2.12111,
    "density": 1
  },
  {
    "id": 838,
    "name": "Institut Químic de Sarrià - Campus Sarrià - IQS",
    "street": "Via Augusta",
    "streetNum": "390",
    "neighbourhood": "Sarrià",
    "district": "Sarrià-Sant Gervasi",
    "zipcode": "8017",
    "longLongitude": 41.4038,
    "longLatitude": 2.11946,
    "density": 1
  },
  {
    "id": 848,
    "name": "Mercat Galvany",
    "street": "Carrer de Santaló",
    "streetNum": "65",
    "neighbourhood": "Sant Gervasi - Galvany",
    "district": "Sarrià-Sant Gervasi",
    "zipcode": "8021",
    "longLongitude": 41.3967,
    "longLatitude": 2.14368,
    "density": 1
  },
  {
    "id": 856,
    "name": "Centre Cívic Pere Pruna",
    "street": "Carrer de Ganduxer",
    "streetNum": "130",
    "neighbourhood": "Sant Gervasi - la Bonanova",
    "district": "Sarrià-Sant Gervasi",
    "zipcode": "8022",
    "longLongitude": 41.4032,
    "longLatitude": 2.13132,
    "density": 1
  },
  {
    "id": 857,
    "name": "Centre Cívic Sarrià",
    "street": "Carrer d'Eduardo Conde",
    "streetNum": "22",
    "neighbourhood": "Sarrià",
    "district": "Sarrià-Sant Gervasi",
    "zipcode": "8034",
    "longLongitude": 41.3939,
    "longLatitude": 2.12119,
    "density": 1
  },
  {
    "id": 867,
    "name": "Mercat Sarrià",
    "street": "Pg Reina Elisenda Montcada",
    "streetNum": "8",
    "neighbourhood": "Sarrià",
    "district": "Sarrià-Sant Gervasi",
    "zipcode": "8034",
    "longLongitude": 41.3998,
    "longLatitude": 2.12072,
    "density": 1
  },
  {
    "id": 871,
    "name": "Centre Cívic Vallvidrera Vázquez Montalbán",
    "street": "Carrer d'Elisa Moragas i Badia",
    "streetNum": "16",
    "neighbourhood": "Vallvidrera, el Tibidabo i les Planes",
    "district": "Sarrià-Sant Gervasi",
    "zipcode": "8017",
    "longLongitude": 41.4154,
    "longLatitude": 2.10255,
    "density": 1
  }
]