[
  {
    "id": 16,
    "name": "Casa Anoll",
    "street": "C Josep Torres",
    "streetNum": "2",
    "neighbourhood": "la Vila de Gràcia",
    "district": "Gràcia",
    "zipcode": "8012",
    "longLongitude": 41.4004,
    "longLatitude": 2.16107,
    "density": 2
  },
  {
    "id": 17,
    "name": "Casa Barangé",
    "street": "Pl Mons",
    "streetNum": "4",
    "neighbourhood": "Vallcarca i els Penitents",
    "district": "Gràcia",
    "zipcode": "8023",
    "longLongitude": 41.4134,
    "longLatitude": 2.14446,
    "density": 1
  },
  {
    "id": 25,
    "name": "Escultura Colles Sant Medir",
    "street": "Pl Trilla",
    "streetNum": "1",
    "neighbourhood": "la Vila de Gràcia",
    "district": "Gràcia",
    "zipcode": "8012",
    "longLongitude": 41.4035,
    "longLatitude": 2.15242,
    "density": 1
  },
  {
    "id": 37,
    "name": "Centre Educatiu Vedruna Gràcia Barcelona",
    "street": "C Gran de Gràcia",
    "streetNum": "234",
    "neighbourhood": "la Vila de Gràcia",
    "district": "Gràcia",
    "zipcode": "8012",
    "longLongitude": 41.4047,
    "longLatitude": 2.15142,
    "density": 1
  },
  {
    "id": 48,
    "name": "La plaça del Diamant i el refugi antiaeri",
    "street": "Pl Diamant",
    "streetNum": "2",
    "neighbourhood": "la Vila de Gràcia",
    "district": "Gràcia",
    "zipcode": "8012",
    "longLongitude": 41.4042,
    "longLatitude": 2.15613,
    "density": 1
  },
  {
    "id": 52,
    "name": "Sant Joan de Dalt",
    "street": "Pg Sant Joan",
    "streetNum": "150",
    "neighbourhood": "el Camp d'en Grassot i Gràcia Nova",
    "district": "Gràcia",
    "zipcode": "8037",
    "longLongitude": 41.4022,
    "longLatitude": 2.16641,
    "density": 1
  },
  {
    "id": 66,
    "name": "Casa Comas d' Argemir",
    "street": "Av República Argentina",
    "streetNum": "92",
    "neighbourhood": "Vallcarca i els Penitents",
    "district": "Gràcia",
    "zipcode": "8023",
    "longLongitude": 41.4108,
    "longLatitude": 2.14587,
    "density": 1
  },
  {
    "id": 67,
    "name": "Plaça de la Virreina",
    "street": "Pl Virreina",
    "streetNum": "3",
    "neighbourhood": "la Vila de Gràcia",
    "district": "Gràcia",
    "zipcode": "8024",
    "longLongitude": 41.4051,
    "longLatitude": 2.15744,
    "density": 1
  },
  {
    "id": 68,
    "name": "Plaça del Nord",
    "street": "Pl Nord",
    "streetNum": "3",
    "neighbourhood": "la Vila de Gràcia",
    "district": "Gràcia",
    "zipcode": "8024",
    "longLongitude": 41.407,
    "longLatitude": 2.15544,
    "density": 1
  },
  {
    "id": 72,
    "name": "Park Güell",
    "street": "Carrer d'Olot",
    "streetNum": "7",
    "neighbourhood": "la Salut",
    "district": "Gràcia",
    "zipcode": "8024",
    "longLongitude": 41.4135,
    "longLatitude": 2.15313,
    "density": 1
  },
  {
    "id": 80,
    "name": "Mooby Bosque Multicines",
    "street": "Rambla de Prat",
    "streetNum": "16",
    "neighbourhood": "la Vila de Gràcia",
    "district": "Gràcia",
    "zipcode": "8012",
    "longLongitude": 41.4014,
    "longLatitude": 2.15172,
    "density": 2
  },
  {
    "id": 81,
    "name": "Hospital  Sociosanitari Mutuam Güell",
    "street": "C Mare de Déu de la Salut",
    "streetNum": "49",
    "neighbourhood": "la Salut",
    "district": "Gràcia",
    "zipcode": "8024",
    "longLongitude": 41.4114,
    "longLatitude": 2.15673,
    "density": 1
  },
  {
    "id": 85,
    "name": "Casa Museu Gaudí",
    "street": "Carretera del Carmel",
    "streetNum": "23",
    "neighbourhood": "la Salut",
    "district": "Gràcia",
    "zipcode": "8024",
    "longLongitude": 41.4148,
    "longLatitude": 2.15506,
    "density": 1
  },
  {
    "id": 86,
    "name": "Club Natació Catalunya",
    "street": "Carrer d'Ana María Matute Ausejo",
    "streetNum": "25",
    "neighbourhood": "la Salut",
    "district": "Gràcia",
    "zipcode": "8024",
    "longLongitude": 41.4154,
    "longLatitude": 2.15817,
    "density": 1
  },
  {
    "id": 87,
    "name": "Club Tennis La Salut",
    "street": "Carrer de la Mare de Déu de la Salut",
    "streetNum": "75",
    "neighbourhood": "la Salut",
    "district": "Gràcia",
    "zipcode": "8024",
    "longLongitude": 41.4123,
    "longLatitude": 2.15819,
    "density": 1
  },
  {
    "id": 98,
    "name": "Can Muntaner de Dalt",
    "street": "C Olot",
    "streetNum": "1",
    "neighbourhood": "la Salut",
    "district": "Gràcia",
    "zipcode": "8024",
    "longLongitude": 41.4135,
    "longLatitude": 2.15313,
    "density": 1
  },
  {
    "id": 99,
    "name": "Can Trilla",
    "street": "C Gran de Gràcia",
    "streetNum": "177",
    "neighbourhood": "la Vila de Gràcia",
    "district": "Gràcia",
    "zipcode": "8012",
    "longLongitude": 41.4035,
    "longLatitude": 2.15193,
    "density": 1
  },
  {
    "id": 100,
    "name": "Casa Elisa Bremon d'Espina",
    "street": "C Gran de Gràcia",
    "streetNum": "61",
    "neighbourhood": "la Vila de Gràcia",
    "district": "Gràcia",
    "zipcode": "8012",
    "longLongitude": 41.3996,
    "longLatitude": 2.1556,
    "density": 2
  },
  {
    "id": 101,
    "name": "Casa Eloy Detouche",
    "street": "C Pare Laínez",
    "streetNum": "17",
    "neighbourhood": "el Camp d'en Grassot i Gràcia Nova",
    "district": "Gràcia",
    "zipcode": "8025",
    "longLongitude": 41.4067,
    "longLatitude": 2.16476,
    "density": 1
  },
  {
    "id": 102,
    "name": "Casa F. Homet",
    "street": "C Santa Magdalena",
    "streetNum": "1",
    "neighbourhood": "la Vila de Gràcia",
    "district": "Gràcia",
    "zipcode": "8012",
    "longLongitude": 41.4037,
    "longLatitude": 2.15248,
    "density": 1
  },
  {
    "id": 103,
    "name": "Casa Feliu Iglesies",
    "street": "C Gran de Gràcia",
    "streetNum": "135",
    "neighbourhood": "la Vila de Gràcia",
    "district": "Gràcia",
    "zipcode": "8012",
    "longLongitude": 41.4022,
    "longLatitude": 2.15278,
    "density": 1
  },
  {
    "id": 121,
    "name": "Associació Catalana per la Integració i el Desenvolupament Humà",
    "street": "Carrer de Siracusa",
    "streetNum": "53",
    "neighbourhood": "la Vila de Gràcia",
    "district": "Gràcia",
    "zipcode": "8012",
    "longLongitude": 41.402,
    "longLatitude": 2.16113,
    "density": 2
  },
  {
    "id": 129,
    "name": "Casa Josep Castelló",
    "street": "C Sors",
    "streetNum": "23",
    "neighbourhood": "la Vila de Gràcia",
    "district": "Gràcia",
    "zipcode": "8024",
    "longLongitude": 41.4092,
    "longLatitude": 2.15833,
    "density": 1
  },
  {
    "id": 130,
    "name": "Casa Martí Trias i Domènech",
    "street": "C Olot",
    "streetNum": "5",
    "neighbourhood": "la Salut",
    "district": "Gràcia",
    "zipcode": "8024",
    "longLongitude": 41.4135,
    "longLatitude": 2.15313,
    "density": 1
  },
  {
    "id": 131,
    "name": "Casa Rosa Alemany",
    "street": "Av República Argentina",
    "streetNum": "6",
    "neighbourhood": "Vallcarca i els Penitents",
    "district": "Gràcia",
    "zipcode": "8023",
    "longLongitude": 41.4074,
    "longLatitude": 2.14863,
    "density": 1
  },
  {
    "id": 132,
    "name": "Casa Serès",
    "street": "C Verdi",
    "streetNum": "39",
    "neighbourhood": "la Vila de Gràcia",
    "district": "Gràcia",
    "zipcode": "8012",
    "longLongitude": 41.404,
    "longLatitude": 2.15663,
    "density": 1
  },
  {
    "id": 133,
    "name": "Conjunt de Cases al Carrer Francisco Giner",
    "street": "C Francisco Giner",
    "streetNum": "16",
    "neighbourhood": "la Vila de Gràcia",
    "district": "Gràcia",
    "zipcode": "8012",
    "longLongitude": 41.3989,
    "longLatitude": 2.15947,
    "density": 3
  },
  {
    "id": 134,
    "name": "Cases Manuel Raventós",
    "street": "Rbla Prat",
    "streetNum": "13",
    "neighbourhood": "la Vila de Gràcia",
    "district": "Gràcia",
    "zipcode": "8012",
    "longLongitude": 41.4014,
    "longLatitude": 2.15203,
    "density": 2
  },
  {
    "id": 135,
    "name": "Edifici J. Artigas",
    "street": "C Martínez de la Rosa",
    "streetNum": "34",
    "neighbourhood": "la Vila de Gràcia",
    "district": "Gràcia",
    "zipcode": "8012",
    "longLongitude": 41.3999,
    "longLatitude": 2.15917,
    "density": 2
  },
  {
    "id": 162,
    "name": "Plaça del Sol",
    "street": "Pl Sol",
    "streetNum": "6",
    "neighbourhood": "la Vila de Gràcia",
    "district": "Gràcia",
    "zipcode": "8012",
    "longLongitude": 41.4016,
    "longLatitude": 2.15667,
    "density": 2
  },
  {
    "id": 167,
    "name": "Centre de Cultura Popular La Violeta de Gràcia",
    "street": "C Maspons",
    "streetNum": "6",
    "neighbourhood": "la Vila de Gràcia",
    "district": "Gràcia",
    "zipcode": "8012",
    "longLongitude": 41.401,
    "longLatitude": 2.15621,
    "density": 2
  },
  {
    "id": 177,
    "name": "Conjunt de Torretes al carrer Verdi",
    "street": "C Verdi",
    "streetNum": "144",
    "neighbourhood": "la Vila de Gràcia",
    "district": "Gràcia",
    "zipcode": "8012",
    "longLongitude": 41.4075,
    "longLatitude": 2.15335,
    "density": 1
  },
  {
    "id": 189,
    "name": "Parròquia de l'Immaculat Cor de Maria",
    "street": "C Sant Antoni Maria Claret",
    "streetNum": "45",
    "neighbourhood": "el Camp d'en Grassot i Gràcia Nova",
    "district": "Gràcia",
    "zipcode": "8025",
    "longLongitude": 41.406,
    "longLatitude": 2.16659,
    "density": 1
  },
  {
    "id": 199,
    "name": "Institut Vila de Gràcia",
    "street": "C Riera de Sant Miquel",
    "streetNum": "58",
    "neighbourhood": "la Vila de Gràcia",
    "district": "Gràcia",
    "zipcode": "8006",
    "longLongitude": 41.3986,
    "longLatitude": 2.15537,
    "density": 2
  },
  {
    "id": 201,
    "name": "Casa Joan Matas",
    "street": "C Francisco Giner",
    "streetNum": "32",
    "neighbourhood": "la Vila de Gràcia",
    "district": "Gràcia",
    "zipcode": "8012",
    "longLongitude": 41.3994,
    "longLatitude": 2.15896,
    "density": 3
  },
  {
    "id": 202,
    "name": "Casa José de Ugarte",
    "street": "C Santa Perpètua",
    "streetNum": "15",
    "neighbourhood": "la Vila de Gràcia",
    "district": "Gràcia",
    "zipcode": "8012",
    "longLongitude": 41.4079,
    "longLatitude": 2.15237,
    "density": 1
  },
  {
    "id": 203,
    "name": "Casa Víctor Conill",
    "street": "C Gran de Gràcia",
    "streetNum": "1",
    "neighbourhood": "la Vila de Gràcia",
    "district": "Gràcia",
    "zipcode": "8012",
    "longLongitude": 41.3978,
    "longLatitude": 2.15735,
    "density": 3
  },
  {
    "id": 204,
    "name": "Cases Leandre Vidal",
    "street": "C Fraternitat",
    "streetNum": "35",
    "neighbourhood": "la Vila de Gràcia",
    "district": "Gràcia",
    "zipcode": "8012",
    "longLongitude": 41.4009,
    "longLatitude": 2.16011,
    "density": 2
  },
  {
    "id": 213,
    "name": "Església de Nostra Senyora de Pompeia",
    "street": "Av Diagonal",
    "streetNum": "450",
    "neighbourhood": "la Vila de Gràcia",
    "district": "Gràcia",
    "zipcode": "8006",
    "longLongitude": 41.3965,
    "longLatitude": 2.15815,
    "density": 2
  },
  {
    "id": 231,
    "name": "Casa Madurell",
    "street": "C Torrijos",
    "streetNum": "14",
    "neighbourhood": "la Vila de Gràcia",
    "district": "Gràcia",
    "zipcode": "8012",
    "longLongitude": 41.4028,
    "longLatitude": 2.15961,
    "density": 2
  },
  {
    "id": 232,
    "name": "Casa Vilabella",
    "street": "C Astúries",
    "streetNum": "65",
    "neighbourhood": "la Vila de Gràcia",
    "district": "Gràcia",
    "zipcode": "8012",
    "longLongitude": 41.4042,
    "longLatitude": 2.15551,
    "density": 1
  },
  {
    "id": 233,
    "name": "Viaducte de Vallcarca",
    "street": "C Gomis",
    "streetNum": "2",
    "neighbourhood": "Vallcarca i els Penitents",
    "district": "Gràcia",
    "zipcode": "8023",
    "longLongitude": 41.4118,
    "longLatitude": 2.14327,
    "density": 1
  },
  {
    "id": 235,
    "name": "Edifici d'habitatges Gran de Gràcia 67",
    "street": "C Gran de Gràcia",
    "streetNum": "67",
    "neighbourhood": "la Vila de Gràcia",
    "district": "Gràcia",
    "zipcode": "8012",
    "longLongitude": 41.3999,
    "longLatitude": 2.1553,
    "density": 2
  },
  {
    "id": 236,
    "name": "Casa Francesc Cama",
    "street": "C Gran de Gràcia",
    "streetNum": "77",
    "neighbourhood": "la Vila de Gràcia",
    "district": "Gràcia",
    "zipcode": "8012",
    "longLongitude": 41.4003,
    "longLatitude": 2.15486,
    "density": 2
  },
  {
    "id": 242,
    "name": "Edifici Modernista Francisco Giner 47",
    "street": "C Francisco Giner",
    "streetNum": "47",
    "neighbourhood": "la Vila de Gràcia",
    "district": "Gràcia",
    "zipcode": "8012",
    "longLongitude": 41.3998,
    "longLatitude": 2.1584,
    "density": 3
  },
  {
    "id": 243,
    "name": "Edifici d'Habitatges Gran de Gràcia 138",
    "street": "C Gran de Gràcia",
    "streetNum": "138",
    "neighbourhood": "la Vila de Gràcia",
    "district": "Gràcia",
    "zipcode": "8012",
    "longLongitude": 41.4017,
    "longLatitude": 2.15348,
    "density": 1
  },
  {
    "id": 244,
    "name": "Ermita de la Mare de Déu de la Salut",
    "street": "C Mare de Déu de la Salut",
    "streetNum": "55",
    "neighbourhood": "la Salut",
    "district": "Gràcia",
    "zipcode": "8024",
    "longLongitude": 41.4115,
    "longLatitude": 2.15711,
    "density": 1
  },
  {
    "id": 245,
    "name": "Fàbrica Artés",
    "street": "C Venus",
    "streetNum": "8",
    "neighbourhood": "la Vila de Gràcia",
    "district": "Gràcia",
    "zipcode": "8012",
    "longLongitude": 41.3996,
    "longLatitude": 2.16228,
    "density": 3
  },
  {
    "id": 247,
    "name": "La plaça de John Lennon",
    "street": "Pl John Lennon",
    "streetNum": "-2147483648",
    "neighbourhood": "la Vila de Gràcia",
    "district": "Gràcia",
    "zipcode": "8012",
    "longLongitude": 41.4029,
    "longLatitude": 2.16153,
    "density": 2
  },
  {
    "id": 261,
    "name": "La plaça de Nicolás Salmerón",
    "street": "Pla Nicolás Salmerón",
    "streetNum": "-2147483648",
    "neighbourhood": "la Vila de Gràcia",
    "district": "Gràcia",
    "zipcode": "8012",
    "longLongitude": 41.398,
    "longLatitude": 2.15748,
    "density": 3
  },
  {
    "id": 263,
    "name": "Torre de l'Aigua",
    "street": "C Santa Àgata",
    "streetNum": "6",
    "neighbourhood": "la Vila de Gràcia",
    "district": "Gràcia",
    "zipcode": "8012",
    "longLongitude": 41.4041,
    "longLatitude": 2.15223,
    "density": 1
  },
  {
    "id": 276,
    "name": "Fundació Orfeó Gracienc",
    "street": "C Astúries",
    "streetNum": "83",
    "neighbourhood": "la Vila de Gràcia",
    "district": "Gràcia",
    "zipcode": "8024",
    "longLongitude": 41.4047,
    "longLatitude": 2.15642,
    "density": 1
  },
  {
    "id": 277,
    "name": "Parròquia de Sant Joan de Gràcia",
    "street": "C Santa Creu",
    "streetNum": "2",
    "neighbourhood": "la Vila de Gràcia",
    "district": "Gràcia",
    "zipcode": "8024",
    "longLongitude": 41.4053,
    "longLatitude": 2.15671,
    "density": 1
  },
  {
    "id": 290,
    "name": "Plaça de Rovira i Trias",
    "street": "Pl Rovira i Trias",
    "streetNum": "3",
    "neighbourhood": "la Vila de Gràcia",
    "district": "Gràcia",
    "zipcode": "8024",
    "longLongitude": 41.4075,
    "longLatitude": 2.15861,
    "density": 2
  },
  {
    "id": 291,
    "name": "Plaça de la Revolució",
    "street": "Pl Revolució de Setembre 1868",
    "streetNum": "4",
    "neighbourhood": "la Vila de Gràcia",
    "district": "Gràcia",
    "zipcode": "8012",
    "longLongitude": 41.4028,
    "longLatitude": 2.15826,
    "density": 2
  },
  {
    "id": 312,
    "name": "Residència Assistencial per a Gent Gran Refugi d'Obreres",
    "street": "Av República Argentina",
    "streetNum": "16",
    "neighbourhood": "Vallcarca i els Penitents",
    "district": "Gràcia",
    "zipcode": "8023",
    "longLongitude": 41.4083,
    "longLatitude": 2.14821,
    "density": 2
  },
  {
    "id": 337,
    "name": "La plaça del Poble Romaní",
    "street": "Plaça del Poble Gitano",
    "streetNum": "-2147483648",
    "neighbourhood": "la Vila de Gràcia",
    "district": "Gràcia",
    "zipcode": "8012",
    "longLongitude": 41.4018,
    "longLatitude": 2.16069,
    "density": 2
  },
  {
    "id": 338,
    "name": "Villa Esperanza",
    "street": "Ptge Isabel",
    "streetNum": "8",
    "neighbourhood": "Vallcarca i els Penitents",
    "district": "Gràcia",
    "zipcode": "8023",
    "longLongitude": 41.4136,
    "longLatitude": 2.14638,
    "density": 1
  },
  {
    "id": 348,
    "name": "Casa Manuel Colchero",
    "street": "C Camèlies",
    "streetNum": "34",
    "neighbourhood": "el Camp d'en Grassot i Gràcia Nova",
    "district": "Gràcia",
    "zipcode": "8024",
    "longLongitude": 41.4116,
    "longLatitude": 2.16023,
    "density": 1
  },
  {
    "id": 349,
    "name": "Casa Miquel Cal Millàs",
    "street": "C Vallfogona",
    "streetNum": "18",
    "neighbourhood": "la Vila de Gràcia",
    "district": "Gràcia",
    "zipcode": "8012",
    "longLongitude": 41.4031,
    "longLatitude": 2.15756,
    "density": 2
  },
  {
    "id": 350,
    "name": "Casa Pere Jaqués",
    "street": "C Olot",
    "streetNum": "2",
    "neighbourhood": "la Salut",
    "district": "Gràcia",
    "zipcode": "8024",
    "longLongitude": 41.4128,
    "longLatitude": 2.15238,
    "density": 1
  },
  {
    "id": 352,
    "name": "Cases Antoni Par",
    "street": "C Gran de Gràcia",
    "streetNum": "262",
    "neighbourhood": "la Vila de Gràcia",
    "district": "Gràcia",
    "zipcode": "8012",
    "longLongitude": 41.4057,
    "longLatitude": 2.15063,
    "density": 2
  },
  {
    "id": 353,
    "name": "Cases de menestrals",
    "street": "C Tordera",
    "streetNum": "14",
    "neighbourhood": "la Vila de Gràcia",
    "district": "Gràcia",
    "zipcode": "8012",
    "longLongitude": 41.4008,
    "longLatitude": 2.16047,
    "density": 2
  },
  {
    "id": 354,
    "name": "Cases Folguera",
    "street": "Trav Gràcia",
    "streetNum": "184",
    "neighbourhood": "la Vila de Gràcia",
    "district": "Gràcia",
    "zipcode": "8012",
    "longLongitude": 41.4019,
    "longLatitude": 2.15886,
    "density": 2
  },
  {
    "id": 355,
    "name": "Edifici Modernista Avinguda República Argentina 28",
    "street": "Av República Argentina",
    "streetNum": "28",
    "neighbourhood": "Vallcarca i els Penitents",
    "district": "Gràcia",
    "zipcode": "8023",
    "longLongitude": 41.4085,
    "longLatitude": 2.14742,
    "density": 2
  },
  {
    "id": 358,
    "name": "El carrer de Bonavista",
    "street": "C Bonavista",
    "streetNum": "1",
    "neighbourhood": "la Vila de Gràcia",
    "district": "Gràcia",
    "zipcode": "8012",
    "longLongitude": 41.3977,
    "longLatitude": 2.15871,
    "density": 3
  },
  {
    "id": 359,
    "name": "El Vapor Nou",
    "street": "Plaça del Poble Gitano",
    "streetNum": "-2147483648",
    "neighbourhood": "la Vila de Gràcia",
    "district": "Gràcia",
    "zipcode": "8012",
    "longLongitude": 41.4018,
    "longLatitude": 2.16069,
    "density": 2
  },
  {
    "id": 360,
    "name": "Kasa de la Muntanya (KM)",
    "street": "Av Santuari St Josep Muntanya",
    "streetNum": "19",
    "neighbourhood": "la Salut",
    "district": "Gràcia",
    "zipcode": "8024",
    "longLongitude": 41.4104,
    "longLatitude": 2.1542,
    "density": 1
  },
  {
    "id": 363,
    "name": "Casa Josep Barnoles - La del Mico i el Gos",
    "street": "C Camèlies",
    "streetNum": "40",
    "neighbourhood": "el Camp d'en Grassot i Gràcia Nova",
    "district": "Gràcia",
    "zipcode": "8024",
    "longLongitude": 41.4117,
    "longLatitude": 2.1604,
    "density": 1
  },
  {
    "id": 364,
    "name": "La rambla del Prat",
    "street": "Rbla Prat",
    "streetNum": "1",
    "neighbourhood": "la Vila de Gràcia",
    "district": "Gràcia",
    "zipcode": "8012",
    "longLongitude": 41.4019,
    "longLatitude": 2.15277,
    "density": 1
  },
  {
    "id": 365,
    "name": "Masoveria de la Virreina",
    "street": "C Sant Lluís",
    "streetNum": "1",
    "neighbourhood": "la Vila de Gràcia",
    "district": "Gràcia",
    "zipcode": "8012",
    "longLongitude": 41.4042,
    "longLatitude": 2.15821,
    "density": 1
  },
  {
    "id": 383,
    "name": "Biblioteca Jaume Fuster",
    "street": "Plaça de Lesseps",
    "streetNum": "20",
    "neighbourhood": "Vallcarca i els Penitents",
    "district": "Gràcia",
    "zipcode": "8023",
    "longLongitude": 41.4075,
    "longLatitude": 2.14978,
    "density": 1
  },
  {
    "id": 396,
    "name": "Associació de Comerciants del Carrer Gran de Gràcia",
    "street": "C Gran de Gràcia",
    "streetNum": "134",
    "neighbourhood": "la Vila de Gràcia",
    "district": "Gràcia",
    "zipcode": "8012",
    "longLongitude": 41.4016,
    "longLatitude": 2.15357,
    "density": 1
  },
  {
    "id": 429,
    "name": "Oratori de Sant Felip Neri *Gràcia",
    "street": "C Sol",
    "streetNum": "8",
    "neighbourhood": "la Vila de Gràcia",
    "district": "Gràcia",
    "zipcode": "8012",
    "longLongitude": 41.402,
    "longLatitude": 2.15569,
    "density": 2
  },
  {
    "id": 434,
    "name": "Jardins Mestre Balcells",
    "street": "C Sant Salvador",
    "streetNum": "49",
    "neighbourhood": "la Vila de Gràcia",
    "district": "Gràcia",
    "zipcode": "8024",
    "longLongitude": 41.4074,
    "longLatitude": 2.15403,
    "density": 1
  },
  {
    "id": 457,
    "name": "Parròquia de Santa Teresa de l'Infant Jesús",
    "street": "Via Augusta",
    "streetNum": "68",
    "neighbourhood": "la Vila de Gràcia",
    "district": "Gràcia",
    "zipcode": "8006",
    "longLongitude": 41.4005,
    "longLatitude": 2.15181,
    "density": 2
  },
  {
    "id": 460,
    "name": "Casa Bonaventura Ferrer",
    "street": "Pg Gràcia",
    "streetNum": "113",
    "neighbourhood": "la Vila de Gràcia",
    "district": "Gràcia",
    "zipcode": "8008",
    "longLongitude": 41.397,
    "longLatitude": 2.15848,
    "density": 3
  },
  {
    "id": 465,
    "name": "Finca Sansalvador",
    "street": "Pg Mare de Déu del Coll",
    "streetNum": "79",
    "neighbourhood": "el Coll",
    "district": "Gràcia",
    "zipcode": "8023",
    "longLongitude": 41.4189,
    "longLatitude": 2.14836,
    "density": 1
  },
  {
    "id": 466,
    "name": "Habitatge Classicista Providència 79",
    "street": "C Providència",
    "streetNum": "79",
    "neighbourhood": "la Vila de Gràcia",
    "district": "Gràcia",
    "zipcode": "8024",
    "longLongitude": 41.4082,
    "longLatitude": 2.15939,
    "density": 2
  },
  {
    "id": 471,
    "name": "Sala Lliure de Gràcia",
    "street": "C Montseny",
    "streetNum": "47",
    "neighbourhood": "la Vila de Gràcia",
    "district": "Gràcia",
    "zipcode": "8012",
    "longLongitude": 41.4028,
    "longLatitude": 2.15603,
    "density": 1
  },
  {
    "id": 479,
    "name": "La plaça de la Vila de Gràcia",
    "street": "Pl Vila de Gràcia",
    "streetNum": "3",
    "neighbourhood": "la Vila de Gràcia",
    "district": "Gràcia",
    "zipcode": "8012",
    "longLongitude": 41.4004,
    "longLatitude": 2.15753,
    "density": 2
  },
  {
    "id": 491,
    "name": "Escultura Josep Anselm Clavé",
    "street": "Pg Sant Joan",
    "streetNum": "198",
    "neighbourhood": "el Camp d'en Grassot i Gràcia Nova",
    "district": "Gràcia",
    "zipcode": "8037",
    "longLongitude": 41.4041,
    "longLatitude": 2.16387,
    "density": 1
  },
  {
    "id": 509,
    "name": "Escola la Farigola de Vallcarca",
    "street": "C Sant Camil",
    "streetNum": "31",
    "neighbourhood": "Vallcarca i els Penitents",
    "district": "Gràcia",
    "zipcode": "8023",
    "longLongitude": 41.4138,
    "longLatitude": 2.14668,
    "density": 1
  },
  {
    "id": 510,
    "name": "Església del Reial Santuari de Sant Josep de la Muntanya",
    "street": "Av Santuari St Josep Muntanya",
    "streetNum": "25",
    "neighbourhood": "la Salut",
    "district": "Gràcia",
    "zipcode": "8024",
    "longLongitude": 41.4104,
    "longLatitude": 2.1542,
    "density": 1
  },
  {
    "id": 513,
    "name": "Font Hércules",
    "street": "Pg Sant Joan",
    "streetNum": "152",
    "neighbourhood": "el Camp d'en Grassot i Gràcia Nova",
    "district": "Gràcia",
    "zipcode": "8037",
    "longLongitude": 41.4022,
    "longLatitude": 2.16633,
    "density": 1
  },
  {
    "id": 535,
    "name": "Edifici Puiggròs",
    "street": "C Martínez de la Rosa",
    "streetNum": "27",
    "neighbourhood": "la Vila de Gràcia",
    "district": "Gràcia",
    "zipcode": "8012",
    "longLongitude": 41.3997,
    "longLatitude": 2.15926,
    "density": 2
  },
  {
    "id": 544,
    "name": "Espai Jove La Fontana",
    "street": "C Gran de Gràcia",
    "streetNum": "190",
    "neighbourhood": "la Vila de Gràcia",
    "district": "Gràcia",
    "zipcode": "8012",
    "longLongitude": 41.4033,
    "longLatitude": 2.1528,
    "density": 1
  },
  {
    "id": 564,
    "name": "Casa Vilaró",
    "street": "Av Coll del Portell",
    "streetNum": "43",
    "neighbourhood": "la Salut",
    "district": "Gràcia",
    "zipcode": "8024",
    "longLongitude": 41.4114,
    "longLatitude": 2.15143,
    "density": 1
  },
  {
    "id": 566,
    "name": "Centre Cívic El Coll - La Bruguera",
    "street": "Carrer de l'Aldea",
    "streetNum": "15",
    "neighbourhood": "el Coll",
    "district": "Gràcia",
    "zipcode": "8023",
    "longLongitude": 41.4186,
    "longLatitude": 2.14992,
    "density": 1
  },
  {
    "id": 571,
    "name": "La plaça de Lesseps",
    "street": "Pl Lesseps",
    "streetNum": "18",
    "neighbourhood": "la Vila de Gràcia",
    "district": "Gràcia",
    "zipcode": "8023",
    "longLongitude": 41.4077,
    "longLatitude": 2.15109,
    "density": 1
  },
  {
    "id": 578,
    "name": "Jardinets de Salvador Espriu",
    "street": "Pg Gràcia",
    "streetNum": "118",
    "neighbourhood": "la Vila de Gràcia",
    "district": "Gràcia",
    "zipcode": "8008",
    "longLongitude": 41.3974,
    "longLatitude": 2.159,
    "density": 3
  },
  {
    "id": 602,
    "name": "Casa Gustà",
    "street": "C Ca l'Alegre de Dalt",
    "streetNum": "72",
    "neighbourhood": "el Camp d'en Grassot i Gràcia Nova",
    "district": "Gràcia",
    "zipcode": "8024",
    "longLongitude": 41.4104,
    "longLatitude": 2.16006,
    "density": 1
  },
  {
    "id": 603,
    "name": "Casa Rubinat",
    "street": "C Or",
    "streetNum": "44",
    "neighbourhood": "la Vila de Gràcia",
    "district": "Gràcia",
    "zipcode": "8012",
    "longLongitude": 41.4049,
    "longLatitude": 2.15772,
    "density": 1
  },
  {
    "id": 604,
    "name": "Casa Tomàs Valls",
    "street": "C Mare de Déu de la Salut",
    "streetNum": "31",
    "neighbourhood": "la Salut",
    "district": "Gràcia",
    "zipcode": "8024",
    "longLongitude": 41.411,
    "longLatitude": 2.15605,
    "density": 1
  },
  {
    "id": 606,
    "name": "Hotel Casa Fuster - HB-004219",
    "street": "Pg Gràcia",
    "streetNum": "132",
    "neighbourhood": "la Vila de Gràcia",
    "district": "Gràcia",
    "zipcode": "8008",
    "longLongitude": 41.398,
    "longLatitude": 2.15803,
    "density": 3
  },
  {
    "id": 613,
    "name": "Edifici Modernista Riera de Sant Miquel 44",
    "street": "C Riera de Sant Miquel",
    "streetNum": "44",
    "neighbourhood": "la Vila de Gràcia",
    "district": "Gràcia",
    "zipcode": "8006",
    "longLongitude": 41.3982,
    "longLatitude": 2.15627,
    "density": 2
  },
  {
    "id": 614,
    "name": "Edifici de La Caixa de Barcelona",
    "street": "C Gran de Gràcia",
    "streetNum": "18",
    "neighbourhood": "la Vila de Gràcia",
    "district": "Gràcia",
    "zipcode": "8012",
    "longLongitude": 41.3985,
    "longLatitude": 2.15728,
    "density": 3
  },
  {
    "id": 615,
    "name": "Metro Fontana",
    "street": "C Gran de Gràcia",
    "streetNum": "170",
    "neighbourhood": "la Vila de Gràcia",
    "district": "Gràcia",
    "zipcode": "8012",
    "longLongitude": 41.4026,
    "longLatitude": 2.15271,
    "density": 1
  },
  {
    "id": 616,
    "name": "La plaça d'en Joanic",
    "street": "Pl Joanic",
    "streetNum": "-2147483648",
    "neighbourhood": "la Vila de Gràcia",
    "district": "Gràcia",
    "zipcode": "8024",
    "longLongitude": 41.4053,
    "longLatitude": 2.16225,
    "density": 1
  },
  {
    "id": 629,
    "name": "Casa Queralt",
    "street": "C Pineda",
    "streetNum": "12",
    "neighbourhood": "el Coll",
    "district": "Gràcia",
    "zipcode": "8023",
    "longLongitude": 41.4193,
    "longLatitude": 2.14793,
    "density": 1
  },
  {
    "id": 649,
    "name": "Escola Josep Maria Jujol",
    "street": "C Riera de Sant Miquel",
    "streetNum": "39",
    "neighbourhood": "la Vila de Gràcia",
    "district": "Gràcia",
    "zipcode": "8006",
    "longLongitude": 41.3982,
    "longLatitude": 2.1559,
    "density": 2
  },
  {
    "id": 662,
    "name": "La vila de Gràcia",
    "street": "Pl Virreina",
    "streetNum": "2",
    "neighbourhood": "la Vila de Gràcia",
    "district": "Gràcia",
    "zipcode": "8024",
    "longLongitude": 41.405,
    "longLatitude": 2.15752,
    "density": 1
  },
  {
    "id": 668,
    "name": "Escola Superior de Disseny IED Barcelona",
    "street": "Carrer de Biada",
    "streetNum": "11",
    "neighbourhood": "la Vila de Gràcia",
    "district": "Gràcia",
    "zipcode": "8012",
    "longLongitude": 41.4054,
    "longLatitude": 2.15498,
    "density": 1
  },
  {
    "id": 670,
    "name": "Escultura Fray Pedro Ponce de León",
    "street": "Pg Sant Joan",
    "streetNum": "210",
    "neighbourhood": "el Camp d'en Grassot i Gràcia Nova",
    "district": "Gràcia",
    "zipcode": "8037",
    "longLongitude": 41.4044,
    "longLatitude": 2.16301,
    "density": 1
  },
  {
    "id": 674,
    "name": "Can Tusquets",
    "street": "Av Santuari St Josep Muntanya",
    "streetNum": "1",
    "neighbourhood": "la Salut",
    "district": "Gràcia",
    "zipcode": "8024",
    "longLongitude": 41.4104,
    "longLatitude": 2.1542,
    "density": 1
  },
  {
    "id": 675,
    "name": "Casa Agustí Trulla",
    "street": "C Berga",
    "streetNum": "22",
    "neighbourhood": "la Vila de Gràcia",
    "district": "Gràcia",
    "zipcode": "8012",
    "longLongitude": 41.4007,
    "longLatitude": 2.15299,
    "density": 2
  },
  {
    "id": 676,
    "name": "Casa Castellet",
    "street": "C Torrijos",
    "streetNum": "26",
    "neighbourhood": "la Vila de Gràcia",
    "district": "Gràcia",
    "zipcode": "8012",
    "longLongitude": 41.4032,
    "longLatitude": 2.15912,
    "density": 2
  },
  {
    "id": 677,
    "name": "Casa Concepció i Casa Comelles",
    "street": "C Astúries",
    "streetNum": "26",
    "neighbourhood": "la Vila de Gràcia",
    "district": "Gràcia",
    "zipcode": "8012",
    "longLongitude": 41.4032,
    "longLatitude": 2.15421,
    "density": 1
  },
  {
    "id": 678,
    "name": "Casa Cortina",
    "street": "Av República Argentina",
    "streetNum": "82",
    "neighbourhood": "Vallcarca i els Penitents",
    "district": "Gràcia",
    "zipcode": "8023",
    "longLongitude": 41.4102,
    "longLatitude": 2.14606,
    "density": 1
  },
  {
    "id": 679,
    "name": "Casa Enric Cera",
    "street": "C Or",
    "streetNum": "38",
    "neighbourhood": "la Vila de Gràcia",
    "district": "Gràcia",
    "zipcode": "8012",
    "longLongitude": 41.4047,
    "longLatitude": 2.15738,
    "density": 1
  },
  {
    "id": 680,
    "name": "Casa Girona i Cuyàs",
    "street": "C Gran de Gràcia",
    "streetNum": "6",
    "neighbourhood": "la Vila de Gràcia",
    "district": "Gràcia",
    "zipcode": "8012",
    "longLongitude": 41.3982,
    "longLatitude": 2.1576,
    "density": 3
  },
  {
    "id": 689,
    "name": "Club Esportiu Europa",
    "street": "Carrer de Pau Alsina",
    "streetNum": "138",
    "neighbourhood": "la Salut",
    "district": "Gràcia",
    "zipcode": "8024",
    "longLongitude": 41.412,
    "longLatitude": 2.16042,
    "density": 1
  },
  {
    "id": 692,
    "name": "Plaça de les Dones del 36",
    "street": "Pl Dones del 36",
    "streetNum": "1",
    "neighbourhood": "la Vila de Gràcia",
    "district": "Gràcia",
    "zipcode": "8012",
    "longLongitude": 41.4045,
    "longLatitude": 2.15365,
    "density": 1
  },
  {
    "id": 716,
    "name": "La plaça del Raspall",
    "street": "Pl Raspall",
    "streetNum": "-2147483648",
    "neighbourhood": "la Vila de Gràcia",
    "district": "Gràcia",
    "zipcode": "8012",
    "longLongitude": 41.4013,
    "longLatitude": 2.1607,
    "density": 2
  },
  {
    "id": 718,
    "name": "Torre de Sant Jordi",
    "street": "C Sant Eudald",
    "streetNum": "11",
    "neighbourhood": "el Coll",
    "district": "Gràcia",
    "zipcode": "8023",
    "longLongitude": 41.4139,
    "longLatitude": 2.14554,
    "density": 1
  },
  {
    "id": 719,
    "name": "Villa Conchita o Casa dels Metges",
    "street": "Pg Mare de Déu del Coll",
    "streetNum": "81",
    "neighbourhood": "el Coll",
    "district": "Gràcia",
    "zipcode": "8023",
    "longLongitude": 41.4192,
    "longLatitude": 2.14848,
    "density": 1
  },
  {
    "id": 731,
    "name": "Parròquia de la Mare de Déu del Coll",
    "street": "C Santuari",
    "streetNum": "30",
    "neighbourhood": "el Coll",
    "district": "Gràcia",
    "zipcode": "8032",
    "longLongitude": 41.4201,
    "longLatitude": 2.15132,
    "density": 1
  },
  {
    "id": 746,
    "name": "Parròquia de la Verge de Gràcia i Sant Josep",
    "street": "Pl Lesseps",
    "streetNum": "25",
    "neighbourhood": "Vallcarca i els Penitents",
    "district": "Gràcia",
    "zipcode": "8023",
    "longLongitude": 41.4066,
    "longLatitude": 2.14894,
    "density": 1
  },
  {
    "id": 753,
    "name": "Parc de la Creueta del Coll",
    "street": "Pg Mare de Déu del Coll",
    "streetNum": "77",
    "neighbourhood": "el Coll",
    "district": "Gràcia",
    "zipcode": "8023",
    "longLongitude": 41.4193,
    "longLatitude": 2.14625,
    "density": 1
  },
  {
    "id": 755,
    "name": "Centre Moral i Instructiu de Gràcia",
    "street": "Carrer de Ros de Olano",
    "streetNum": "9",
    "neighbourhood": "la Vila de Gràcia",
    "district": "Gràcia",
    "zipcode": "8012",
    "longLongitude": 41.4011,
    "longLatitude": 2.15479,
    "density": 2
  },
  {
    "id": 761,
    "name": "Parròquia de Santa Maria de Gràcia",
    "street": "C Gràcia",
    "streetNum": "3",
    "neighbourhood": "la Vila de Gràcia",
    "district": "Gràcia",
    "zipcode": "8012",
    "longLongitude": 41.3983,
    "longLatitude": 2.15796,
    "density": 3
  },
  {
    "id": 770,
    "name": "Casa Marsans - Alberg Mare de Déu de Montserrat - AJ000084",
    "street": "Pg Mare de Déu del Coll",
    "streetNum": "41",
    "neighbourhood": "Vallcarca i els Penitents",
    "district": "Gràcia",
    "zipcode": "8023",
    "longLongitude": 41.4162,
    "longLatitude": 2.14687,
    "density": 1
  },
  {
    "id": 773,
    "name": "Casa Vicens",
    "street": "C Carolines",
    "streetNum": "18",
    "neighbourhood": "la Vila de Gràcia",
    "district": "Gràcia",
    "zipcode": "8012",
    "longLongitude": 41.4035,
    "longLatitude": 2.15059,
    "density": 1
  },
  {
    "id": 776,
    "name": "Parc Sanitari Pere Virgili",
    "street": "C Esteve Terradas",
    "streetNum": "30",
    "neighbourhood": "Vallcarca i els Penitents",
    "district": "Gràcia",
    "zipcode": "8023",
    "longLongitude": 41.415,
    "longLatitude": 2.14027,
    "density": 1
  },
  {
    "id": 801,
    "name": "Nou Hospital Evangèlic",
    "street": "C Camèlies",
    "streetNum": "15",
    "neighbourhood": "la Salut",
    "district": "Gràcia",
    "zipcode": "8024",
    "longLongitude": 41.4111,
    "longLatitude": 2.15892,
    "density": 1
  },
  {
    "id": 807,
    "name": "Font Pública",
    "street": "Trav Gràcia",
    "streetNum": "126",
    "neighbourhood": "la Vila de Gràcia",
    "district": "Gràcia",
    "zipcode": "8012",
    "longLongitude": 41.4002,
    "longLatitude": 2.15613,
    "density": 2
  },
  {
    "id": 811,
    "name": "Acàdemia Blancafort - Antiga Editorial Seguí",
    "street": "C Torrent de l'Olla",
    "streetNum": "9",
    "neighbourhood": "la Vila de Gràcia",
    "district": "Gràcia",
    "zipcode": "8012",
    "longLongitude": 41.3988,
    "longLatitude": 2.16091,
    "density": 3
  },
  {
    "id": 812,
    "name": "Can Pardal",
    "street": "C Montseny",
    "streetNum": "49",
    "neighbourhood": "la Vila de Gràcia",
    "district": "Gràcia",
    "zipcode": "8012",
    "longLongitude": 41.4029,
    "longLatitude": 2.15619,
    "density": 1
  },
  {
    "id": 813,
    "name": "Edifici d'habitatges Gran de Gràcia 74*76",
    "street": "C Gran de Gràcia",
    "streetNum": "74",
    "neighbourhood": "la Vila de Gràcia",
    "district": "Gràcia",
    "zipcode": "8012",
    "longLongitude": 41.4001,
    "longLatitude": 2.15538,
    "density": 2
  },
  {
    "id": 814,
    "name": "Casa Cama i Escurra",
    "street": "C Gran de Gràcia",
    "streetNum": "15",
    "neighbourhood": "la Vila de Gràcia",
    "district": "Gràcia",
    "zipcode": "8012",
    "longLongitude": 41.3983,
    "longLatitude": 2.15709,
    "density": 3
  },
  {
    "id": 816,
    "name": "Casa Eudald Obradors",
    "street": "Av República Argentina",
    "streetNum": "90",
    "neighbourhood": "Vallcarca i els Penitents",
    "district": "Gràcia",
    "zipcode": "8023",
    "longLongitude": 41.4106,
    "longLatitude": 2.14588,
    "density": 1
  },
  {
    "id": 817,
    "name": "Casa Gaspar Galí",
    "street": "C Montseny",
    "streetNum": "45",
    "neighbourhood": "la Vila de Gràcia",
    "district": "Gràcia",
    "zipcode": "8012",
    "longLongitude": 41.4027,
    "longLatitude": 2.15585,
    "density": 1
  },
  {
    "id": 853,
    "name": "Centre Cívic La Sedeta",
    "street": "Carrer de Sicília",
    "streetNum": "321",
    "neighbourhood": "el Camp d'en Grassot i Gràcia Nova",
    "district": "Gràcia",
    "zipcode": "8025",
    "longLongitude": 41.4056,
    "longLatitude": 2.16769,
    "density": 1
  },
  {
    "id": 864,
    "name": "Mercat Abaceria Central",
    "street": "Pg Sant Joan",
    "streetNum": "181",
    "neighbourhood": "el Camp d'en Grassot i Gràcia Nova",
    "district": "Gràcia",
    "zipcode": "8037",
    "longLongitude": 41.4032,
    "longLatitude": 2.16418,
    "density": 1
  },
  {
    "id": 866,
    "name": "Mercat Llibertat",
    "street": "Plaça de la Llibertat",
    "streetNum": "27",
    "neighbourhood": "la Vila de Gràcia",
    "district": "Gràcia",
    "zipcode": "8012",
    "longLongitude": 41.3997,
    "longLatitude": 2.15375,
    "density": 2
  }
]