[
  {
    "id": 20,
    "name": "Palau del Baró de Quadras",
    "street": "Av Diagonal",
    "streetNum": "373",
    "neighbourhood": "la Dreta de l'Eixample",
    "district": "Eixample",
    "zipcode": "8008",
    "longLongitude": 41.3968,
    "longLatitude": 2.16134,
    "density": 3
  },
  {
    "id": 43,
    "name": "Hospital Clínic i Provincial",
    "street": "C Villarroel",
    "streetNum": "170",
    "neighbourhood": "l'Antiga Esquerra de l'Eixample",
    "district": "Eixample",
    "zipcode": "8036",
    "longLongitude": 41.3896,
    "longLatitude": 2.15219,
    "density": 1
  },
  {
    "id": 47,
    "name": "Casa Granell *Girona",
    "street": "C Girona",
    "streetNum": "122",
    "neighbourhood": "la Dreta de l'Eixample",
    "district": "Eixample",
    "zipcode": "8009",
    "longLongitude": 41.3973,
    "longLatitude": 2.16808,
    "density": 3
  },
  {
    "id": 55,
    "name": "Palau Macaya",
    "street": "Pg Sant Joan",
    "streetNum": "108",
    "neighbourhood": "la Dreta de l'Eixample",
    "district": "Eixample",
    "zipcode": "8037",
    "longLongitude": 41.3999,
    "longLatitude": 2.16943,
    "density": 1
  },
  {
    "id": 63,
    "name": "Edifici de la Fàbrica Moritz - Espai Gastronòmic i Cultural",
    "street": "Rda Sant Antoni",
    "streetNum": "39",
    "neighbourhood": "Sant Antoni",
    "district": "Eixample",
    "zipcode": "8011",
    "longLongitude": 41.3825,
    "longLatitude": 2.16344,
    "density": 3
  },
  {
    "id": 64,
    "name": "Casa Casas-Carbó",
    "street": "Pg Gràcia",
    "streetNum": "96",
    "neighbourhood": "la Dreta de l'Eixample",
    "district": "Eixample",
    "zipcode": "8008",
    "longLongitude": 41.3955,
    "longLatitude": 2.16136,
    "density": 3
  },
  {
    "id": 65,
    "name": "Casa Antoni Costa",
    "street": "Rbla Catalunya",
    "streetNum": "122",
    "neighbourhood": "la Dreta de l'Eixample",
    "district": "Eixample",
    "zipcode": "8008",
    "longLongitude": 41.3952,
    "longLatitude": 2.15817,
    "density": 2
  },
  {
    "id": 79,
    "name": "Centre Cívic Casa Golferichs",
    "street": "Gran Via de les Corts Catalanes",
    "streetNum": "491",
    "neighbourhood": "la Nova Esquerra de l'Eixample",
    "district": "Eixample",
    "zipcode": "8015",
    "longLongitude": 41.3808,
    "longLatitude": 2.15641,
    "density": 2
  },
  {
    "id": 83,
    "name": "Palau Montaner",
    "street": "C Mallorca",
    "streetNum": "278",
    "neighbourhood": "la Dreta de l'Eixample",
    "district": "Eixample",
    "zipcode": "8037",
    "longLongitude": 41.3956,
    "longLatitude": 2.16506,
    "density": 2
  },
  {
    "id": 108,
    "name": "El Paral·lel",
    "street": "Av Paral·lel",
    "streetNum": "170",
    "neighbourhood": "Sant Antoni",
    "district": "Eixample",
    "zipcode": "8015",
    "longLongitude": 41.3752,
    "longLatitude": 2.15586,
    "density": 2
  },
  {
    "id": 127,
    "name": "Colmado Murria",
    "street": "Roger de Llúria",
    "streetNum": "85",
    "neighbourhood": "la Dreta de l'Eixample",
    "district": "Eixample",
    "zipcode": "8009",
    "longLongitude": 41.3948,
    "longLatitude": 2.16651,
    "density": 2
  },
  {
    "id": 151,
    "name": "Casa Estapé",
    "street": "Pg Sant Joan",
    "streetNum": "6",
    "neighbourhood": "el Fort Pienc",
    "district": "Eixample",
    "zipcode": "8010",
    "longLongitude": 41.3919,
    "longLatitude": 2.17997,
    "density": 2
  },
  {
    "id": 152,
    "name": "Cases Rocamora",
    "street": "Pg Gràcia",
    "streetNum": "6",
    "neighbourhood": "la Dreta de l'Eixample",
    "district": "Eixample",
    "zipcode": "8007",
    "longLongitude": 41.3889,
    "longLatitude": 2.16949,
    "density": 3
  },
  {
    "id": 154,
    "name": "Forn de la Concepció",
    "street": "C Girona",
    "streetNum": "74",
    "neighbourhood": "la Dreta de l'Eixample",
    "district": "Eixample",
    "zipcode": "8009",
    "longLongitude": 41.3953,
    "longLatitude": 2.17073,
    "density": 3
  },
  {
    "id": 172,
    "name": "Centre Cultural Teresa Pàmies",
    "street": "C Comte d'Urgell",
    "streetNum": "145",
    "neighbourhood": "la Nova Esquerra de l'Eixample",
    "district": "Eixample",
    "zipcode": "8036",
    "longLongitude": 41.3869,
    "longLatitude": 2.15205,
    "density": 2
  },
  {
    "id": 173,
    "name": "Ronda de Sant Antoni",
    "street": "Ronda de Sant Antoni",
    "streetNum": "1",
    "neighbourhood": "Sant Antoni",
    "district": "Eixample",
    "zipcode": "8011",
    "longLongitude": 41.3792,
    "longLatitude": 2.16297,
    "density": 2
  },
  {
    "id": 195,
    "name": "Centre Comercial Arenas de Barcelona",
    "street": "G.V. Corts Catalanes",
    "streetNum": "373",
    "neighbourhood": "la Nova Esquerra de l'Eixample",
    "district": "Eixample",
    "zipcode": "8015",
    "longLongitude": 41.376,
    "longLatitude": 2.14998,
    "density": 2
  },
  {
    "id": 221,
    "name": "Forn Sarret",
    "street": "C Girona",
    "streetNum": "73",
    "neighbourhood": "la Dreta de l'Eixample",
    "district": "Eixample",
    "zipcode": "8009",
    "longLongitude": 41.3948,
    "longLatitude": 2.17105,
    "density": 3
  },
  {
    "id": 222,
    "name": "Casa Dolors Calm",
    "street": "Rbla Catalunya",
    "streetNum": "54",
    "neighbourhood": "la Dreta de l'Eixample",
    "district": "Eixample",
    "zipcode": "8007",
    "longLongitude": 41.3909,
    "longLatitude": 2.16407,
    "density": 3
  },
  {
    "id": 223,
    "name": "Casa Juncosa",
    "street": "Rbla Catalunya",
    "streetNum": "78",
    "neighbourhood": "la Dreta de l'Eixample",
    "district": "Eixample",
    "zipcode": "8008",
    "longLongitude": 41.3924,
    "longLatitude": 2.16202,
    "density": 3
  },
  {
    "id": 224,
    "name": "Cases Pascual i Pons",
    "street": "Pg Gràcia",
    "streetNum": "2",
    "neighbourhood": "la Dreta de l'Eixample",
    "district": "Eixample",
    "zipcode": "8007",
    "longLongitude": 41.3884,
    "longLatitude": 2.17015,
    "density": 3
  },
  {
    "id": 230,
    "name": "Casa Serra",
    "street": "Rbla Catalunya",
    "streetNum": "126",
    "neighbourhood": "la Dreta de l'Eixample",
    "district": "Eixample",
    "zipcode": "8008",
    "longLongitude": 41.3956,
    "longLatitude": 2.15753,
    "density": 2
  },
  {
    "id": 250,
    "name": "Sant Antoni",
    "street": "C Comte d'Urgell",
    "streetNum": "7",
    "neighbourhood": "Sant Antoni",
    "district": "Eixample",
    "zipcode": "8011",
    "longLongitude": 41.3798,
    "longLatitude": 2.16151,
    "density": 2
  },
  {
    "id": 258,
    "name": "Associació d'Amics del Passeig de Gràcia",
    "street": "Carrer d'Aragó",
    "streetNum": "266",
    "neighbourhood": "la Dreta de l'Eixample",
    "district": "Eixample",
    "zipcode": "8007",
    "longLongitude": 41.3912,
    "longLatitude": 2.16393,
    "density": 3
  },
  {
    "id": 275,
    "name": "Museu del Perfum - Fundació Planas Giralt",
    "street": "Pg Gràcia",
    "streetNum": "39",
    "neighbourhood": "la Dreta de l'Eixample",
    "district": "Eixample",
    "zipcode": "8007",
    "longLongitude": 41.3915,
    "longLatitude": 2.16525,
    "density": 3
  },
  {
    "id": 281,
    "name": "Casa Domènech i Estapà",
    "street": "C València",
    "streetNum": "241",
    "neighbourhood": "la Dreta de l'Eixample",
    "district": "Eixample",
    "zipcode": "8007",
    "longLongitude": 41.3923,
    "longLatitude": 2.16257,
    "density": 3
  },
  {
    "id": 285,
    "name": "Casa Thomas",
    "street": "Mallorca",
    "streetNum": "291",
    "neighbourhood": "la Dreta de l'Eixample",
    "district": "Eixample",
    "zipcode": "8037",
    "longLongitude": 41.3966,
    "longLatitude": 2.16561,
    "density": 3
  },
  {
    "id": 297,
    "name": "Conservatori Municipal de Música de Barcelona",
    "street": "C Bruc",
    "streetNum": "110",
    "neighbourhood": "la Dreta de l'Eixample",
    "district": "Eixample",
    "zipcode": "8009",
    "longLongitude": 41.3959,
    "longLatitude": 2.16804,
    "density": 3
  },
  {
    "id": 311,
    "name": "Palau Robert - Centre d'Informació de Catalunya",
    "street": "Pg Gràcia",
    "streetNum": "107",
    "neighbourhood": "la Dreta de l'Eixample",
    "district": "Eixample",
    "zipcode": "8008",
    "longLongitude": 41.3961,
    "longLatitude": 2.15953,
    "density": 3
  },
  {
    "id": 330,
    "name": "Casa Comalat",
    "street": "Av Diagonal",
    "streetNum": "442",
    "neighbourhood": "la Dreta de l'Eixample",
    "district": "Eixample",
    "zipcode": "8037",
    "longLongitude": 41.3971,
    "longLatitude": 2.16072,
    "density": 3
  },
  {
    "id": 376,
    "name": "Casa de la Lactància",
    "street": "G.V. Corts Catalanes",
    "streetNum": "475",
    "neighbourhood": "la Nova Esquerra de l'Eixample",
    "district": "Eixample",
    "zipcode": "8015",
    "longLongitude": 41.3801,
    "longLatitude": 2.15545,
    "density": 2
  },
  {
    "id": 381,
    "name": "Jardins",
    "street": "G.V. Corts Catalanes",
    "streetNum": "585",
    "neighbourhood": "l'Antiga Esquerra de l'Eixample",
    "district": "Eixample",
    "zipcode": "8007",
    "longLongitude": 41.3866,
    "longLatitude": 2.16403,
    "density": 3
  },
  {
    "id": 388,
    "name": "Mercat Encants Barcelona - Fira de Bellcaire",
    "street": "Carrer de los Castillejos",
    "streetNum": "158",
    "neighbourhood": "el Fort Pienc",
    "district": "Eixample",
    "zipcode": "8013",
    "longLongitude": 41.4011,
    "longLatitude": 2.18567,
    "density": 1
  },
  {
    "id": 395,
    "name": "Casa Faiol - Casa de la Papallona",
    "street": "Llança",
    "streetNum": "20",
    "neighbourhood": "la Nova Esquerra de l'Eixample",
    "district": "Eixample",
    "zipcode": "8015",
    "longLongitude": 41.3766,
    "longLatitude": 2.1503,
    "density": 2
  },
  {
    "id": 403,
    "name": "Estació d'Autobusos Barcelona Nord",
    "street": "C Alí Bei",
    "streetNum": "80",
    "neighbourhood": "el Fort Pienc",
    "district": "Eixample",
    "zipcode": "8013",
    "longLongitude": 41.3943,
    "longLatitude": 2.18234,
    "density": 1
  },
  {
    "id": 417,
    "name": "Teatre Nacional de Catalunya",
    "street": "Plaça de les Arts",
    "streetNum": "1",
    "neighbourhood": "el Fort Pienc",
    "district": "Eixample",
    "zipcode": "8013",
    "longLongitude": 41.3997,
    "longLatitude": 2.18611,
    "density": 1
  },
  {
    "id": 478,
    "name": "El passeig de Sant Joan",
    "street": "Pg Sant Joan",
    "streetNum": "118",
    "neighbourhood": "la Dreta de l'Eixample",
    "district": "Eixample",
    "zipcode": "8037",
    "longLongitude": 41.4005,
    "longLatitude": 2.16856,
    "density": 1
  },
  {
    "id": 481,
    "name": "El Quadrat d'Or",
    "street": "C Consell de Cent",
    "streetNum": "353",
    "neighbourhood": "la Dreta de l'Eixample",
    "district": "Eixample",
    "zipcode": "8007",
    "longLongitude": 41.3918,
    "longLatitude": 2.16639,
    "density": 3
  },
  {
    "id": 503,
    "name": "Museu",
    "street": "Carrer d'Aragó",
    "streetNum": "255",
    "neighbourhood": "la Dreta de l'Eixample",
    "district": "Eixample",
    "zipcode": "8007",
    "longLongitude": 41.3916,
    "longLatitude": 2.16378,
    "density": 3
  },
  {
    "id": 516,
    "name": "Casa Lamadrid",
    "street": "Girona",
    "streetNum": "113",
    "neighbourhood": "la Dreta de l'Eixample",
    "district": "Eixample",
    "zipcode": "8009",
    "longLongitude": 41.3969,
    "longLatitude": 2.16818,
    "density": 3
  },
  {
    "id": 517,
    "name": "Casa Garriga Nogués",
    "street": "Diputació",
    "streetNum": "250",
    "neighbourhood": "la Dreta de l'Eixample",
    "district": "Eixample",
    "zipcode": "8007",
    "longLongitude": 41.3889,
    "longLatitude": 2.16525,
    "density": 3
  },
  {
    "id": 518,
    "name": "Espai Gaudí: Pis, Golfes i Terrat",
    "street": "Provença",
    "streetNum": "261",
    "neighbourhood": "la Dreta de l'Eixample",
    "district": "Eixample",
    "zipcode": "8008",
    "longLongitude": 41.3953,
    "longLatitude": 2.16206,
    "density": 3
  },
  {
    "id": 533,
    "name": "Universitat de Barcelona",
    "street": "G.V. Corts Catalanes",
    "streetNum": "585",
    "neighbourhood": "l'Antiga Esquerra de l'Eixample",
    "district": "Eixample",
    "zipcode": "8007",
    "longLongitude": 41.3866,
    "longLatitude": 2.16403,
    "density": 3
  },
  {
    "id": 565,
    "name": "Jardins del Rector Oliveras",
    "street": "Passatge del Rector Oliveras",
    "streetNum": "2",
    "neighbourhood": "la Dreta de l'Eixample",
    "district": "Eixample",
    "zipcode": "8009",
    "longLongitude": 41.3948,
    "longLatitude": 2.16784,
    "density": 2
  },
  {
    "id": 597,
    "name": "Farmàcia Jordi de Bolós",
    "street": "Rbla Catalunya",
    "streetNum": "77",
    "neighbourhood": "la Dreta de l'Eixample",
    "district": "Eixample",
    "zipcode": "8007",
    "longLongitude": 41.3917,
    "longLatitude": 2.16242,
    "density": 3
  },
  {
    "id": 605,
    "name": "La Plaça de Catalunya",
    "street": "Pl Catalunya",
    "streetNum": "2",
    "neighbourhood": "la Dreta de l'Eixample",
    "district": "Eixample",
    "zipcode": "8002",
    "longLongitude": 41.386,
    "longLatitude": 2.16942,
    "density": 3
  },
  {
    "id": 608,
    "name": "Cases Josefa Villanueva",
    "street": "C Roger de Llúria",
    "streetNum": "80",
    "neighbourhood": "la Dreta de l'Eixample",
    "district": "Eixample",
    "zipcode": "8009",
    "longLongitude": 41.3949,
    "longLatitude": 2.16675,
    "density": 2
  },
  {
    "id": 617,
    "name": "Monument a Josep Tarradellas",
    "street": "Avinguda de Josep Tarradellas",
    "streetNum": "-2147483648",
    "neighbourhood": "la Nova Esquerra de l'Eixample",
    "district": "Eixample",
    "zipcode": "8029",
    "longLongitude": 41.3865,
    "longLatitude": 2.14307,
    "density": 1
  },
  {
    "id": 626,
    "name": "Casa Batlló",
    "street": "Pg Gràcia",
    "streetNum": "43",
    "neighbourhood": "la Dreta de l'Eixample",
    "district": "Eixample",
    "zipcode": "8007",
    "longLongitude": 41.3917,
    "longLatitude": 2.16496,
    "density": 3
  },
  {
    "id": 657,
    "name": "Seu de l'Antiga Hidroelèctrica de Catalunya",
    "street": "C Almogàvers",
    "streetNum": "11",
    "neighbourhood": "el Fort Pienc",
    "district": "Eixample",
    "zipcode": "8018",
    "longLongitude": 41.3919,
    "longLatitude": 2.18286,
    "density": 1
  },
  {
    "id": 667,
    "name": "Escola Superior de Música de Catalunya",
    "street": "C Padilla",
    "streetNum": "155",
    "neighbourhood": "el Fort Pienc",
    "district": "Eixample",
    "zipcode": "8013",
    "longLongitude": 41.3988,
    "longLatitude": 2.18516,
    "density": 1
  },
  {
    "id": 671,
    "name": "Obelisc del Cinc d'Oros",
    "street": "Pl Joan Carles I",
    "streetNum": "9999",
    "neighbourhood": "la Dreta de l'Eixample",
    "district": "Eixample",
    "zipcode": "8008",
    "longLongitude": 41.3965,
    "longLatitude": 2.15951,
    "density": 3
  },
  {
    "id": 672,
    "name": "Museu del Modernisme de Barcelona",
    "street": "C Balmes",
    "streetNum": "48",
    "neighbourhood": "la Dreta de l'Eixample",
    "district": "Eixample",
    "zipcode": "8007",
    "longLongitude": 41.3889,
    "longLatitude": 2.1634,
    "density": 3
  },
  {
    "id": 686,
    "name": "L'Auditori de Barcelona",
    "street": "Carrer de Lepant",
    "streetNum": "150",
    "neighbourhood": "el Fort Pienc",
    "district": "Eixample",
    "zipcode": "8013",
    "longLongitude": 41.3988,
    "longLatitude": 2.18516,
    "density": 1
  },
  {
    "id": 693,
    "name": "Antiga Fàbrica Estrella Damm",
    "street": "Carrer del Rosselló",
    "streetNum": "515",
    "neighbourhood": "la Sagrada Família",
    "district": "Eixample",
    "zipcode": "8025",
    "longLongitude": 41.4091,
    "longLatitude": 2.17818,
    "density": 2
  },
  {
    "id": 694,
    "name": "Cases Francesc Farreras",
    "street": "G.V. Corts Catalanes",
    "streetNum": "536",
    "neighbourhood": "Sant Antoni",
    "district": "Eixample",
    "zipcode": "8011",
    "longLongitude": 41.3826,
    "longLatitude": 2.15955,
    "density": 3
  },
  {
    "id": 695,
    "name": "Casa Pomar",
    "street": "C Girona",
    "streetNum": "86",
    "neighbourhood": "la Dreta de l'Eixample",
    "district": "Eixample",
    "zipcode": "8009",
    "longLongitude": 41.3956,
    "longLatitude": 2.17028,
    "density": 3
  },
  {
    "id": 696,
    "name": "Casa Queraltó",
    "street": "Rbla Catalunya",
    "streetNum": "88",
    "neighbourhood": "la Dreta de l'Eixample",
    "district": "Eixample",
    "zipcode": "8008",
    "longLongitude": 41.3931,
    "longLatitude": 2.16106,
    "density": 3
  },
  {
    "id": 697,
    "name": "Casa Jaume Forn",
    "street": "C València",
    "streetNum": "285",
    "neighbourhood": "la Dreta de l'Eixample",
    "district": "Eixample",
    "zipcode": "8009",
    "longLongitude": 41.3953,
    "longLatitude": 2.16655,
    "density": 2
  },
  {
    "id": 698,
    "name": "Casa Santurce",
    "street": "C València",
    "streetNum": "293",
    "neighbourhood": "la Dreta de l'Eixample",
    "district": "Eixample",
    "zipcode": "8009",
    "longLongitude": 41.3956,
    "longLatitude": 2.16697,
    "density": 2
  },
  {
    "id": 699,
    "name": "Casa Granell *Balmes",
    "street": "C Balmes",
    "streetNum": "65",
    "neighbourhood": "l'Antiga Esquerra de l'Eixample",
    "district": "Eixample",
    "zipcode": "8007",
    "longLongitude": 41.3901,
    "longLatitude": 2.16139,
    "density": 3
  },
  {
    "id": 700,
    "name": "Casa Vallet i Xiró",
    "street": "C Mallorca",
    "streetNum": "302",
    "neighbourhood": "la Dreta de l'Eixample",
    "district": "Eixample",
    "zipcode": "8037",
    "longLongitude": 41.397,
    "longLatitude": 2.16691,
    "density": 3
  },
  {
    "id": 712,
    "name": "Antiga Seu Editorial Gustavo Gili",
    "street": "Rosselló",
    "streetNum": "87",
    "neighbourhood": "la Nova Esquerra de l'Eixample",
    "district": "Eixample",
    "zipcode": "8029",
    "longLongitude": 41.3861,
    "longLatitude": 2.14757,
    "density": 1
  },
  {
    "id": 730,
    "name": "Edifici de La Model",
    "street": "Carrer d'Entença",
    "streetNum": "155",
    "neighbourhood": "la Nova Esquerra de l'Eixample",
    "district": "Eixample",
    "zipcode": "8029",
    "longLongitude": 41.3835,
    "longLatitude": 2.14538,
    "density": 1
  },
  {
    "id": 745,
    "name": "Jardins del Palau Robert",
    "street": "Passeig de Gràcia",
    "streetNum": "107",
    "neighbourhood": "la Dreta de l'Eixample",
    "district": "Eixample",
    "zipcode": "8008",
    "longLongitude": 41.3961,
    "longLatitude": 2.15954,
    "density": 3
  },
  {
    "id": 750,
    "name": "Casa Amatller",
    "street": "Pg Gràcia",
    "streetNum": "41",
    "neighbourhood": "la Dreta de l'Eixample",
    "district": "Eixample",
    "zipcode": "8007",
    "longLongitude": 41.3916,
    "longLatitude": 2.16511,
    "density": 3
  },
  {
    "id": 758,
    "name": "Temple Expiatori de la Sagrada Família - Basílica",
    "street": "Carrer de Provença",
    "streetNum": "450",
    "neighbourhood": "la Sagrada Família",
    "district": "Eixample",
    "zipcode": "8025",
    "longLongitude": 41.404,
    "longLatitude": 2.17393,
    "density": 2
  },
  {
    "id": 760,
    "name": "Parc de Joan Miró",
    "street": "Carrer d'Aragó",
    "streetNum": "2",
    "neighbourhood": "la Nova Esquerra de l'Eixample",
    "district": "Eixample",
    "zipcode": "8015",
    "longLongitude": 41.3788,
    "longLatitude": 2.14733,
    "density": 1
  },
  {
    "id": 783,
    "name": "Casa dels Ossos",
    "street": "Av Diagonal",
    "streetNum": "423",
    "neighbourhood": "l'Antiga Esquerra de l'Eixample",
    "district": "Eixample",
    "zipcode": "8036",
    "longLongitude": 41.3947,
    "longLatitude": 2.15298,
    "density": 2
  },
  {
    "id": 800,
    "name": "Casa Llopis Bofill",
    "street": "Bailèn",
    "streetNum": "113",
    "neighbourhood": "la Dreta de l'Eixample",
    "district": "Eixample",
    "zipcode": "8009",
    "longLongitude": 41.3977,
    "longLatitude": 2.16948,
    "density": 2
  },
  {
    "id": 809,
    "name": "Museu Egipci de Barcelona",
    "street": "Carrer de València",
    "streetNum": "284",
    "neighbourhood": "la Dreta de l'Eixample",
    "district": "Eixample",
    "zipcode": "8007",
    "longLongitude": 41.3937,
    "longLatitude": 2.16475,
    "density": 3
  },
  {
    "id": 819,
    "name": "Casa Terradas - Casa de les Punxes",
    "street": "Av Diagonal",
    "streetNum": "420",
    "neighbourhood": "la Dreta de l'Eixample",
    "district": "Eixample",
    "zipcode": "8037",
    "longLongitude": 41.3979,
    "longLatitude": 2.16386,
    "density": 3
  },
  {
    "id": 821,
    "name": "Casa Company",
    "street": "Buenos Aires",
    "streetNum": "56",
    "neighbourhood": "l'Antiga Esquerra de l'Eixample",
    "district": "Eixample",
    "zipcode": "8036",
    "longLongitude": 41.3931,
    "longLatitude": 2.14819,
    "density": 2
  },
  {
    "id": 828,
    "name": "Casa Planells",
    "street": "Av Diagonal",
    "streetNum": "332",
    "neighbourhood": "la Sagrada Família",
    "district": "Eixample",
    "zipcode": "8013",
    "longLongitude": 41.4006,
    "longLatitude": 2.17463,
    "density": 2
  },
  {
    "id": 849,
    "name": "Mercat Concepció",
    "street": "Carrer d'Aragó",
    "streetNum": "311",
    "neighbourhood": "la Dreta de l'Eixample",
    "district": "Eixample",
    "zipcode": "8009",
    "longLongitude": 41.3956,
    "longLatitude": 2.16907,
    "density": 3
  },
  {
    "id": 852,
    "name": "Mercat Sant Antoni",
    "street": "Carrer del Comte d'Urgell",
    "streetNum": "1",
    "neighbourhood": "Sant Antoni",
    "district": "Eixample",
    "zipcode": "8011",
    "longLongitude": 41.3796,
    "longLatitude": 2.16174,
    "density": 2
  },
  {
    "id": 862,
    "name": "Mercat Ninot",
    "street": "Carrer de Mallorca",
    "streetNum": "133",
    "neighbourhood": "l'Antiga Esquerra de l'Eixample",
    "district": "Eixample",
    "zipcode": "8036",
    "longLongitude": 41.3879,
    "longLatitude": 2.15441,
    "density": 2
  }
]