[
  {
    "id": 8,
    "name": "Platja de la Nova Mar Bella",
    "street": "Pg Marítim de la Mar Bella",
    "streetNum": "128",
    "neighbourhood": "Diagonal Mar i el Front Marítim del Poblenou",
    "district": "Sant Martí",
    "zipcode": "8019",
    "longLongitude": 41.4011,
    "longLatitude": 2.21425,
    "density": 1
  },
  {
    "id": 24,
    "name": "Port Olímpic de Barcelona",
    "street": "Port Olímpic",
    "streetNum": "100",
    "neighbourhood": "la Vila Olímpica del Poblenou",
    "district": "Sant Martí",
    "zipcode": "8005",
    "longLongitude": 41.3877,
    "longLatitude": 2.19928,
    "density": 1
  },
  {
    "id": 36,
    "name": "El passatge d'Antoni Gassol",
    "street": "Ptge Antoni Gassol",
    "streetNum": "1",
    "neighbourhood": "Sant Martí de Provençals",
    "district": "Sant Martí",
    "zipcode": "8018",
    "longLongitude": 41.4128,
    "longLatitude": 2.19558,
    "density": 1
  },
  {
    "id": 57,
    "name": "Placa Fotovoltaica",
    "street": "Pl Fòrum",
    "streetNum": "1",
    "neighbourhood": "el Besòs i el Maresme",
    "district": "Sant Martí",
    "zipcode": "8019",
    "longLongitude": 41.4115,
    "longLatitude": 2.22812,
    "density": 1
  },
  {
    "id": 91,
    "name": "BAU, Centre Universitari d'Arts i Disseny de Barcelona",
    "street": "C Pujades",
    "streetNum": "118",
    "neighbourhood": "el Poblenou",
    "district": "Sant Martí",
    "zipcode": "8005",
    "longLongitude": 41.3977,
    "longLatitude": 2.19564,
    "density": 1
  },
  {
    "id": 95,
    "name": "El Parc del Fòrum",
    "street": "Pl Fòrum",
    "streetNum": "1",
    "neighbourhood": "el Besòs i el Maresme",
    "district": "Sant Martí",
    "zipcode": "8019",
    "longLongitude": 41.4111,
    "longLatitude": 2.22171,
    "density": 1
  },
  {
    "id": 104,
    "name": "Fàbrica de Creació Hangar",
    "street": "C Emília Coranty",
    "streetNum": "8",
    "neighbourhood": "Provençals del Poblenou",
    "district": "Sant Martí",
    "zipcode": "8018",
    "longLongitude": 41.4086,
    "longLatitude": 2.19938,
    "density": 1
  },
  {
    "id": 123,
    "name": "El Campus Ciutadella",
    "street": "C Ramon Trias Fargas",
    "streetNum": "25",
    "neighbourhood": "la Vila Olímpica del Poblenou",
    "district": "Sant Martí",
    "zipcode": "8005",
    "longLongitude": 41.39,
    "longLatitude": 2.19087,
    "density": 1
  },
  {
    "id": 140,
    "name": "El Fòrum",
    "street": "Pl Fòrum",
    "streetNum": "2",
    "neighbourhood": "el Besòs i el Maresme",
    "district": "Sant Martí",
    "zipcode": "8019",
    "longLongitude": 41.4111,
    "longLatitude": 2.22171,
    "density": 1
  },
  {
    "id": 158,
    "name": "El Campus de Comunicació",
    "street": "Carrer de Roc Boronat",
    "streetNum": "134",
    "neighbourhood": "el Parc i la Llacuna del Poblenou",
    "district": "Sant Martí",
    "zipcode": "8018",
    "longLongitude": 41.4037,
    "longLatitude": 2.19353,
    "density": 1
  },
  {
    "id": 168,
    "name": "Museu de Pintura Contemporània Can Framis",
    "street": "Carrer de Roc Boronat",
    "streetNum": "116",
    "neighbourhood": "el Parc i la Llacuna del Poblenou",
    "district": "Sant Martí",
    "zipcode": "8018",
    "longLongitude": 41.4029,
    "longLatitude": 2.19497,
    "density": 1
  },
  {
    "id": 169,
    "name": "MUHBA Museu d'Història de Barcelona - Oliva Artés",
    "street": "Carrer d'Espronceda",
    "streetNum": "142",
    "neighbourhood": "Provençals del Poblenou",
    "district": "Sant Martí",
    "zipcode": "8018",
    "longLongitude": 41.4083,
    "longLatitude": 2.20111,
    "density": 1
  },
  {
    "id": 181,
    "name": "Espai Subirachs - Poblenou",
    "street": "Carrer de Batista",
    "streetNum": "6",
    "neighbourhood": "el Poblenou",
    "district": "Sant Martí",
    "zipcode": "8005",
    "longLongitude": 41.4042,
    "longLatitude": 2.19989,
    "density": 1
  },
  {
    "id": 186,
    "name": "La Vila Olímpica",
    "street": "C Salvador Espriu",
    "streetNum": "43",
    "neighbourhood": "la Vila Olímpica del Poblenou",
    "district": "Sant Martí",
    "zipcode": "8005",
    "longLongitude": 41.3894,
    "longLatitude": 2.19727,
    "density": 1
  },
  {
    "id": 198,
    "name": "Disseny Hub Barcelona",
    "street": "Pl Glòries Catalanes",
    "streetNum": "37",
    "neighbourhood": "el Parc i la Llacuna del Poblenou",
    "district": "Sant Martí",
    "zipcode": "8038",
    "longLongitude": 41.4026,
    "longLatitude": 2.18805,
    "density": 1
  },
  {
    "id": 219,
    "name": "Parc del Clot",
    "street": "Escultors Claperós",
    "streetNum": "55",
    "neighbourhood": "el Clot",
    "district": "Sant Martí",
    "zipcode": "8018",
    "longLongitude": 41.4085,
    "longLatitude": 2.19002,
    "density": 1
  },
  {
    "id": 238,
    "name": "Fàbrica de Creació La Escocesa",
    "street": "Carrer de Pere IV",
    "streetNum": "345",
    "neighbourhood": "Provençals del Poblenou",
    "district": "Sant Martí",
    "zipcode": "8020",
    "longLongitude": 41.4113,
    "longLatitude": 2.20384,
    "density": 1
  },
  {
    "id": 240,
    "name": "Educa +",
    "street": "C Sant Quintí",
    "streetNum": "12",
    "neighbourhood": "el Camp de l'Arpa del Clot",
    "district": "Sant Martí",
    "zipcode": "8026",
    "longLongitude": 41.4125,
    "longLatitude": 2.17957,
    "density": 2
  },
  {
    "id": 257,
    "name": "Antiga Fàbrica d'Estampació Tèxtil Can Ricart",
    "street": "C Emília Coranty",
    "streetNum": "33",
    "neighbourhood": "Provençals del Poblenou",
    "district": "Sant Martí",
    "zipcode": "8018",
    "longLongitude": 41.4092,
    "longLatitude": 2.19817,
    "density": 1
  },
  {
    "id": 306,
    "name": "Memorial en Record de les Víctimes de Trànsit",
    "street": "Passeig Marítim del Bogatell",
    "streetNum": "82",
    "neighbourhood": "el Poblenou",
    "district": "Sant Martí",
    "zipcode": "8005",
    "longLongitude": 41.3946,
    "longLatitude": 2.20675,
    "density": 1
  },
  {
    "id": 307,
    "name": "Platja de la Mar Bella",
    "street": "Passeig Marítim de la Mar Bella",
    "streetNum": "104",
    "neighbourhood": "Diagonal Mar i el Front Marítim del Poblenou",
    "district": "Sant Martí",
    "zipcode": "8005",
    "longLongitude": 41.3986,
    "longLatitude": 2.21233,
    "density": 1
  },
  {
    "id": 310,
    "name": "Edifici MediaTIC",
    "street": "Carrer de Roc Boronat",
    "streetNum": "117",
    "neighbourhood": "el Parc i la Llacuna del Poblenou",
    "district": "Sant Martí",
    "zipcode": "8018",
    "longLongitude": 41.4027,
    "longLatitude": 2.19447,
    "density": 1
  },
  {
    "id": 336,
    "name": "L'Hort del Cànem",
    "street": "Carrer de la Llacuna",
    "streetNum": "31",
    "neighbourhood": "el Poblenou",
    "district": "Sant Martí",
    "zipcode": "8005",
    "longLongitude": 41.3991,
    "longLatitude": 2.20078,
    "density": 2
  },
  {
    "id": 391,
    "name": "Cementiri Poblenou",
    "street": "Avinguda d'Icària",
    "streetNum": "204",
    "neighbourhood": "el Poblenou",
    "district": "Sant Martí",
    "zipcode": "8005",
    "longLongitude": 41.3946,
    "longLatitude": 2.20116,
    "density": 1
  },
  {
    "id": 394,
    "name": "Centre Municipal de Vela",
    "street": "Moll Gregal",
    "streetNum": "33",
    "neighbourhood": "la Vila Olímpica del Poblenou",
    "district": "Sant Martí",
    "zipcode": "8005",
    "longLongitude": 41.3884,
    "longLatitude": 2.2017,
    "density": 1
  },
  {
    "id": 416,
    "name": "Hotel Melia Barcelona Sky - HB-004358",
    "street": "C Pere IV",
    "streetNum": "272",
    "neighbourhood": "el Poblenou",
    "district": "Sant Martí",
    "zipcode": "8005",
    "longLongitude": 41.4063,
    "longLatitude": 2.20063,
    "density": 2
  },
  {
    "id": 419,
    "name": "Torre de les Aigües del Besòs",
    "street": "Plaça de Ramon Calsina",
    "streetNum": "1",
    "neighbourhood": "Diagonal Mar i el Front Marítim del Poblenou",
    "district": "Sant Martí",
    "zipcode": "8019",
    "longLongitude": 41.4055,
    "longLatitude": 2.21256,
    "density": 1
  },
  {
    "id": 420,
    "name": "Parc de Diagonal Mar",
    "street": "Carrer de Llull",
    "streetNum": "356",
    "neighbourhood": "Diagonal Mar i el Front Marítim del Poblenou",
    "district": "Sant Martí",
    "zipcode": "8019",
    "longLongitude": 41.4085,
    "longLatitude": 2.21223,
    "density": 1
  },
  {
    "id": 423,
    "name": "Fundació Privada Centre de Producció Artística i Cultural Palo Alto",
    "street": "C Pellaires",
    "streetNum": "30",
    "neighbourhood": "Diagonal Mar i el Front Marítim del Poblenou",
    "district": "Sant Martí",
    "zipcode": "8019",
    "longLongitude": 41.4045,
    "longLatitude": 2.21026,
    "density": 1
  },
  {
    "id": 453,
    "name": "Eix Comercial del Poblenou",
    "street": "C Pallars",
    "streetNum": "224",
    "neighbourhood": "el Poblenou",
    "district": "Sant Martí",
    "zipcode": "8005",
    "longLongitude": 41.4026,
    "longLatitude": 2.1999,
    "density": 1
  },
  {
    "id": 482,
    "name": "El 22@",
    "street": "C Roc Boronat",
    "streetNum": "113",
    "neighbourhood": "el Parc i la Llacuna del Poblenou",
    "district": "Sant Martí",
    "zipcode": "8018",
    "longLongitude": 41.402,
    "longLatitude": 2.19544,
    "density": 1
  },
  {
    "id": 492,
    "name": "IL3 Institut de Formació Contínua - Universitat de Barcelona",
    "street": "C Ciutat de Granada",
    "streetNum": "131",
    "neighbourhood": "el Parc i la Llacuna del Poblenou",
    "district": "Sant Martí",
    "zipcode": "8018",
    "longLongitude": 41.4028,
    "longLatitude": 2.19215,
    "density": 1
  },
  {
    "id": 494,
    "name": "Base Nàutica Municipal de la Mar Bella",
    "street": "Pg Marítim del Bogatell",
    "streetNum": "102",
    "neighbourhood": "Diagonal Mar i el Front Marítim del Poblenou",
    "district": "Sant Martí",
    "zipcode": "8005",
    "longLongitude": 41.3965,
    "longLatitude": 2.20977,
    "density": 1
  },
  {
    "id": 497,
    "name": "Centre Comercial El Centre de la Vila",
    "street": "C Salvador Espriu",
    "streetNum": "61",
    "neighbourhood": "la Vila Olímpica del Poblenou",
    "district": "Sant Martí",
    "zipcode": "8005",
    "longLongitude": 41.3909,
    "longLatitude": 2.19787,
    "density": 1
  },
  {
    "id": 502,
    "name": "Edifici Torre Telefònica - Diagonal Zero Zero",
    "street": "Pl Ernest Lluch i Martín",
    "streetNum": "5",
    "neighbourhood": "el Besòs i el Maresme",
    "district": "Sant Martí",
    "zipcode": "8019",
    "longLongitude": 41.4122,
    "longLatitude": 2.22125,
    "density": 1
  },
  {
    "id": 506,
    "name": "Platja del Bogatell",
    "street": "Pg Marítim del Bogatell",
    "streetNum": "80",
    "neighbourhood": "el Poblenou",
    "district": "Sant Martí",
    "zipcode": "8005",
    "longLongitude": 41.3946,
    "longLatitude": 2.20675,
    "density": 1
  },
  {
    "id": 541,
    "name": "Parc del Centre del Poblenou",
    "street": "Av Diagonal",
    "streetNum": "130",
    "neighbourhood": "Provençals del Poblenou",
    "district": "Sant Martí",
    "zipcode": "8018",
    "longLongitude": 41.4068,
    "longLatitude": 2.19976,
    "density": 1
  },
  {
    "id": 549,
    "name": "Centre de Convencions Internacional de Barcelona",
    "street": "Plaça de Willy Brandt",
    "streetNum": "11",
    "neighbourhood": "Diagonal Mar i el Front Marítim del Poblenou",
    "district": "Sant Martí",
    "zipcode": "8019",
    "longLongitude": 41.409,
    "longLatitude": 2.21884,
    "density": 1
  },
  {
    "id": 550,
    "name": "Torre Glòries",
    "street": "Av Diagonal",
    "streetNum": "209",
    "neighbourhood": "el Parc i la Llacuna del Poblenou",
    "district": "Sant Martí",
    "zipcode": "8018",
    "longLongitude": 41.4035,
    "longLatitude": 2.18982,
    "density": 1
  },
  {
    "id": 556,
    "name": "Centre Comercial Diagonal Mar",
    "street": "Av Diagonal",
    "streetNum": "3",
    "neighbourhood": "Diagonal Mar i el Front Marítim del Poblenou",
    "district": "Sant Martí",
    "zipcode": "8019",
    "longLongitude": 41.4105,
    "longLatitude": 2.21642,
    "density": 1
  },
  {
    "id": 568,
    "name": "El Poblenou",
    "street": "C Pallars",
    "streetNum": "221",
    "neighbourhood": "el Poblenou",
    "district": "Sant Martí",
    "zipcode": "8005",
    "longLongitude": 41.4023,
    "longLatitude": 2.19906,
    "density": 1
  },
  {
    "id": 609,
    "name": "Platja de Llevant",
    "street": "Av Litoral",
    "streetNum": "114",
    "neighbourhood": "Diagonal Mar i el Front Marítim del Poblenou",
    "district": "Sant Martí",
    "zipcode": "8019",
    "longLongitude": 41.405,
    "longLatitude": 2.21774,
    "density": 1
  },
  {
    "id": 618,
    "name": "Zona de Banys",
    "street": "Plaça del Fòrum",
    "streetNum": "1",
    "neighbourhood": "el Besòs i el Maresme",
    "district": "Sant Martí",
    "zipcode": "8019",
    "longLongitude": 41.4111,
    "longLatitude": 2.22171,
    "density": 1
  },
  {
    "id": 659,
    "name": "El Clot",
    "street": "Pl Font i Sagué",
    "streetNum": "2",
    "neighbourhood": "el Clot",
    "district": "Sant Martí",
    "zipcode": "8018",
    "longLongitude": 41.4078,
    "longLatitude": 2.18847,
    "density": 1
  },
  {
    "id": 663,
    "name": "Ca l'Aranyó",
    "street": "C Roc Boronat",
    "streetNum": "150",
    "neighbourhood": "el Parc i la Llacuna del Poblenou",
    "district": "Sant Martí",
    "zipcode": "8018",
    "longLongitude": 41.4042,
    "longLatitude": 2.19292,
    "density": 1
  },
  {
    "id": 685,
    "name": "Associació d'Emprenedors del Clot-Eix Clot",
    "street": "Carrer de Sant Antoni Maria Claret",
    "streetNum": "358",
    "neighbourhood": "el Camp de l'Arpa del Clot",
    "district": "Sant Martí",
    "zipcode": "8041",
    "longLongitude": 41.4164,
    "longLatitude": 2.18149,
    "density": 1
  },
  {
    "id": 711,
    "name": "Museu de Ciències Naturals de Barcelona",
    "street": "Plaça de Leonardo da Vinci",
    "streetNum": "4",
    "neighbourhood": "el Besòs i el Maresme",
    "district": "Sant Martí",
    "zipcode": "8019",
    "longLongitude": 41.4108,
    "longLatitude": 2.2205,
    "density": 1
  },
  {
    "id": 713,
    "name": "Fundació Barcelona Media - Centre d'Innovació",
    "street": "Av Diagonal",
    "streetNum": "177",
    "neighbourhood": "el Parc i la Llacuna del Poblenou",
    "district": "Sant Martí",
    "zipcode": "8018",
    "longLongitude": 41.4044,
    "longLatitude": 2.19367,
    "density": 1
  },
  {
    "id": 757,
    "name": "La plaça de les Glòries Catalanes",
    "street": "Pl Glòries Catalanes",
    "streetNum": "36",
    "neighbourhood": "el Parc i la Llacuna del Poblenou",
    "district": "Sant Martí",
    "zipcode": "8018",
    "longLongitude": 41.4026,
    "longLatitude": 2.18733,
    "density": 1
  },
  {
    "id": 772,
    "name": "Centre Cultural La Farinera del Clot",
    "street": "Gran Via de les Corts Catalanes",
    "streetNum": "837",
    "neighbourhood": "el Clot",
    "district": "Sant Martí",
    "zipcode": "8018",
    "longLongitude": 41.4049,
    "longLatitude": 2.1884,
    "density": 1
  },
  {
    "id": 786,
    "name": "Parc de Sant Martí",
    "street": "C Menorca",
    "streetNum": "64",
    "neighbourhood": "Sant Martí de Provençals",
    "district": "Sant Martí",
    "zipcode": "8020",
    "longLongitude": 41.4199,
    "longLatitude": 2.19805,
    "density": 1
  },
  {
    "id": 788,
    "name": "Conjunt de Sant Martí de Provençals",
    "street": "C Selva del Camp",
    "streetNum": "2",
    "neighbourhood": "Sant Martí de Provençals",
    "district": "Sant Martí",
    "zipcode": "8020",
    "longLongitude": 41.4209,
    "longLatitude": 2.19664,
    "density": 1
  },
  {
    "id": 803,
    "name": "Centre Comercial Westfield Glòries",
    "street": "Av Diagonal",
    "streetNum": "208",
    "neighbourhood": "el Parc i la Llacuna del Poblenou",
    "district": "Sant Martí",
    "zipcode": "8018",
    "longLongitude": 41.405,
    "longLatitude": 2.19252,
    "density": 1
  },
  {
    "id": 806,
    "name": "Platja de la Nova Icària",
    "street": "Pg Marítim de Nova Icària",
    "streetNum": "60",
    "neighbourhood": "la Vila Olímpica del Poblenou",
    "district": "Sant Martí",
    "zipcode": "8005",
    "longLongitude": 41.3908,
    "longLatitude": 2.20288,
    "density": 1
  },
  {
    "id": 824,
    "name": "Parc del Poblenou",
    "street": "Av Litoral",
    "streetNum": "59",
    "neighbourhood": "el Poblenou",
    "district": "Sant Martí",
    "zipcode": "8005",
    "longLongitude": 41.3973,
    "longLatitude": 2.20747,
    "density": 1
  },
  {
    "id": 830,
    "name": "Fundacio Privada Desenvolupament Comunitari",
    "street": "C Pere Vergés",
    "streetNum": "1",
    "neighbourhood": "la Verneda i la Pau",
    "district": "Sant Martí",
    "zipcode": "8020",
    "longLongitude": 41.4228,
    "longLatitude": 2.20897,
    "density": 1
  },
  {
    "id": 834,
    "name": "Associació Sant Martí Eix Comercial",
    "street": "Carrer de Huelva",
    "streetNum": "111",
    "neighbourhood": "Sant Martí de Provençals",
    "district": "Sant Martí",
    "zipcode": "8020",
    "longLongitude": 41.4203,
    "longLatitude": 2.19982,
    "density": 1
  },
  {
    "id": 847,
    "name": "Centre Cívic Can Felipa",
    "street": "Plaça de Josep Maria Huertas Claveria",
    "streetNum": "1",
    "neighbourhood": "el Poblenou",
    "district": "Sant Martí",
    "zipcode": "8005",
    "longLongitude": 41.4037,
    "longLatitude": 2.20051,
    "density": 1
  },
  {
    "id": 858,
    "name": "Mercat Poblenou - Unió",
    "street": "Pl Unió",
    "streetNum": "25",
    "neighbourhood": "el Poblenou",
    "district": "Sant Martí",
    "zipcode": "8005",
    "longLongitude": 41.401,
    "longLatitude": 2.20543,
    "density": 2
  },
  {
    "id": 860,
    "name": "Mercat Clot",
    "street": "Pl Mercat",
    "streetNum": "26",
    "neighbourhood": "el Clot",
    "district": "Sant Martí",
    "zipcode": "8018",
    "longLongitude": 41.4076,
    "longLatitude": 2.18864,
    "density": 1
  }
]