[
  {
    "id": 15,
    "name": "Palau Sant Jordi",
    "street": "Pg Olímpic",
    "streetNum": "5",
    "neighbourhood": "el Poble-sec",
    "district": "Sants-Montjuïc",
    "zipcode": "8038",
    "longLongitude": 41.362,
    "longLatitude": 2.1524,
    "density": 1
  },
  {
    "id": 18,
    "name": "Jardins de Joan Maragall - Palauet Albéniz",
    "street": "Av Estadi",
    "streetNum": "69",
    "neighbourhood": "el Poble-sec",
    "district": "Sants-Montjuïc",
    "zipcode": "8038",
    "longLongitude": 41.3671,
    "longLatitude": 2.15651,
    "density": 1
  },
  {
    "id": 22,
    "name": "Cases modernistes del carrer de Sants",
    "street": "C Sants",
    "streetNum": "211",
    "neighbourhood": "Sants",
    "district": "Sants-Montjuïc",
    "zipcode": "8028",
    "longLongitude": 41.3755,
    "longLatitude": 2.1327,
    "density": 1
  },
  {
    "id": 28,
    "name": "Institut del Teatre",
    "street": "Pl Margarida Xirgu",
    "streetNum": "1",
    "neighbourhood": "el Poble-sec",
    "district": "Sants-Montjuïc",
    "zipcode": "8004",
    "longLongitude": 41.3707,
    "longLatitude": 2.15745,
    "density": 1
  },
  {
    "id": 41,
    "name": "Telefèric de Montjuïc",
    "street": "Av Miramar",
    "streetNum": "20",
    "neighbourhood": "el Poble-sec",
    "district": "Sants-Montjuïc",
    "zipcode": "8038",
    "longLongitude": 41.3689,
    "longLatitude": 2.16305,
    "density": 1
  },
  {
    "id": 42,
    "name": "Museu Etnològic i de Cultures del Món *Parc Montjuïc",
    "street": "Passeig de Santa Madrona",
    "streetNum": "16",
    "neighbourhood": "el Poble-sec",
    "district": "Sants-Montjuïc",
    "zipcode": "8038",
    "longLongitude": 41.3691,
    "longLatitude": 2.156,
    "density": 1
  },
  {
    "id": 44,
    "name": "Palau de Congressos *Pavelló 5",
    "street": "Av Reina Maria Cristina",
    "streetNum": "1",
    "neighbourhood": "el Poble-sec",
    "district": "Sants-Montjuïc",
    "zipcode": "8004",
    "longLongitude": 41.3724,
    "longLatitude": 2.15189,
    "density": 1
  },
  {
    "id": 45,
    "name": "CaixaForum Barcelona",
    "street": "Avinguda de Francesc Ferrer i Guàrdia",
    "streetNum": "6",
    "neighbourhood": "la Font de la Guatlla",
    "district": "Sants-Montjuïc",
    "zipcode": "8038",
    "longLongitude": 41.3713,
    "longLatitude": 2.14959,
    "density": 1
  },
  {
    "id": 49,
    "name": "L'Anella Olímpica",
    "street": "Av Estadi",
    "streetNum": "44",
    "neighbourhood": "el Poble-sec",
    "district": "Sants-Montjuïc",
    "zipcode": "8038",
    "longLongitude": 41.3662,
    "longLatitude": 2.15258,
    "density": 1
  },
  {
    "id": 58,
    "name": "Mercat de les Flors Centre de les Arts de Moviment",
    "street": "Lleida",
    "streetNum": "59",
    "neighbourhood": "el Poble-sec",
    "district": "Sants-Montjuïc",
    "zipcode": "8004",
    "longLongitude": 41.3705,
    "longLatitude": 2.15727,
    "density": 1
  },
  {
    "id": 76,
    "name": "Escola d'Aprenents SEAT",
    "street": "Pg Zona Franca",
    "streetNum": "53",
    "neighbourhood": "la Marina del Prat Vermell",
    "district": "Sants-Montjuïc",
    "zipcode": "8038",
    "longLongitude": 41.3544,
    "longLatitude": 2.14293,
    "density": 1
  },
  {
    "id": 82,
    "name": "Jardins de Mossèn Costa i Llobera",
    "street": "Ctra Miramar",
    "streetNum": "38",
    "neighbourhood": "el Poble-sec",
    "district": "Sants-Montjuïc",
    "zipcode": "8038",
    "longLongitude": 41.3696,
    "longLatitude": 2.17232,
    "density": 1
  },
  {
    "id": 84,
    "name": "Associació de Comerciants i Veïns de Creu Coberta",
    "street": "C Callao",
    "streetNum": "9",
    "neighbourhood": "Hostafrancs",
    "district": "Sants-Montjuïc",
    "zipcode": "8014",
    "longLongitude": 41.376,
    "longLatitude": 2.14315,
    "density": 2
  },
  {
    "id": 88,
    "name": "MUHBA Museu d'Història de Barcelona  - Refugi 307",
    "street": "Carrer Nou de la Rambla",
    "streetNum": "175",
    "neighbourhood": "el Poble-sec",
    "district": "Sants-Montjuïc",
    "zipcode": "8004",
    "longLongitude": 41.3711,
    "longLatitude": 2.16622,
    "density": 2
  },
  {
    "id": 90,
    "name": "Estació Barcelona-Sants de RENFE",
    "street": "Pl Països Catalans",
    "streetNum": "1",
    "neighbourhood": "Sants",
    "district": "Sants-Montjuïc",
    "zipcode": "8014",
    "longLongitude": 41.3796,
    "longLatitude": 2.14082,
    "density": 1
  },
  {
    "id": 92,
    "name": "Casal Cívic Barcelona - Magòria",
    "street": "G.V. Corts Catalanes",
    "streetNum": "247",
    "neighbourhood": "la Bordeta",
    "district": "Sants-Montjuïc",
    "zipcode": "8014",
    "longLongitude": 41.3699,
    "longLatitude": 2.14126,
    "density": 1
  },
  {
    "id": 126,
    "name": "Parc de Montjuïc",
    "street": "Pg Migdia",
    "streetNum": "147",
    "neighbourhood": "el Poble-sec",
    "district": "Sants-Montjuïc",
    "zipcode": "8038",
    "longLongitude": 41.3614,
    "longLatitude": 2.15973,
    "density": 1
  },
  {
    "id": 160,
    "name": "Masia la Petita Maria",
    "street": "C López Catalán",
    "streetNum": "4",
    "neighbourhood": "Sants",
    "district": "Sants-Montjuïc",
    "zipcode": "8014",
    "longLongitude": 41.376,
    "longLatitude": 2.1374,
    "density": 1
  },
  {
    "id": 170,
    "name": "Museu Olímpic i de l'Esport Joan Antoni Samaranch de Barcelona",
    "street": "Avinguda de l'Estadi",
    "streetNum": "60",
    "neighbourhood": "el Poble-sec",
    "district": "Sants-Montjuïc",
    "zipcode": "8038",
    "longLongitude": 41.3663,
    "longLatitude": 2.15709,
    "density": 1
  },
  {
    "id": 175,
    "name": "Palau de la Premsa",
    "street": "Av Rius i Taulet",
    "streetNum": "5",
    "neighbourhood": "el Poble-sec",
    "district": "Sants-Montjuïc",
    "zipcode": "8004",
    "longLongitude": 41.3725,
    "longLatitude": 2.1539,
    "density": 1
  },
  {
    "id": 176,
    "name": "La Plaça del Sortidor",
    "street": "Pl Sortidor",
    "streetNum": "4",
    "neighbourhood": "el Poble-sec",
    "district": "Sants-Montjuïc",
    "zipcode": "8004",
    "longLongitude": 41.3726,
    "longLatitude": 2.16217,
    "density": 2
  },
  {
    "id": 178,
    "name": "El Canal de la Infanta",
    "street": "C Mare de Déu de Port",
    "streetNum": "56",
    "neighbourhood": "el Poble-sec",
    "district": "Sants-Montjuïc",
    "zipcode": "8038",
    "longLongitude": 41.3544,
    "longLatitude": 2.14901,
    "density": 1
  },
  {
    "id": 184,
    "name": "Sants i Hostafrancs",
    "street": "C Creu Coberta",
    "streetNum": "100",
    "neighbourhood": "Hostafrancs",
    "district": "Sants-Montjuïc",
    "zipcode": "8014",
    "longLongitude": 41.3754,
    "longLatitude": 2.14262,
    "density": 2
  },
  {
    "id": 241,
    "name": "Espai Bombers Parc de la Prevenció de Barcelona",
    "street": "C Lleida",
    "streetNum": "30",
    "neighbourhood": "el Poble-sec",
    "district": "Sants-Montjuïc",
    "zipcode": "8004",
    "longLongitude": 41.3737,
    "longLatitude": 2.15457,
    "density": 2
  },
  {
    "id": 249,
    "name": "Cementiri Montjuïc",
    "street": "Carrer de la Mare de Déu de Port",
    "streetNum": "56",
    "neighbourhood": "el Poble-sec",
    "district": "Sants-Montjuïc",
    "zipcode": "8038",
    "longLongitude": 41.3544,
    "longLatitude": 2.14901,
    "density": 1
  },
  {
    "id": 251,
    "name": "La plaça d'Espanya",
    "street": "Pl Espanya",
    "streetNum": "4",
    "neighbourhood": "el Poble-sec",
    "district": "Sants-Montjuïc",
    "zipcode": "8004",
    "longLongitude": 41.374,
    "longLatitude": 2.14871,
    "density": 1
  },
  {
    "id": 252,
    "name": "El Poble-sec",
    "street": "C Blai",
    "streetNum": "36",
    "neighbourhood": "el Poble-sec",
    "district": "Sants-Montjuïc",
    "zipcode": "8004",
    "longLongitude": 41.374,
    "longLatitude": 2.16385,
    "density": 2
  },
  {
    "id": 262,
    "name": "La Pedrera Romana",
    "street": "C Ferrocarrils Catalans",
    "streetNum": "4",
    "neighbourhood": "el Poble-sec",
    "district": "Sants-Montjuïc",
    "zipcode": "8038",
    "longLongitude": 41.3572,
    "longLatitude": 2.14567,
    "density": 1
  },
  {
    "id": 264,
    "name": "El barri Plus Ultra",
    "street": "C Aviador Ruiz de Alda",
    "streetNum": "28",
    "neighbourhood": "la Marina de Port",
    "district": "Sants-Montjuïc",
    "zipcode": "8038",
    "longLongitude": 41.3606,
    "longLatitude": 2.14103,
    "density": 1
  },
  {
    "id": 271,
    "name": "El Polvorí i Cos de Guàrdia",
    "street": "C Segura",
    "streetNum": "34",
    "neighbourhood": "la Marina de Port",
    "district": "Sants-Montjuïc",
    "zipcode": "8038",
    "longLongitude": 41.3646,
    "longLatitude": 2.14286,
    "density": 1
  },
  {
    "id": 274,
    "name": "Institut Nacional d'Educació Física de Catalunya *Barcelona",
    "street": "Av Estadi",
    "streetNum": "12",
    "neighbourhood": "el Poble-sec",
    "district": "Sants-Montjuïc",
    "zipcode": "8038",
    "longLongitude": 41.3654,
    "longLatitude": 2.14691,
    "density": 1
  },
  {
    "id": 284,
    "name": "Parc de Can Sabaté",
    "street": "C Mineria",
    "streetNum": "16",
    "neighbourhood": "la Marina de Port",
    "district": "Sants-Montjuïc",
    "zipcode": "8038",
    "longLongitude": 41.3644,
    "longLatitude": 2.13775,
    "density": 1
  },
  {
    "id": 292,
    "name": "Torre Montjuïc Calatrava",
    "street": "Pg Minici Natal",
    "streetNum": "8",
    "neighbourhood": "el Poble-sec",
    "district": "Sants-Montjuïc",
    "zipcode": "8038",
    "longLongitude": 41.3648,
    "longLatitude": 2.15166,
    "density": 1
  },
  {
    "id": 308,
    "name": "Consell Municipal del Districte de Sants-Montjuïc",
    "street": "Carrer de la Creu Coberta",
    "streetNum": "104",
    "neighbourhood": "Hostafrancs",
    "district": "Sants-Montjuïc",
    "zipcode": "8014",
    "longLongitude": 41.3754,
    "longLatitude": 2.14227,
    "density": 2
  },
  {
    "id": 318,
    "name": "Museu d'Arqueologia de Catalunya",
    "street": "Passeig de Santa Madrona",
    "streetNum": "39",
    "neighbourhood": "el Poble-sec",
    "district": "Sants-Montjuïc",
    "zipcode": "8038",
    "longLongitude": 41.3702,
    "longLatitude": 2.15766,
    "density": 1
  },
  {
    "id": 332,
    "name": "Avinguda Maria Cristina",
    "street": "Avinguda de la Reina Maria Cristina",
    "streetNum": "1",
    "neighbourhood": "el Poble-sec",
    "district": "Sants-Montjuïc",
    "zipcode": "8004",
    "longLongitude": 41.373,
    "longLatitude": 2.15101,
    "density": 1
  },
  {
    "id": 339,
    "name": "Colònia Bausili",
    "street": "C Colònia Bausili",
    "streetNum": "3",
    "neighbourhood": "la Marina del Prat Vermell",
    "district": "Sants-Montjuïc",
    "zipcode": "8038",
    "longLongitude": 41.353,
    "longLatitude": 2.14355,
    "density": 1
  },
  {
    "id": 356,
    "name": "Parc de la Primavera",
    "street": "C Nou de la Rambla",
    "streetNum": "203",
    "neighbourhood": "el Poble-sec",
    "district": "Sants-Montjuïc",
    "zipcode": "8004",
    "longLongitude": 41.3705,
    "longLatitude": 2.16583,
    "density": 1
  },
  {
    "id": 361,
    "name": "Àntiga Fàbrica de Làmpares Z",
    "street": "Pg Zona Franca",
    "streetNum": "185",
    "neighbourhood": "la Marina de Port",
    "district": "Sants-Montjuïc",
    "zipcode": "8038",
    "longLongitude": 41.361,
    "longLatitude": 2.13787,
    "density": 1
  },
  {
    "id": 362,
    "name": "La Lleialtat Santsenca",
    "street": "Carrer d'Olzinelles",
    "streetNum": "31",
    "neighbourhood": "Sants",
    "district": "Sants-Montjuïc",
    "zipcode": "8014",
    "longLongitude": 41.3729,
    "longLatitude": 2.1367,
    "density": 1
  },
  {
    "id": 377,
    "name": "Esplai Tr3smon",
    "street": "C Mare de Déu de Port",
    "streetNum": "279",
    "neighbourhood": "la Marina de Port",
    "district": "Sants-Montjuïc",
    "zipcode": "8038",
    "longLongitude": 41.3598,
    "longLatitude": 2.14174,
    "density": 1
  },
  {
    "id": 382,
    "name": "Jardins dels Drets Humans",
    "street": "C Foneria",
    "streetNum": "19",
    "neighbourhood": "la Marina de Port",
    "district": "Sants-Montjuïc",
    "zipcode": "8038",
    "longLongitude": 41.361,
    "longLatitude": 2.13671,
    "density": 1
  },
  {
    "id": 392,
    "name": "Parc de l'Espanya Industrial",
    "street": "Carrer de Muntadas",
    "streetNum": "1",
    "neighbourhood": "Sants",
    "district": "Sants-Montjuïc",
    "zipcode": "8014",
    "longLongitude": 41.3765,
    "longLatitude": 2.13987,
    "density": 1
  },
  {
    "id": 398,
    "name": "Estadi Olímpic de Montjuïc Lluís Companys",
    "street": "Passeig Olímpic",
    "streetNum": "17",
    "neighbourhood": "el Poble-sec",
    "district": "Sants-Montjuïc",
    "zipcode": "8038",
    "longLongitude": 41.3647,
    "longLatitude": 2.15568,
    "density": 1
  },
  {
    "id": 405,
    "name": "Jardins del Teatre Grec",
    "street": "Pg Santa Madrona",
    "streetNum": "38",
    "neighbourhood": "el Poble-sec",
    "district": "Sants-Montjuïc",
    "zipcode": "8038",
    "longLongitude": 41.3701,
    "longLatitude": 2.15862,
    "density": 1
  },
  {
    "id": 467,
    "name": "Torre del Rellotge",
    "street": "Pl Bonet i Muixí",
    "streetNum": "3",
    "neighbourhood": "Sants",
    "district": "Sants-Montjuïc",
    "zipcode": "8014",
    "longLongitude": 41.3743,
    "longLatitude": 2.1367,
    "density": 1
  },
  {
    "id": 474,
    "name": "Centre Cívic Cotxeres de Sants",
    "street": "Carrer de Sants",
    "streetNum": "79",
    "neighbourhood": "Sants",
    "district": "Sants-Montjuïc",
    "zipcode": "8014",
    "longLongitude": 41.3753,
    "longLatitude": 2.1369,
    "density": 1
  },
  {
    "id": 475,
    "name": "Hort Urbà Masia Can Mestres",
    "street": "Camí Can Clos",
    "streetNum": "1",
    "neighbourhood": "la Marina de Port",
    "district": "Sants-Montjuïc",
    "zipcode": "8038",
    "longLongitude": 41.3597,
    "longLatitude": 2.14516,
    "density": 1
  },
  {
    "id": 488,
    "name": "Foment Republicà de Sants. Antic Ateneu Batllori",
    "street": "C Cros",
    "streetNum": "7",
    "neighbourhood": "Sants",
    "district": "Sants-Montjuïc",
    "zipcode": "8014",
    "longLongitude": 41.3749,
    "longLatitude": 2.13806,
    "density": 1
  },
  {
    "id": 498,
    "name": "Federació Eix Comercial Sants-Les Corts",
    "street": "C Melcior de Palau",
    "streetNum": "77",
    "neighbourhood": "Sants",
    "district": "Sants-Montjuïc",
    "zipcode": "8014",
    "longLongitude": 41.3798,
    "longLatitude": 2.13452,
    "density": 1
  },
  {
    "id": 512,
    "name": "Ateneu Popular de Sants",
    "street": "Premià",
    "streetNum": "15",
    "neighbourhood": "Sants",
    "district": "Sants-Montjuïc",
    "zipcode": "8014",
    "longLongitude": 41.3765,
    "longLatitude": 2.13889,
    "density": 2
  },
  {
    "id": 515,
    "name": "Fàbrica de Creació Graner",
    "street": "C Jane Addams",
    "streetNum": "14",
    "neighbourhood": "la Marina de Port",
    "district": "Sants-Montjuïc",
    "zipcode": "8038",
    "longLongitude": 41.3615,
    "longLatitude": 2.13598,
    "density": 1
  },
  {
    "id": 531,
    "name": "Jardins de Ramon Margalef i López",
    "street": "Av Estadi",
    "streetNum": "42",
    "neighbourhood": "el Poble-sec",
    "district": "Sants-Montjuïc",
    "zipcode": "8038",
    "longLongitude": 41.3661,
    "longLatitude": 2.15297,
    "density": 1
  },
  {
    "id": 536,
    "name": "Xemeneia de l'antiga Fábrica \"La Porcelana\"",
    "street": "Pl Joan Corrades",
    "streetNum": "1",
    "neighbourhood": "Hostafrancs",
    "district": "Sants-Montjuïc",
    "zipcode": "8014",
    "longLongitude": 41.373,
    "longLatitude": 2.14453,
    "density": 2
  },
  {
    "id": 538,
    "name": "Centre Esportiu Municipal Piscines Bernat Picornell",
    "street": "Av Estadi",
    "streetNum": "30",
    "neighbourhood": "el Poble-sec",
    "district": "Sants-Montjuïc",
    "zipcode": "8038",
    "longLongitude": 41.3663,
    "longLatitude": 2.15079,
    "density": 1
  },
  {
    "id": 540,
    "name": "Centre Cívic Casinet d'Hostafrancs",
    "street": "Carrer del Rector Triadó",
    "streetNum": "53",
    "neighbourhood": "Hostafrancs",
    "district": "Sants-Montjuïc",
    "zipcode": "8014",
    "longLongitude": 41.3779,
    "longLatitude": 2.14322,
    "density": 2
  },
  {
    "id": 559,
    "name": "Associació Sants Establiments Units",
    "street": "C Alcolea",
    "streetNum": "16",
    "neighbourhood": "Sants",
    "district": "Sants-Montjuïc",
    "zipcode": "8014",
    "longLongitude": 41.3761,
    "longLatitude": 2.13684,
    "density": 1
  },
  {
    "id": 562,
    "name": "Escola Mossèn Jacint Verdaguer",
    "street": "C Lleida",
    "streetNum": "32",
    "neighbourhood": "el Poble-sec",
    "district": "Sants-Montjuïc",
    "zipcode": "8004",
    "longLongitude": 41.3733,
    "longLatitude": 2.15482,
    "density": 2
  },
  {
    "id": 582,
    "name": "Fira Barcelona",
    "street": "Avinguda de la Reina Maria Cristina",
    "streetNum": "2",
    "neighbourhood": "el Poble-sec",
    "district": "Sants-Montjuïc",
    "zipcode": "8004",
    "longLongitude": 41.3727,
    "longLatitude": 2.15021,
    "density": 1
  },
  {
    "id": 583,
    "name": "Escullera del Port de Barcelona",
    "street": "Pg Escullera",
    "streetNum": "1",
    "neighbourhood": "la Marina del Prat Vermell",
    "district": "Sants-Montjuïc",
    "zipcode": "8039",
    "longLongitude": 41.3577,
    "longLatitude": 2.17938,
    "density": 1
  },
  {
    "id": 589,
    "name": "Escola Lluís Vives",
    "street": "C Canalejas",
    "streetNum": "107",
    "neighbourhood": "Sants - Badal",
    "district": "Sants-Montjuïc",
    "zipcode": "8028",
    "longLongitude": 41.3719,
    "longLatitude": 2.12809,
    "density": 1
  },
  {
    "id": 593,
    "name": "Museu Nacional d'Art de Catalunya",
    "street": "C Mirador Palau Nacional",
    "streetNum": "6",
    "neighbourhood": "el Poble-sec",
    "district": "Sants-Montjuïc",
    "zipcode": "8004",
    "longLongitude": 41.3689,
    "longLatitude": 2.15338,
    "density": 1
  },
  {
    "id": 624,
    "name": "Parròquia de Sant Medir",
    "street": "C Constitució",
    "streetNum": "17",
    "neighbourhood": "la Bordeta",
    "district": "Sants-Montjuïc",
    "zipcode": "8014",
    "longLongitude": 41.3698,
    "longLatitude": 2.13776,
    "density": 1
  },
  {
    "id": 627,
    "name": "Teatro de los Sentidos",
    "street": "Camí Polvorí",
    "streetNum": "1",
    "neighbourhood": "la Marina de Port",
    "district": "Sants-Montjuïc",
    "zipcode": "8038",
    "longLongitude": 41.3643,
    "longLatitude": 2.14323,
    "density": 1
  },
  {
    "id": 669,
    "name": "Funicular de Montjuïc-TMB",
    "street": "Av Paral.lel",
    "streetNum": "59",
    "neighbourhood": "el Poble-sec",
    "district": "Sants-Montjuïc",
    "zipcode": "8004",
    "longLongitude": 41.3748,
    "longLatitude": 2.17033,
    "density": 2
  },
  {
    "id": 690,
    "name": "Teatre Lliure",
    "street": "Pl Margarida Xirgu",
    "streetNum": "1",
    "neighbourhood": "el Poble-sec",
    "district": "Sants-Montjuïc",
    "zipcode": "8004",
    "longLongitude": 41.3707,
    "longLatitude": 2.15745,
    "density": 1
  },
  {
    "id": 701,
    "name": "Antiga Fàbrica Can Batlló",
    "street": "G.V. Corts Catalanes",
    "streetNum": "155",
    "neighbourhood": "la Bordeta",
    "district": "Sants-Montjuïc",
    "zipcode": "8014",
    "longLongitude": 41.3669,
    "longLatitude": 2.13691,
    "density": 1
  },
  {
    "id": 706,
    "name": "Biblioteca Vapor Vell",
    "street": "Passatge del Vapor Vell",
    "streetNum": "1",
    "neighbourhood": "Sants",
    "district": "Sants-Montjuïc",
    "zipcode": "8028",
    "longLongitude": 41.3769,
    "longLatitude": 2.13475,
    "density": 1
  },
  {
    "id": 707,
    "name": "Castell de Montjuïc",
    "street": "Carretera de Montjuïc",
    "streetNum": "66",
    "neighbourhood": "el Poble-sec",
    "district": "Sants-Montjuïc",
    "zipcode": "8038",
    "longLongitude": 41.3645,
    "longLatitude": 2.16712,
    "density": 1
  },
  {
    "id": 708,
    "name": "Jardins de Joan Brossa",
    "street": "Plaça de Dante",
    "streetNum": "9999",
    "neighbourhood": "el Poble-sec",
    "district": "Sants-Montjuïc",
    "zipcode": "8038",
    "longLongitude": 41.3687,
    "longLatitude": 2.16501,
    "density": 1
  },
  {
    "id": 710,
    "name": "Jardins Laribal",
    "street": "Pg Santa Madrona",
    "streetNum": "2",
    "neighbourhood": "el Poble-sec",
    "district": "Sants-Montjuïc",
    "zipcode": "8038",
    "longLongitude": 41.3681,
    "longLatitude": 2.15848,
    "density": 1
  },
  {
    "id": 717,
    "name": "La Plaça del Setge de 1714",
    "street": "Pl Setge de 1714",
    "streetNum": "-2147483648",
    "neighbourhood": "el Poble-sec",
    "district": "Sants-Montjuïc",
    "zipcode": "8004",
    "longLongitude": 41.3742,
    "longLatitude": 2.16104,
    "density": 2
  },
  {
    "id": 724,
    "name": "Jardins del Mirador de l'Alcalde",
    "street": "Carretera de Montjuïc",
    "streetNum": "41",
    "neighbourhood": "el Poble-sec",
    "district": "Sants-Montjuïc",
    "zipcode": "8038",
    "longLongitude": 41.3669,
    "longLatitude": 2.16919,
    "density": 1
  },
  {
    "id": 737,
    "name": "Parc del Mirador del Poble-sec",
    "street": "Passeig de Montjuïc",
    "streetNum": "59",
    "neighbourhood": "el Poble-sec",
    "district": "Sants-Montjuïc",
    "zipcode": "8038",
    "longLongitude": 41.3719,
    "longLatitude": 2.17018,
    "density": 2
  },
  {
    "id": 739,
    "name": "Jardins de les Tres Xemeneies",
    "street": "Av Paral.lel",
    "streetNum": "49",
    "neighbourhood": "el Poble-sec",
    "district": "Sants-Montjuïc",
    "zipcode": "8004",
    "longLongitude": 41.3745,
    "longLatitude": 2.17243,
    "density": 2
  },
  {
    "id": 740,
    "name": "Parc de la Font Florida",
    "street": "G.V. Corts Catalanes",
    "streetNum": "196",
    "neighbourhood": "la Font de la Guatlla",
    "district": "Sants-Montjuïc",
    "zipcode": "8004",
    "longLongitude": 41.3686,
    "longLatitude": 2.14105,
    "density": 1
  },
  {
    "id": 747,
    "name": "Poble Espanyol de Barcelona",
    "street": "Avinguda de Francesc Ferrer i Guàrdia",
    "streetNum": "13",
    "neighbourhood": "el Poble-sec",
    "district": "Sants-Montjuïc",
    "zipcode": "8038",
    "longLongitude": 41.3691,
    "longLatitude": 2.14674,
    "density": 1
  },
  {
    "id": 752,
    "name": "Parròquia de Santa Madrona",
    "street": "C Tapioles",
    "streetNum": "10",
    "neighbourhood": "el Poble-sec",
    "district": "Sants-Montjuïc",
    "zipcode": "8004",
    "longLongitude": 41.3742,
    "longLatitude": 2.16469,
    "density": 3
  },
  {
    "id": 763,
    "name": "Teatre Grec",
    "street": "Pg Santa Madrona",
    "streetNum": "36",
    "neighbourhood": "el Poble-sec",
    "district": "Sants-Montjuïc",
    "zipcode": "8038",
    "longLongitude": 41.3681,
    "longLatitude": 2.15848,
    "density": 1
  },
  {
    "id": 771,
    "name": "Jardí Botànic de Barcelona",
    "street": "Carrer del Doctor Font i Quer",
    "streetNum": "2",
    "neighbourhood": "el Poble-sec",
    "district": "Sants-Montjuïc",
    "zipcode": "8038",
    "longLongitude": 41.3641,
    "longLatitude": 2.15875,
    "density": 1
  },
  {
    "id": 782,
    "name": "Font Màgica - Fonts de Montjuïc *Aturada degut a la situació d'alerta per sequera",
    "street": "Plaça de Carles Buïgas",
    "streetNum": "1",
    "neighbourhood": "el Poble-sec",
    "district": "Sants-Montjuïc",
    "zipcode": "8038",
    "longLongitude": 41.3702,
    "longLatitude": 2.15403,
    "density": 1
  },
  {
    "id": 784,
    "name": "Jardins Mossèn Cinto Verdaguer",
    "street": "Av Miramar",
    "streetNum": "30",
    "neighbourhood": "el Poble-sec",
    "district": "Sants-Montjuïc",
    "zipcode": "8038",
    "longLongitude": 41.3689,
    "longLatitude": 2.16305,
    "density": 1
  },
  {
    "id": 829,
    "name": "Club Esportiu Mediterrani *Instal·lació Josep Vallès",
    "street": "C Begur",
    "streetNum": "44",
    "neighbourhood": "Sants - Badal",
    "district": "Sants-Montjuïc",
    "zipcode": "8028",
    "longLongitude": 41.3734,
    "longLatitude": 2.13046,
    "density": 1
  },
  {
    "id": 839,
    "name": "Parròquia de la Mare de Déu de Lourdes",
    "street": "C Font Honrada",
    "streetNum": "33",
    "neighbourhood": "el Poble-sec",
    "district": "Sants-Montjuïc",
    "zipcode": "8004",
    "longLongitude": 41.3731,
    "longLatitude": 2.15601,
    "density": 2
  },
  {
    "id": 840,
    "name": "Museu",
    "street": "Avinguda de Miramar",
    "streetNum": "1",
    "neighbourhood": "el Poble-sec",
    "district": "Sants-Montjuïc",
    "zipcode": "8038",
    "longLongitude": 41.3683,
    "longLatitude": 2.16015,
    "density": 1
  },
  {
    "id": 845,
    "name": "La Plaça Santa Madrona",
    "street": "Pl Santa Madrona",
    "streetNum": "3",
    "neighbourhood": "el Poble-sec",
    "district": "Sants-Montjuïc",
    "zipcode": "8004",
    "longLongitude": 41.3735,
    "longLatitude": 2.15631,
    "density": 2
  },
  {
    "id": 846,
    "name": "Pavelló Mies van der Rohe",
    "street": "Avinguda de Francesc Ferrer i Guàrdia",
    "streetNum": "7",
    "neighbourhood": "el Poble-sec",
    "district": "Sants-Montjuïc",
    "zipcode": "8038",
    "longLongitude": 41.3708,
    "longLatitude": 2.14978,
    "density": 1
  },
  {
    "id": 855,
    "name": "Centre Cívic Casa del Rellotge",
    "street": "Passeig de la Zona Franca",
    "streetNum": "116",
    "neighbourhood": "la Marina de Port",
    "district": "Sants-Montjuïc",
    "zipcode": "8038",
    "longLongitude": 41.3576,
    "longLatitude": 2.14141,
    "density": 1
  },
  {
    "id": 869,
    "name": "Mercat Sants",
    "street": "C Sant Jordi",
    "streetNum": "6",
    "neighbourhood": "Sants",
    "district": "Sants-Montjuïc",
    "zipcode": "8028",
    "longLongitude": 41.3747,
    "longLatitude": 2.13375,
    "density": 1
  },
  {
    "id": 870,
    "name": "Mercat Hostafrancs",
    "street": "Carrer de la Creu Coberta",
    "streetNum": "93",
    "neighbourhood": "Hostafrancs",
    "district": "Sants-Montjuïc",
    "zipcode": "8014",
    "longLongitude": 41.3752,
    "longLatitude": 2.14385,
    "density": 2
  }
]